address,area,city,lat,lng,name,province
林廓西路15东南50米,城关区,拉萨市,91.113986,29.655957,小牛电动,西藏自治区
地安门西大街4号,西城区,北京市,116.395138,39.933218,小牛电动,北京市
交道口南大街74号,东城区,北京市,116.408937,39.938568,小牛电动,北京市
云岗新商业街193号,丰台区,北京市,116.148608,39.805240,小牛电动,北京市
天秀路2号荷塘月舍1号楼8A,海淀区,北京市,116.280419,40.020858,小牛电动,北京市
林校北路4号附近,大兴区,北京市,116.338832,39.722152,小牛电动,北京市
北四环西路51号,海淀区,北京市,116.317011,39.985934,小牛电动车授权体验店(中关村店),北京市
清河强佑新城2号楼1层103,海淀区,北京市,116.346190,40.030006,小牛电动(清河体验店),北京市
东四北大街70-1号附近,东城区,北京市,116.417151,39.938117,小牛电动车,北京市
望京街5号方恒时代A座11层,朝阳区,北京市,116.484240,39.992287,小牛电动车,北京市
义宾街与新顺北大街交叉口西150米,顺义区,北京市,116.649638,40.132174,小牛电动(顺义店),北京市
田村路畅茜园雪芳里1号楼1层112,海淀区,北京市,116.246809,39.929244,小牛电动(田村授权体验店),北京市
安慧北里逸园甲11号楼,朝阳区,北京市,116.414308,40.002574,小牛电动(大屯路店),北京市
无,海淀区,北京市,116.305007,39.961185,小牛电动(长春桥路店),北京市
来广营镇红军营南路赢秋苑1号楼地商,朝阳区,北京市,116.435864,40.032809,小牛电动(北苑受权店),北京市
常营万象新天南侧416C,朝阳区,北京市,116.593568,39.925839,小牛电动(常营店),北京市
开阳里三街东口路南,丰台区,北京市,116.373408,39.864214,小牛电动(南站开阳里店),北京市
学院南路29附近,海淀区,北京市,116.348482,39.958407,小牛电动车,北京市
北五村小区外环路232号附近,通州区,北京市,116.546921,39.762792,小牛电动车,北京市
站前路18号附近,昌平区,北京市,116.268145,40.125162,小牛电动车,北京市
青年路西里5号院1号楼润枫水尚东区底商,朝阳区,北京市,116.516391,39.928215,小牛电动(大悦城授权专卖店),北京市
黄陈路银地家园A区8-12号楼底商,丰台区,北京市,116.335594,39.822067,小牛电动车(新发地店),北京市
南磨房路27号平乐园小区北门对面,朝阳区,北京市,116.482394,39.884646,小牛电动车(南磨房店),北京市
北四环中路248-1号,海淀区,北京市,116.346233,39.986204,小牛电动授权体验店,北京市
南横东街5-16号01号,西城区,北京市,116.381964,39.883788,小牛电动车授权专卖店(南横东街店),北京市
金泽家园C区303号楼102,朝阳区,北京市,116.562481,39.960432,小牛电动车专卖,北京市
无,丰台区,北京市,116.287821,39.848665,niu小牛电动,北京市
芍药居北里117号楼底商小牛电动,朝阳区,北京市,116.434441,39.987095,小牛电动授权体验店,北京市
万芳路与首经贸北路交叉口西北50米,丰台区,北京市,116.316177,39.844795,首经贸小牛电动,北京市
广渠门外大街15号临17号,朝阳区,北京市,116.453480,39.893892,小牛电动授权体验店,北京市
正阳大街65号,丰台区,北京市,116.288271,39.848691,绿能电动车(丰台火车站店),北京市
双桥路107号康惠园3号院,朝阳区,北京市,116.577677,39.904627,小牛电动授权体验店,北京市
新街口外大街6号14幢一层6-3,西城区,北京市,116.370853,39.963867,小牛电动授权体验店,北京市
龙锦苑东四区25-25,昌平区,北京市,116.372661,40.084429,小牛电动体验店,北京市
角门北路3号院1号楼底商,丰台区,北京市,116.382127,39.850426,小牛电动授权体验店,北京市
玉带河西街1-3号(通州党校东边),通州区,北京市,116.654442,39.901164,小牛电动授权体验店,北京市
华源一里5号楼底商,丰台区,北京市,116.313299,39.882057,小牛电动授权体验店(六里桥店),北京市
安乐林路10号附近,东城区,北京市,116.413600,39.864436,小牛电动授权体验店,北京市
开阳里八区东门(动漫大道北邻),丰台区,北京市,116.373401,39.864171,小牛电动授权体验店(开阳里店),北京市
木樨园5号楼底商,丰台区,北京市,116.403571,39.857543,小牛电动授权体验店(木樨园店),北京市
红莲南路与鸭子桥路交叉口西南100米,西城区,北京市,116.346440,39.876948,小牛电动授权体验店(白纸坊店),北京市
回龙观镇回龙观东大街336号院1号楼1层,昌平区,北京市,116.351560,40.080220,小牛电动授权体验店(回龙观店),北京市
广顺北大街六佰本商业街一层17-3,朝阳区,北京市,116.466792,40.010690,小牛电动体验店(望京东湖渠店),北京市
横一条与顺四条交叉口东100米,丰台区,北京市,116.434242,39.854383,小牛电动授权体验店,北京市
正阳北里18号楼一层12-1,丰台区,北京市,116.287803,39.848657,小牛电动授权体验店,北京市
和平里北街42号安外花园7号,东城区,北京市,116.412036,39.958851,小牛电动授权体验店(和平里北街店),北京市
北小街6号楼6-7号,东城区,北京市,116.426367,39.927901,小牛电动授权体验店,北京市
高粱桥斜街丙40号院1号,海淀区,北京市,116.342928,39.947149,小牛电动专卖店(西直门交大店),北京市
太阳宫南街,朝阳区,北京市,116.455096,39.967595,小牛电动授权专营店(太阳宫南街金星园店),北京市
安定门内大街39号(安定门桥南50米路西),东城区,北京市,116.408012,39.947830,绿源电动车(安定门店),北京市
芳园西路高家园5区2号,朝阳区,北京市,116.486795,39.979095,小牛电动授权体验店(芳园西路),北京市
东直门东四北大街62号,东城区,北京市,116.417155,39.938270,绿能电动车(东四北大街),北京市
古城西路113号景山财富中心底商,石景山区,北京市,116.178774,39.914892,小牛电动授权体验店,北京市
玉带河西街新华南路75号(潞河中学东门向北50米),通州区,北京市,116.657726,39.904381,绿源绿能小牛电动车,北京市
南新园东路美景东方9号楼A座,朝阳区,北京市,116.471947,39.869360,小牛电动车华威桥授权体验店,北京市
广渠路86号-4,东城区,北京市,116.426921,39.893145,小牛电动车授权店(磁器口店),北京市
右安门内大街与右安门后巷交叉口东南100米,西城区,北京市,116.364345,39.874088,小牛电动车授权专卖店(右安门店),北京市
水碓子东路6号楼北侧(鹤寿堂药店、京客隆便利店旁),朝阳区,北京市,116.473116,39.926481,小牛电动车授权体验店(水碓子东路店),北京市
西三环北路12号附近,海淀区,北京市,116.310035,39.952179,小牛电动车万寿寺授权体验店,北京市
水碓子东路附近,朝阳区,北京市,116.473236,39.926393,小牛电动车售后中心,北京市
小武基路甲1号东100米,朝阳区,北京市,116.488660,39.860253,新云车行,北京市
和平里北街76号附近,东城区,北京市,116.411921,39.958985,小牛电动和平里店(北门),北京市
长江道226号,南开区,天津市,117.156497,39.130199,小牛电动授权体验店,天津市
商业道与沿河路交叉口南100米,宁河区,天津市,117.831737,39.335221,小牛电动授权体验店,天津市
榆关道447号,河北区,天津市,117.183134,39.178434,小牛电动授权体验店,天津市
黑牛城道与黑牛城道入口交叉口西南50米,河西区,天津市,117.207428,39.076679,小牛电动授权体验店,天津市
李七庄街辛院平房,西青区,天津市,117.163622,39.051469,小牛电动车,天津市
榆关道447号,河北区,天津市,117.183094,39.178424,天津河北区榆关道447号小牛电动车,天津市
迎新街曙光路路口,滨海新区,天津市,117.450837,38.843215,小牛电动车摩托车维修,天津市
无,宝坻区,天津市,117.291646,39.704726,宝坻区小牛电动车经销部,天津市
文化街汉华世家25号楼6门,滨海新区,天津市,117.805377,39.254030,小牛电动车授权体验店,天津市
育才街怀特电动车城B1层,裕华区,石家庄市,114.528314,38.024083,小牛电动,河北省
新中街296号,固安县,廊坊市,116.294866,39.438186,小牛电动,河北省
槐安西路262号,桥西区,石家庄市,114.432021,38.024712,小牛电动,河北省
西大街223号,莲池区,保定市,115.497562,38.861342,小牛电动,河北省
青园街31附近,长安区,石家庄市,114.517356,38.045980,小牛电动,河北省
淑阳大街17号,香河县,廊坊市,117.003032,39.759612,小牛电动,河北省
平光北大街与中山东路交叉口西北120米,平山县,石家庄市,114.204666,38.257272,小牛电动,河北省
石门小区煤机街和槐中路交口东行50米路南498-1,裕华区,石家庄市,114.551803,38.028789,小牛电动(槐中路店),河北省
中山东路与谈固西街交叉口东100米,长安区,石家庄市,114.558852,38.043295,小牛电动(中山东路店),河北省
槐安东路1号37号,桥西区,石家庄市,114.495093,38.023524,小牛电动授权专卖店,河北省
和平西路135号-11号,新华区,石家庄市,114.487030,38.056114,小牛电动授权专卖店,河北省
霸州镇建设东道886号小牛电动车,霸州市,廊坊市,116.399116,39.111708,小牛电动车,河北省
红旗大街与汇新路交叉口南行50米路东,桥西区,石家庄市,114.460489,37.998882,小牛电动(西美花街店),河北省
七一西路602号,竞秀区,保定市,115.455452,38.881732,小牛电动(七一西路体验店),河北省
行宫西大街76号附近,三河市,廊坊市,116.805077,39.948431,小牛电动车,河北省
龙泽北路220号附近,路北区,唐山市,118.186904,39.662106,小牛电动车,河北省
和平西路与鼎盛西大街交叉口东50米,三河市,廊坊市,117.068941,39.981173,小牛电动车,河北省
解放东路12-20号,新华区,沧州市,116.864105,38.305690,小牛电动(授权体验店),河北省
兴茂街与广源路交叉口西北50米,裕华区,石家庄市,114.551668,37.982203,小牛电动授权专卖店,河北省
燕郊开发区燕顺路西城派出所南50米,三河市,廊坊市,116.778263,39.965380,小牛电动授权体验店,河北省
北二环东路入口与胜利北街交叉口东100米,长安区,石家庄市,114.514791,38.078493,小牛电动车授权专卖店,河北省
开泰街61号西北60米,桥西区,石家庄市,114.432197,38.058607,小牛电动授权专卖店,河北省
胜利大街353号润德五金城B区21号,裕华区,石家庄市,114.495152,37.990528,小牛电动授权专卖店,河北省
海阳路132号附近,海港区,秦皇岛市,119.594762,39.934867,小牛电动专卖店,河北省
爱民东道与银河北路交叉口东南50米,广阳区,廊坊市,116.699184,39.526547,小牛电动专卖店,河北省
新西街与西大街交叉口南150米,桥东区,邢台市,114.499388,37.059364,小牛电动专卖店,河北省
稽山新天地A7-1-13,丛台区,邯郸市,114.481871,36.606361,小牛电动体验店,河北省
兴华西路盛世豪庭小区1号楼底商,定州市,保定市,114.991311,38.521033,小牛电动专卖店,河北省
光明西道62号附近,安次区,廊坊市,116.700167,39.512208,小牛电动授权体验店,河北省
和平西路29号,新华区,石家庄市,114.491291,38.055138,小牛电动授权体验店,河北省
复兴路217号,路南区,唐山市,118.210790,39.620030,小牛电动授权体验店,河北省
建华大街鼎坚市场C区10栋底商,长安区,石家庄市,114.544613,38.073099,小牛电动授权体验店(鼎坚店),河北省
胜利南街353号附近,裕华区,石家庄市,114.495881,37.988584,小牛电动授权专卖店(润德五金城店),河北省
北环路358号附近,霸州市,廊坊市,116.700632,39.069164,小牛智能电动车(胜芳体验店),河北省
向阳路与福康街交叉口西150米,高阳县,保定市,115.790105,38.685015,小牛,河北省
莲池区辉煌旅馆南170米(长城南大街东),莲池区,保定市,115.510310,38.818070,小牛精修电动车,河北省
开元西路与望远北街交叉口东北50米,魏县,邯郸市,114.932201,36.364365,小牛电车,河北省
小店村四十米路3号1户1层,小店区,太原市,112.576153,37.739664,小牛电动,山西省
青年路22号青年路,迎泽区,太原市,112.566528,37.855248,小牛电动,山西省
敦化南路79号,杏花岭区,太原市,112.591017,37.885553,小牛电动,山西省
大寨路与大王路交叉口北150米,万柏林区,太原市,112.526526,37.834547,小牛电动授权专卖店,山西省
学府街12号,小店区,太原市,112.590004,37.807247,小牛电动专卖店,山西省
体育路118号,小店区,太原市,112.569422,37.831147,小牛电动授权体验店,山西省
解放路160号(工会小区东北),杏花岭区,太原市,112.562157,37.882799,小牛电动专卖店,山西省
336省道北50米附近,盐湖区,运城市,110.854250,34.905960,小牛电动工具,山西省
禹都经济技术开发区禹都大道禹都市场,盐湖区,运城市,111.024292,35.051300,小牛电动授权体验店,山西省
中山西街蒲金苑,永济市,运城市,110.439122,34.850291,吴群小刀小牛电动车,山西省
038乡道南50米,盐湖区,运城市,111.004361,35.180849,小牛电动车三轮车行,山西省
新市西街1457号,城区,晋城市,112.838638,35.499511,小牛电动授权体验店,山西省
凤城北街40号附近,中阳县,吕梁市,111.187544,37.350301,小牛电动车售后,山西省
大北街51号,平城区,大同市,113.302007,40.095279,小牛车行,山西省
北苑路与站东大街交叉口北150米(北区),平城区,大同市,113.307802,40.123730,小牛车行,山西省
五一街绿都新村百富门西十字路口东南,临河区,巴彦淖尔市,107.401890,40.742172,小牛电动车便民服务站,内蒙古自治区
南顺城路63号附近,沈河区,沈阳市,123.458625,41.792730,小牛电动,辽宁省
无,南关区,长春市,125.340281,43.894799,小牛电动(长春体验店),吉林省
民主路与蛟河大街交叉口东50米,蛟河市,吉林市,127.348156,43.724583,小牛电动车体验店,吉林省
林荫路44号西100米,昌邑区,吉林市,126.568743,43.882641,小牛电动车电器修理,吉林省
三林镇永泰路1468号,浦东新区,上海市,121.532159,31.144040,小牛电动,上海市
江场西路1088,静安区,上海市,121.430904,31.297071,小牛电动,上海市
东宝兴路1008号,静安区,上海市,121.471879,31.265340,小牛电动,上海市
李村路18号,普陀区,上海市,121.409442,31.236185,小牛电动,上海市
南丹路130号,徐汇区,上海市,121.432332,31.189277,小牛电动,上海市
物华路100号,虹口区,上海市,121.495205,31.260497,小牛电动,上海市
虎林路167号,宝山区,上海市,121.460175,31.331103,小牛电动,上海市
中山北路748号,静安区,上海市,121.460031,31.260168,小牛电动,上海市
东川路2673号,闵行区,上海市,121.401267,31.008714,小牛电动,上海市
广中路598号,虹口区,上海市,121.466042,31.279823,小牛电动车,上海市
中谊路与新镇路交叉口西100米,闵行区,上海市,121.365017,31.144319,小牛电动车,上海市
大同路670号,浦东新区,上海市,121.576222,31.339763,小牛电动车,上海市
无,徐汇区,上海市,121.450770,31.184832,小牛电动(宛平南路店),上海市
长宁路1590号,长宁区,上海市,121.407709,31.217335,小牛电动(长宁路旗舰体验店),上海市
古北路83号,长宁区,上海市,121.399317,31.216291,小牛电动(古北店),上海市
小东门街道中华路316号-2,黄浦区,上海市,121.499044,31.220185,小牛电动(上海黄浦中华路直营店),上海市
惠南镇城南路206号,浦东新区,上海市,121.751140,31.040100,小牛电动(惠南店),上海市
程家桥支路与虹中路交叉口东北100米,闵行区,上海市,121.381841,31.184338,小牛电动(虹中路授权店),上海市
松江环城路902号附近,松江区,上海市,121.246442,31.012699,小牛电动(松江环城路店),上海市
淞虹路673号,长宁区,上海市,121.361006,31.213156,小牛电动（旗舰体验店）,上海市
万安路455号小牛电动,虹口区,上海市,121.481881,31.301655,小牛电动车,上海市
奎照路675-677号,虹口区,上海市,121.472385,31.300370,小牛电动车(旗舰店),上海市
共和新路4437号近保德路,静安区,上海市,121.448734,31.313892,小牛电动车(共和新路旗舰店),上海市
政立路815号,杨浦区,上海市,121.495271,31.308274,小牛电动车(政立路旗舰店),上海市
龙吴路1131-2号,徐汇区,上海市,121.450368,31.145448,小牛电动车(龙吴路旗航店),上海市
盈港路257号,青浦区,上海市,121.119529,31.158764,小牛电动车(青浦盈港路店),上海市
延长中路766号103,静安区,上海市,121.446561,31.266894,小牛电动车延长中路旗舰店,上海市
抚顺路218-220号,杨浦区,上海市,121.516134,31.280811,小牛电动授权体验店(抚顺路店),上海市
环镇北路147号,宝山区,上海市,121.411134,31.308433,小牛电动旗舰店,上海市
翔殷路479号附近,杨浦区,上海市,121.537900,31.306426,小牛电动授权体验店,上海市
桂林路115号附近,徐汇区,上海市,121.419135,31.165353,小牛电动授权体验店,上海市
七宝镇吴中路2628号世元车城,闵行区,上海市,121.350822,31.164367,小牛电动授权体验店,上海市
张杨路1685-2号附近,浦东新区,上海市,121.544669,31.236549,小牛电动授权体验店,上海市
杨思路903-905号附近,浦东新区,上海市,121.501096,31.163548,小牛电动授权体验店,上海市
武定路609号(武定路与西康路交叉口东50米),静安区,上海市,121.449221,31.232726,小牛电动授权专卖店,上海市
内环高架路与南车站路交叉口西100米,黄浦区,上海市,121.493421,31.204258,小牛电动授权体验店(中山南路店),上海市
威海路165-1号,黄浦区,上海市,121.467951,31.227502,小牛电动授权体验店,上海市
斜土路1360号附近,徐汇区,上海市,121.462778,31.198285,小牛电动授权体验店,上海市
德华路665号,嘉定区,上海市,121.306975,31.291988,小牛电动南翔体验店,上海市
大连西路530号,虹口区,上海市,121.485118,31.276025,爱玛电动&小牛电动(宝红车行),上海市
浦东南路1798号(近浦电路),浦东新区,上海市,121.518598,31.216719,小牛电动授权体验店,上海市
中山北路2399号近岚皋路,普陀区,上海市,121.424838,31.245027,小牛电动授权体验店(武宁旗舰店),上海市
大连西路530号(欧阳路与大连西路交叉口西行30米路北),虹口区,上海市,121.485218,31.276072,小牛电动授权体验店,上海市
新华路679号,长宁区,上海市,121.420143,31.204963,小牛电动授权体验店,上海市
南桥镇南奉公路9266号,奉贤区,上海市,121.467096,30.913066,小牛电动授权体验专卖店,上海市
铜川路西100米,普陀区,上海市,121.415309,31.252907,小牛电动授权专卖店,上海市
华灵路1941号,宝山区,上海市,121.402337,31.280585,小牛电动授权专卖店大华店,上海市
罗秀路1235号-3,徐汇区,上海市,121.420796,31.128964,小牛电动罗秀路专卖店,上海市
新泾镇淞虹路666号,长宁区,上海市,121.360987,31.213289,小牛电动授权专卖店,上海市
奎照路675号附近,虹口区,上海市,121.472451,31.300355,小牛电动授权专卖店,上海市
环城路900号附近,松江区,上海市,121.246570,31.012659,小牛电动授权专卖店,上海市
大场镇新沪路852号,宝山区,上海市,121.419483,31.271012,小牛电动授权专卖店,上海市
嘉罗公路465号附近,嘉定区,上海市,121.261799,31.384943,小牛电动授权专卖店,上海市
龙茗路1502号,闵行区,上海市,121.384028,31.147455,小牛电动授权专卖店,上海市
梅川路1033-1号,普陀区,上海市,121.390128,31.240086,小牛电动授权专卖店,上海市
莘北路105号,闵行区,上海市,121.373424,31.113967,小牛电动授权专卖店,上海市
长阳路3041-3043号,杨浦区,上海市,121.547999,31.277920,小牛电动授权专卖店(长阳路店),上海市
长阳路3041-3043号,杨浦区,上海市,121.547927,31.277894,小牛电动授权旗舰店(长阳路店),上海市
东川路2673号,闵行区,上海市,121.401372,31.008723,小牛电动闵行区东川路授权体验店,上海市
桃浦镇红棉路299号,普陀区,上海市,121.350782,31.282511,小牛电动车行,上海市
无,徐汇区,上海市,121.437912,31.168719,小牛电动徐汇龙漕路体验店,上海市
翔殷路479号,杨浦区,上海市,121.537804,31.306452,小牛电动车授权(翔殷路专卖店),上海市
威海路165-1号,黄浦区,上海市,121.468197,31.227571,小牛电动车威海路旗舰店,上海市
四川中路580号小牛电动,黄浦区,上海市,121.486564,31.241665,小牛电动车黄浦区四川中路店,上海市
桂林路115号,徐汇区,上海市,121.419148,31.165483,小牛电动车桂林路旗舰店,上海市
曹安公路2051-5号,嘉定区,上海市,121.348042,31.258195,小牛电动车曹安公路授权体验店,上海市
斜土路1360号,徐汇区,上海市,121.462784,31.198333,小牛电动车斜土路旗舰店,上海市
祁连山南路1555-1561,嘉定区,上海市,121.370470,31.247040,上海祁连山南路小牛电动车新大州电动车,上海市
襄阳北路8号,静安区,上海市,121.454443,31.220068,小牛电动授权体验店,上海市
安远路285号5楼,普陀区,上海市,121.443321,31.239889,小牛直营店,上海市
乐都路418号,松江区,上海市,121.220218,31.013590,松江小牛旗舰店,上海市
共和新路4437号(市北医院对面),静安区,上海市,121.448736,31.313893,依莱达电动车(科杯共和店),上海市
镇南路7号,浦东新区,上海市,121.633578,31.304619,小牛电动车(装修中),上海市
奉城镇南奉公路356号,奉贤区,上海市,121.631653,30.912632,小牛车行(奉旺路),上海市
湖塘镇鸣凰武宜中路33号,武进区,常州市,119.935403,31.676556,小牛电动,江苏省
汶河南路11号,广陵区,扬州市,119.433136,32.386194,小牛电动,江苏省
崇文路与桃园路交叉口东150米,崇川区,南通市,120.901036,31.969163,小牛电动,江苏省
玉带西街与王陵路交叉口北150米,泉山区,徐州市,117.183592,34.257474,小牛电动,江苏省
华地百货东南侧100米,江阴市,无锡市,120.278062,31.903596,小牛电动,江苏省
萧林中路699号-18,昆山市,苏州市,120.955381,31.403753,小牛电动,江苏省
珠江路605号一2,玄武区,南京市,118.803287,32.047307,小牛电动,江苏省
溧城镇平陵中路319号(佬土鹅肠火锅隔壁),溧阳市,常州市,119.486730,31.422561,小牛电动,江苏省
康泰北路与青年路交叉口东50米,海州区,连云港市,119.179209,34.598121,小牛电动,江苏省
府前路尚品家居南60米,铜山区,徐州市,117.125089,34.364872,小牛电动,江苏省
礼政路85号附近,武进区,常州市,120.008999,31.621654,小牛电动,江苏省
新建路141号(新日电动正对面),靖江市,泰州市,120.265908,32.021332,小牛电动,江苏省
银河路79号,通州区,南通市,121.074095,32.072543,小牛电动,江苏省
外环西路555号汇达广场5幢103,港闸区,南通市,120.828074,32.026738,小牛电动,江苏省
游湖路翡丽湾北3幢120号,吴中区,苏州市,120.693920,31.246408,小牛电动,江苏省
惠民路与长坝路交叉口东南50米,亭湖区,盐城市,120.122668,33.372786,小牛电动,江苏省
水西门大街55-1号,建邺区,南京市,118.767324,32.030334,小牛电动,江苏省
乌鹊桥路36号附近,姑苏区,苏州市,120.628393,31.294139,小牛电动,江苏省
楚州大道196-5号附近,淮安区,淮安市,119.156584,33.504528,小牛电动,江苏省
梦溪路50-3号,京口区,镇江市,119.464057,32.207526,小牛电动,江苏省
牌楼街道睿商财富广场小牛电动马场,鼓楼区,徐州市,117.189798,34.290923,小牛电动,江苏省
建中路95号北80米,武进区,常州市,120.014879,31.663675,小牛电动,江苏省
南京路1号8附近,铜山区,徐州市,117.179896,34.186065,小牛电动,江苏省
顶山街道浦珠中路237-19号,浦口区,南京市,118.682969,32.104677,小牛电动,江苏省
旭东路与毕洼路交叉口西南150米,六合区,南京市,118.759333,32.223813,小牛电动,江苏省
新港中心路,崇川区,南通市,120.910677,31.958419,小牛电动,江苏省
葛关路与葛塘街交叉口西50米,六合区,南京市,118.744600,32.244969,小牛电动,江苏省
六川路与富民路交叉口南100米,海门市,南通市,121.351394,31.984324,小牛电动,江苏省
大庆中路与鼓楼北路交叉口西南150米,泰兴市,泰州市,120.016570,32.172830,小牛电动,江苏省
黄河南路博雅干洗对面,泉山区,徐州市,117.151698,34.273909,小牛电动,江苏省
象山路与金燕路交叉口东北150米,鼓楼区,南京市,118.762477,32.105710,小牛电动,江苏省
解放东路81-7号,海州区,连云港市,119.186987,34.608598,小牛电动,江苏省
吴门桥街道南园南路34号,姑苏区,苏州市,120.638018,31.281716,小牛电动,江苏省
黄逮镇潘阳新村269号,相城区,苏州市,120.546855,31.437013,小牛电动,江苏省
新庄路127号附近,沛县,徐州市,116.935496,34.732199,小牛电动,江苏省
睢城镇元府西路滨河名城南门,睢宁县,徐州市,117.937921,33.898665,小牛电动,江苏省
下淀路15号商住楼4单元(彭友缘隔壁),鼓楼区,徐州市,117.221125,34.285019,小牛电动,江苏省
瑞江线与镇南路交叉口东南50米,海门市,南通市,121.195501,31.959696,小牛电动,江苏省
王川线北50米,海门市,南通市,121.475263,31.980982,小牛电动,江苏省
碧溪东路12号附近,常熟市,苏州市,120.938296,31.724135,小牛电动,江苏省
第三十八中学西隔壁,鼓楼区,徐州市,117.134750,34.290878,小牛电动,江苏省
兴业路,铜山区,徐州市,117.255245,34.363289,小牛电动,江苏省
淳溪镇温州商贸城011号,高淳区,南京市,118.876865,31.323431,小牛电动,江苏省
太湖新城镇松陵镇体育路35号,吴江区,苏州市,120.654962,31.146099,小牛电动,江苏省
国际风情街,盐都区,盐城市,120.173624,33.341965,小牛电动(欧洲风行街店),江苏省
仙女镇长江路215号行政服务中心对面,江都区,扬州市,119.580151,32.422938,小牛电动(江都专卖店),江苏省
博爱路177-1号,天宁区,常州市,119.957807,31.784155,小牛电动车,江苏省
仲英大道137-139号,吴江区,苏州市,120.631986,31.156208,小牛电动(吴江旗舰店),江苏省
真州镇人民街75号,仪征市,扬州市,119.180751,32.268777,小牛电动(仪征专卖店),江苏省
徐霞客镇中山路247号,江阴市,无锡市,120.308010,31.813849,小牛电动(授权体验店),江苏省
富康路393号(富康路派出所对面),宿城区,宿迁市,118.282985,33.947577,小牛电动(富康路二店),江苏省
铜沛办事处西阁街环城路148号,鼓楼区,徐州市,117.185861,34.276869,小牛电动(环城路店),江苏省
东沙湖路与琉璃街交叉口东150米,苏州工业园区,苏州市,120.749292,31.331654,小牛电动(九龙仓店),江苏省
西沈浒路588号32栋109-1室,苏州工业园区,苏州市,120.709401,31.330568,小牛电动(玲珑店),江苏省
凤凰西街182-5号附近,鼓楼区,南京市,118.747113,32.040962,小牛电动(凤凰西街店),江苏省
云阳镇中山路文昌苑110-11号,丹阳市,镇江市,119.580209,31.996030,小牛电动(文昌苑店),江苏省
高巷路577号,江阴市,无锡市,120.276760,31.909730,小牛电动(江阴专卖店),江苏省
内环东线588-2号附近,秦淮区,南京市,118.798157,32.014849,小牛电动(内环东线辅路),江苏省
铜山路一号天桥东路北公交站北面中国移动东隔壁,云龙区,徐州市,117.212356,34.261279,小牛电动(天桥东店),江苏省
东环路1518号新苏大厦一楼,苏州工业园区,苏州市,120.647849,31.321423,小牛电动(东环路店),江苏省
泰山路鑫泰小区1-7门面,泉山区,徐州市,117.188092,34.222856,小牛电动(矿大方圆店),江苏省
模范西路古平岗1号5幢,鼓楼区,南京市,118.754943,32.070543,小牛电动(模范西路),江苏省
北京北路翟山派出所南20米,泉山区,徐州市,117.193771,34.206728,小牛电动(翟山街道办事处北),江苏省
珠江路246号8-10,常熟市,苏州市,120.746358,31.664513,小牛电动(珠江路),江苏省
万达广场5号门对面,云龙区,徐州市,117.244963,34.253940,小牛电动(云龙万达广场店),江苏省
东吴北路78-3号,吴中区,苏州市,120.628567,31.267665,小牛电动(东吴北路店),江苏省
胥江路175号,姑苏区,苏州市,120.607165,31.289229,小牛电动(胥江路店),江苏省
东丰路与赵声路交叉口南100米,京口区,镇江市,119.670235,32.179233,小牛电动(大港赵声路店),江苏省
人民西路186号,江阴市,无锡市,120.246252,31.900304,小牛电动(江阴万达店),江苏省
人民北路8号附近,江阴市,无锡市,120.419003,31.769929,小牛电动(祝塘体验店),江苏省
天生桥大道366号康利商业广场F1,溧水区,南京市,119.040853,31.637890,小牛电动(溧水店),江苏省
泰山路106号附近,六合区,南京市,118.846827,32.341252,小牛电动(六合专卖店),江苏省
人民中路288号,姜堰区,泰州市,120.150631,32.498556,小牛电动(姜堰授权专卖店),江苏省
人民南路149号,太仓市,苏州市,121.103544,31.451774,小牛电动(太仓店),江苏省
建设南路与民主路交叉口西北50米,邳州市,徐州市,117.960036,34.312926,小牛电动(邳州授权专卖店),江苏省
南浦路303号旭日家园门面房1-103,浦口区,南京市,118.738148,32.140997,小牛电动车,江苏省
中山北路249号小牛电动车,鼓楼区,南京市,118.766227,32.073813,小牛电动车,江苏省
石湖西路51号,吴中区,苏州市,120.628041,31.252531,小牛电动车,江苏省
吴韵路326号小牛电动,惠山区,无锡市,120.300965,31.675354,小牛电动(万达店),江苏省
解放东路浦东花园南门向西500米,清江浦区,淮安市,119.043369,33.580425,小牛电动(浦东花园店),江苏省
五一路与青年北路交叉口东北100米,海陵区,泰州市,119.912969,32.490582,小牛电动(泰州海陵店),江苏省
万科信成道1期36-1,滨湖区,无锡市,120.296513,31.493360,小牛电动(海岸城店),江苏省
户部街32-1号,秦淮区,南京市,118.790144,32.035397,小牛电动(新街口店),江苏省
唯亭街道夷亭路3号,苏州工业园区,苏州市,120.791361,31.356984,小牛电动（唯亭店）,江苏省
文化路93-7号附近,赣榆区,连云港市,119.129957,34.844525,小牛电动(文化路专卖店),江苏省
怀德中路288-1号,钟楼区,常州市,119.911761,31.774094,小牛电动(怀德路花园店),江苏省
盛岸西路36附近,惠山区,无锡市,120.240089,31.609236,小牛电动(盛岸西路店),江苏省
后标营路50号-9,秦淮区,南京市,118.824517,32.030969,小牛电动(后标营店),江苏省
瑞金路1-68号,秦淮区,南京市,118.809482,32.032404,小牛电动(瑞金路授权体验店),江苏省
高新区长江路841号,海门市,南通市,121.185345,31.886194,小牛电动,江苏省
莫愁路329号,秦淮区,南京市,118.774486,32.036779,小牛电动授权专卖店,江苏省
丰臣凯林花园1-105号,新北区,常州市,119.970844,31.821479,小牛电动(丰臣凯林花园店),江苏省
集庆门大街186号凤栖苑,建邺区,南京市,118.744409,32.028308,小牛电动,江苏省
汶河南路32号,广陵区,扬州市,119.432883,32.387389,小牛电动(扬州体验店),江苏省
中山路665号,梁溪区,无锡市,120.295273,31.585130,小牛电动(中山路店),江苏省
阜湖路,常熟市,苏州市,120.750166,31.639766,小牛电动(阜湖路店),江苏省
东临路与天河路交叉口北50米,海门市,南通市,121.488284,32.052882,小牛电动,江苏省
庄泉路48号附近,润州区,镇江市,119.434881,32.193015,小牛电动车,江苏省
高新区曙光西路11-33号1幢15-3,海安市,南通市,120.458385,32.537333,小牛电动车,江苏省
青年东路69号,云龙区,徐州市,117.200736,34.262476,小牛电动(青年路旗舰店),江苏省
仙林大学城尚东商业街A2号,栖霞区,南京市,118.927476,32.095478,小牛电动车,江苏省
中央路300号,玄武区,南京市,118.784351,32.086816,小牛电动车,江苏省
中山西路南50米,丰县,徐州市,116.669622,34.868193,小牛电动车,江苏省
下淀路11号楼一单元701,鼓楼区,徐州市,117.211997,34.280148,小牛电动车,江苏省
青年路3号,丰县,徐州市,116.592671,34.697428,小牛电动车,江苏省
新扬北路117号,扬中市,镇江市,119.804170,32.237693,小牛电动车,江苏省
淮海西路263号港务大厦金港大酒店南50米,泉山区,徐州市,117.157793,34.260765,小牛电动(二环西路店),江苏省
双塘街道集庆路69号,秦淮区,南京市,118.776610,32.018400,小牛电动官方授权(南京专卖店),江苏省
民祥园路正德君城1楼门面12号(万达广场西侧),云龙区,徐州市,117.245495,34.254152,小牛电动(民祥园路店),江苏省
青阳南路28-50号附近,泗洪县,宿迁市,118.221823,33.453738,泗洪小牛电动,江苏省
王陵街道解放桥建国西路35号,泉山区,徐州市,117.184424,34.258590,小牛电动车(建国西路店),江苏省
震川中路368号,昆山市,苏州市,120.977091,31.378332,小牛电动授权体验店(总店),江苏省
大庆中路158号,亭湖区,盐城市,120.131864,33.369015,小牛电动车(大庆路店),江苏省
白蒲镇政府对面,如皋市,南通市,120.767412,32.248084,小牛电动车(白蒲店),江苏省
虞山镇元和路324号,常熟市,苏州市,120.726128,31.625864,小牛电动车(元和路),江苏省
中山门大街与马群街交叉口西南50米,栖霞区,南京市,118.890353,32.049067,小牛电动车(马群店),江苏省
濠西路3号号附近,崇川区,南通市,120.858715,32.017687,小牛电动车(授权体验店),江苏省
朱方路58号,润州区,镇江市,119.424850,32.206204,镇江小牛电动车,江苏省
太湖大道765号附近,梁溪区,无锡市,120.332357,31.569557,小牛电动车(新区欧尚店),江苏省
梁清路123号附近,滨湖区,无锡市,120.272341,31.559522,小牛电动车(梁清路店),江苏省
新颜路141(大润发十字路口向南100米处),常熟市,苏州市,120.763456,31.643728,小牛电动车(新颜路),江苏省
广德路东支路北50米,鼓楼区,徐州市,117.280158,34.284831,小牛电动授权专卖店(广德路东支路),江苏省
人民路3333号华豪国际1层,姑苏区,苏州市,120.612663,31.343535,小牛电动授权专卖店(万达店),江苏省
何山路129号,虎丘区,苏州市,120.551991,31.306160,小牛电动授权专卖店,江苏省
上海路1号楼三单元,铜山区,徐州市,117.184638,34.186218,小牛电动车授权体验店,江苏省
东山街道上元大街622号,江宁区,南京市,118.850323,31.955112,小牛电动车体验店(江宁授权体验店),江苏省
人民中路92号,崇川区,南通市,120.857986,32.016163,NIU小牛电动,江苏省
佳成花苑7号楼,崇川区,南通市,120.847834,32.013105,NIU小牛电动,江苏省
枫桥枫舟苑西,虎丘区,苏州市,120.550734,31.308222,NIU小牛电动,江苏省
诚信大道998号星光名座3一104,江宁区,南京市,118.838758,31.909282,niu小牛电动,江苏省
吴韵路268号,惠山区,无锡市,120.300770,31.673860,NIU小牛电动,江苏省
人民西路14458,海安市,南通市,120.452206,32.541473,小牛电动专卖店,江苏省
西善桥交通商住楼102号,雨花台区,南京市,118.718450,31.959642,小牛电动专卖店,江苏省
范公南路21、23号附近,东台市,盐城市,120.331929,32.848319,小牛电动专卖店,江苏省
中信时代广场西北角,贾汪区,徐州市,117.448919,34.443867,小牛电动专卖店,江苏省
浩盛路65号附近,海门市,南通市,121.327300,32.056584,欧派电动车(王浩镇人民代表大会南),江苏省
东山街道上元大街622号,江宁区,南京市,118.850429,31.955150,爱玛电动车(上元大街),江苏省
工农路472号,崇川区,南通市,120.880544,32.029271,小牛电动体验店,江苏省
怡园北村39幢105门店,港闸区,南通市,120.850095,32.049106,小牛电动授权体验店,江苏省
兰陵路28号2附近,天宁区,常州市,119.947542,31.762147,小牛电动授权体验店,江苏省
建宁路57-1号附近,鼓楼区,南京市,118.771282,32.092070,小牛电动授权体验店,江苏省
解放西路128号,姑苏区,苏州市,120.595091,31.277541,小牛电动授权体验店,江苏省
星港路青枫颐景花园2-11,钟楼区,常州市,119.895187,31.804774,小牛电动专卖店,江苏省
阊胥路575号远东大厦1层101室,姑苏区,苏州市,120.603858,31.308604,小牛电动授权体验店,江苏省
东大影壁与珠江路交叉口西北50米,玄武区,南京市,118.803280,32.047359,小牛电动授权体验店,江苏省
营苑北路8号,玄武区,南京市,118.829811,32.104436,小牛电动体验店,江苏省
和燕路260号小牛电动授权直营店,栖霞区,南京市,118.802847,32.097954,小牛电动授权体验店,江苏省
青园南路9-4号,如东县,南通市,121.178559,32.299977,小牛电动授权体验店(如东店),江苏省
景德路182-1号,姑苏区,苏州市,120.616705,31.310578,小牛电动授权专卖店,江苏省
人民路与大王家巷交叉口东南50米,姑苏区,苏州市,120.620328,31.318960,小牛电动授权体验店,江苏省
金盛路69号,江宁区,南京市,118.818017,31.967652,小牛电动金盛路授权专卖店,江苏省
汇龙镇建新路6号,启东市,南通市,121.666419,31.805486,小牛电动授权体验店(建新路),江苏省
人民西路39号,海安市,南通市,120.451679,32.541394,小牛电动授权专卖店(海安店),江苏省
永达路与江通路交叉口西200米,港闸区,南通市,120.884127,32.060168,秦灶小牛电动专卖店,江苏省
汉城路与鼓楼街交叉口东北200米,沛县,徐州市,116.935941,34.737870,小牛电动授权经销点,江苏省
义乌小商品城B区12栋,江宁区,南京市,118.878237,31.937223,小牛电动授权专卖店(义乌店),江苏省
兴业路与商业街交叉口东南100米,亭湖区,盐城市,120.181037,33.356888,小牛电动授权经销点,江苏省
中山北路与狗耳巷交叉口西北50米,鼓楼区,南京市,118.764485,32.076173,小牛电动官方授权专卖店,江苏省
中山北路与环城路交叉口东50米,鼓楼区,徐州市,117.185791,34.276879,小牛电动授权体验店,江苏省
建国西路与玉带东街交叉口东南50米,泉山区,徐州市,117.183413,34.258729,小牛电动授权体验店,江苏省
江夏路80号1号东50米,常熟市,苏州市,120.875830,31.710834,小牛电动授权体验店,江苏省
暨阳中路与河西路交叉口西50米,张家港市,苏州市,120.546419,31.868235,小牛电动授权体验店,江苏省
东横街与博爱路交叉口东南50米,天宁区,常州市,119.957774,31.784160,小牛电动授权体验店,江苏省
安宜东路69号第四号门市,宝应县,扬州市,119.330419,33.236387,小牛电动授权体验店,江苏省
光华路2号黄埔鑫园9栋108,秦淮区,南京市,118.815955,32.019553,小牛电动授权体验店,江苏省
人民西路49号,沭阳县,宿迁市,118.769628,34.129479,小牛电动授权体验店,江苏省
淮海中路58-21号附近,泗阳县,宿迁市,118.679839,33.713904,小牛电动授权体验店,江苏省
太滆东路43号,宜兴市,无锡市,119.822350,31.367955,小牛电动授权体验店,江苏省
大中镇人民南路,大丰区,盐城市,120.462925,33.201895,大丰区小牛电动体验店,江苏省
盛泽镇东方中路515号,吴江区,苏州市,120.661262,30.906640,小牛电动授权体验店,江苏省
金盛路69号,江宁区,南京市,118.818093,31.967663,小牛电动授权专卖店,江苏省
清凉门大街179号,鼓楼区,南京市,118.742281,32.046207,小牛电动授权专卖店,江苏省
无,雨花台区,南京市,118.761208,31.963417,小牛电动授权专卖店,江苏省
菜市街57-33号附近,东海县,连云港市,118.766304,34.520620,小牛电动授权专卖店,江苏省
丽岛路中浦家园101室,浦口区,南京市,118.724963,32.129095,小牛电动授权专卖店,江苏省
干将东路636号2栋,姑苏区,苏州市,120.631929,31.308806,小牛电动授权专卖店,江苏省
淮塔东路奎园农贸市场东20米,泉山区,徐州市,117.202475,34.236482,小牛电动授权专卖店,江苏省
干将东路13号102室,姑苏区,苏州市,120.648654,31.311725,小牛电动授权专卖店,江苏省
寅中路与江寅线交叉口东150米,启东市,南通市,121.864089,31.709460,小牛电动寅阳镇授权体验店,江苏省
无,贾汪区,徐州市,117.348163,34.288033,小牛电动授权专卖店,江苏省
德政路彭城往事西隔壁,云龙区,徐州市,117.238558,34.241896,小牛电动授权专卖店,江苏省
竹辉路88号附近,姑苏区,苏州市,120.641713,31.294022,小牛电动授权专卖店,江苏省
跨塘苏杭时代800号,苏州工业园区,苏州市,120.687187,31.342062,小牛电动授权专卖店,江苏省
新安路,新沂市,徐州市,118.351407,34.377064,小牛电动授权专卖店,江苏省
柳洲东路88附近,浦口区,南京市,118.738090,32.140984,小牛电动授权专卖店,江苏省
大中镇人民北路40号黄记煌隔壁,大丰区,盐城市,120.462868,33.205101,小牛电动授权专卖店,江苏省
新兴路与热河南路交叉口西南50米,鼓楼区,南京市,118.741604,32.082323,小牛电动授权专卖店,江苏省
文德路33号,浦口区,南京市,118.624733,32.054819,小牛电动授权专卖店,江苏省
北京北路47号,沭阳县,宿迁市,118.770676,34.126873,小牛电动授权专卖店,江苏省
第三十八中学西隔壁,鼓楼区,徐州市,117.134852,34.290868,小牛电动九里授权体验店,江苏省
金城镇东环一路88-10号,金坛区,常州市,119.582412,31.744172,小牛电动授权体验店(金坛店),江苏省
凤凰城a区1号,宿城区,宿迁市,118.301946,33.951395,宿迁小牛电动车(西湖路一店),江苏省
太阳星辰花园162幢110室,苏州工业园区,苏州市,120.764240,31.333544,小牛电动授权专卖店(太阳城店),江苏省
文昌中路203号,广陵区,扬州市,119.450240,32.395210,小牛电动授权体验店,江苏省
湖塘镇人民中路346号,武进区,常州市,119.962994,31.727453,小牛电动体验店,江苏省
竹辉路88号桂花公园对面,姑苏区,苏州市,120.641720,31.294047,小牛电动体验店,江苏省
昭阳镇花园路67号,兴化市,泰州市,119.842286,32.928622,小牛电动车专卖店,江苏省
大治街与海阳路交叉口东北50米,如皋市,南通市,120.568568,32.383947,小牛电动车授权(如皋体验店),江苏省
永宁路8号,亭湖区,盐城市,120.142336,33.399526,小牛电动授权体验店,江苏省
高新区东洲路35号,海门市,南通市,121.172681,31.891717,小牛电动授权专卖店,江苏省
学前东路208号,梁溪区,无锡市,120.318334,31.572943,小牛电动授权体验店(学前路店),江苏省
煤港路58号,鼓楼区,徐州市,117.201321,34.287814,小牛电动授权专卖店,江苏省
淮海西路103号,清江浦区,淮安市,119.013264,33.595143,小牛电动授权体验店(淮海西路店),江苏省
板仓街9号,玄武区,南京市,118.818281,32.067526,小牛电动授权体验店(玄武板仓店)(暂停营业),江苏省
建设南路65-5号,邳州市,徐州市,117.958232,34.309451,小牛电动车体验店,江苏省
汉城北路(新大苏果超市北200米路东)城镇小学南50米,沛县,徐州市,116.935666,34.737566,小牛电动车体验店,江苏省
工农路8附近,崇川区,南通市,120.883888,31.999838,小牛电动授权体验店(工农路南店),江苏省
集庆路69号,秦淮区,南京市,118.776542,32.018466,小牛电动车网络体验店,江苏省
大庆路与新西门路交叉口西北50米,亭湖区,盐城市,120.133297,33.369561,小牛电动授权专卖店,江苏省
深圳路19-1号,清江浦区,淮安市,119.074002,33.591142,小牛电动授权专卖店,江苏省
中华西路与海滨大道交叉口西南50米,连云区,连云港市,119.378571,34.741110,小牛电动授权专卖店,江苏省
海州站西南100米(宝利商业街),海州区,连云港市,119.138553,34.576470,小牛电动授权专卖店,江苏省
纬五路56号附近,京口区,镇江市,119.498167,32.182024,小牛电动授权专卖店(纬五路店),江苏省
越溪街道越溪镇越溪街403号伊诺皮肤管理小牛电动车,吴中区,苏州市,120.588184,31.210236,伊诺皮肤管理小牛电动车,江苏省
新模范马路22-2号,鼓楼区,南京市,118.779068,32.077787,小牛电动车授权服务店,江苏省
周庄镇光辉路322号,江阴市,无锡市,120.408892,31.856368,小牛电动车授权体验店,江苏省
向阳东路73号,建湖县,盐城市,119.797631,33.473147,小牛电动车建湖体验店,江苏省
任港路22-4号,崇川区,南通市,120.852007,32.010802,小牛电动车仁港路授权专卖店,江苏省
中山北路204-10号,鼓楼区,南京市,118.764755,32.076260,小牛电动车升级版旗舰店,江苏省
虎踞路45-2号,鼓楼区,南京市,118.762182,32.045497,虎踞路45-2号小牛电动车,江苏省
青年西路519号,海州区,连云港市,119.179150,34.598188,小牛智能锂电电动车,江苏省
长坝路万方名城静心园1号楼,亭湖区,盐城市,120.123120,33.372843,小牛授权服务店,江苏省
下淀路99号下安达汽修向西100米,鼓楼区,徐州市,117.221191,34.285032,小牛车行(下淀店),江苏省
金山东路10-10号,泉山区,徐州市,117.188087,34.222684,小牛电动授权服务店,江苏省
溧城镇平陵中路319号1幢,溧阳市,常州市,119.486804,31.422725,小牛电动授权体验店,江苏省
青口镇丽景街86号,赣榆区,连云港市,119.121652,34.843037,小牛电动授权专卖店(丽景街店),江苏省
杨家路与永安街交叉口东100米,泉山区,徐州市,117.174157,34.260597,小牛制衣,江苏省
金盛路43号,江宁区,南京市,118.817954,31.967550,南京市江宁区牛电电动自行车经营部,江苏省
永阳镇康利广场大润发一楼,溧水区,南京市,119.039969,31.637476,小牛体验店,江苏省
工业园区德海线德胜中心小学,海门市,南通市,121.165564,31.953025,真爱小牛,江苏省
朱方路201号,润州区,镇江市,119.424576,32.205950,新蕾电动车(镇江旗舰店),江苏省
郭庄路99号世茂广场1层,云龙区,徐州市,117.224625,34.242124,大润发小牛电动车专卖厅(三环东路),江苏省
武进经济开发区西太湖经发区腾龙路2号国际智慧园3号,武进区,常州市,119.837001,31.704789,小牛电动-仓库,江苏省
徐霞客镇峭岐中兴路2号,江阴市,无锡市,120.305889,31.811182,小牛电动车无锡中转仓库,江苏省
中山北路与环城路交叉立交桥南50米,鼓楼区,徐州市,117.185709,34.276175,小牛电动售后服务中心,江苏省
经济开发区菱香路5号,武进区,常州市,119.839921,31.702666,江苏小牛电动科技有限公司,江苏省
濠北路北郭东村东区2栋对面,崇川区,南通市,120.879848,32.025896,小牛金箭售后,江苏省
建国西路玉带东街(中山饭店西门),泉山区,徐州市,117.184967,34.257534,小牛售后,江苏省
群赞路与青年路交叉口西200米,铜山区,徐州市,117.080988,34.281673,小牛电车,江苏省
黎明西路26弄2-1号附近,鹿城区,温州市,120.672967,28.012012,小牛电动,浙江省
罗阳大道542-544号,瑞安市,温州市,120.660988,27.781869,小牛电动,浙江省
世纪大道7号7-8,黄岩区,台州市,121.254019,28.649925,小牛电动,浙江省
隆山东路63号,瑞安市,温州市,120.647128,27.773820,小牛电动,浙江省
凤新路195号,余杭区,杭州市,119.943703,30.260219,小牛电动,浙江省
解放街303-305号,莲都区,丽水市,119.924783,28.447269,小牛电动,浙江省
里王路191号,路桥区,台州市,121.374012,28.576457,小牛电动,浙江省
东海大道1185号(台州实验中学旁边),椒江区,台州市,121.408307,28.648834,小牛电动,浙江省
104国道慈湖段170号,瓯海区,温州市,120.655282,27.954325,小牛电动,浙江省
茶山睦祥锦园71号,瓯海区,温州市,120.698360,27.913066,小牛电动,浙江省
杭行路融创瑷颐湾13-22号,余杭区,杭州市,120.116445,30.341074,小牛电动,浙江省
郭溪街道郭西村溪源路861号,瓯海区,温州市,120.528843,27.996647,小牛电动,浙江省
钱江路532号附近,上城区,杭州市,120.196936,30.235188,小牛电动,浙江省
闲林东路7号,余杭区,杭州市,120.005325,30.229634,小牛电动,浙江省
三墩镇三墩路468号1层,西湖区,杭州市,120.093385,30.322978,小牛电动,浙江省
文三西路317号,西湖区,杭州市,120.098909,30.275579,小牛电动,浙江省
公园路12号附近,吴兴区,湖州市,120.260596,30.874255,小牛电动,浙江省
罗阳镇泰庆南路91号,泰顺县,温州市,119.709953,27.555767,小牛电动,浙江省
丽园北路1510号,海曙区,宁波市,121.520260,29.897627,小牛电动(青林湾店),浙江省
云石街与镇明路交叉口北100米,海曙区,宁波市,121.545278,29.865464,小牛电动(月湖店),浙江省
鹿城路与鹿城路后巷六十二弄交叉口北5米,鹿城区,温州市,120.643113,28.011235,小牛电动(鹿城路店),浙江省
小南路与府前街交叉口西100米,鹿城区,温州市,120.657419,28.008697,小牛电动(人民路店),浙江省
中河街道钱湖北路908号,鄞州区,宁波市,121.567516,29.823008,小牛电动(钱湖北路店),浙江省
明新路163号附近,鄞州区,宁波市,121.602498,29.884181,小牛电动(港隆店),浙江省
联盛广场C1区1层1-16-1,鄞州区,宁波市,121.538840,29.824692,小牛电动(联盛广场店),浙江省
舜水南路86-1号,余姚市,宁波市,121.150457,30.043368,小牛电动(余姚店),浙江省
锦苑西巷4-6号附近,鄞州区,宁波市,121.587662,29.872269,小牛电动(体育馆店),浙江省
三北西大街75号,慈溪市,宁波市,121.248038,30.174085,小牛电动(慈溪店),浙江省
新世界路与金陵中路交叉口西南50米,长兴县,湖州市,119.906437,31.001064,小牛电动(授权体验店),浙江省
复兴路143号,上城区,杭州市,120.169713,30.213263,小牛电动(复兴路店),浙江省
车站大道444号盛德大厦,鹿城区,温州市,120.682772,28.008399,小牛电动(车站大道店),浙江省
锦绣路南50米,鹿城区,温州市,120.699702,27.999091,小牛电动(温州伯爵山庄体验店),浙江省
雁荡西路217号,龙湾区,温州市,120.715194,27.987044,小牛电动(温州汤家桥体验店),浙江省
南苑路与通达路交叉口东北50米,海曙区,宁波市,121.513606,29.854673,小牛电动(通达店),浙江省
鞋都大道235号5050购物中心,鹿城区,温州市,120.617840,28.017049,小牛电动(5050店),浙江省
罗东街353号附近,龙湾区,温州市,120.829167,27.923755,小牛电动(体验店),浙江省
江滨西路569号九州大厦一楼,鹿城区,温州市,120.665181,28.020080,小牛电动(温州江滨路体验店),浙江省
学院东路345号,鹿城区,温州市,120.715122,28.004827,小牛电动(温州学院东路体验店),浙江省
凤起东路292-294号,江干区,杭州市,120.205583,30.263359,小牛电动(凤起东路体验店),浙江省
伟业路与滨盛路交叉口东北150米,滨江区,杭州市,120.160038,30.188174,小牛电动(滨盛路店),浙江省
北岙街道大朴村(篮球场对面),洞头区,温州市,121.135330,27.836327,小牛电动(洞头专卖店),浙江省
瓯北街道罗浮大街15号,永嘉县,温州市,120.661918,28.042924,小牛电动(罗浮大街店),浙江省
九堡客运中心金禾街180号,江干区,杭州市,120.278318,30.308663,小牛电动(杭州九堡店),浙江省
建国南路6号,上城区,杭州市,120.175185,30.237706,小牛电动(望江门店),浙江省
萧绍区城厢街道萧绍路1060号一层,萧山区,杭州市,120.276181,30.165395,小牛电动(萧山授权体验店),浙江省
乐成街道双雁路125号,乐清市,温州市,120.967008,28.111150,小牛电动(乐清专卖店),浙江省
六虹桥路104附近,鹿城区,温州市,120.644714,27.985276,小牛电动车,浙江省
中兴南路560号,越城区,绍兴市,120.586960,29.979248,小牛电动(中兴南路店),浙江省
龙霞路86号六十一中旁,瓯海区,温州市,120.674127,27.967060,小牛电动瓯海授权体验店(瓯海店),浙江省
锦屏路372号,温岭市,台州市,121.379351,28.381831,小牛电动(锦屏路店),浙江省
庐山东路273号江星公寓北区,北仑区,宁波市,121.819047,29.890398,小牛电动(北仑庐山路店),浙江省
文二路311-1号,西湖区,杭州市,120.127495,30.282460,小牛电动(文二路店),浙江省
郑州华德地毯厂宁波办事处昌新大厦,鄞州区,宁波市,121.577588,29.852072,小牛电动(兴宁店)授权专卖店,浙江省
春晓家园,天台县,台州市,121.018306,29.141775,小牛电动车,浙江省
飞霞南路53号附近,鹿城区,温州市,120.662843,27.999044,小牛电动(温州服务体验中心),浙江省
桂花西路58-7号建设银行旁,富阳区,杭州市,119.948644,30.048550,小牛电动车(富阳店),浙江省
古墩路429号,西湖区,杭州市,120.098352,30.287048,小牛电动车(古墩路店),浙江省
公园路186号,龙泉市,丽水市,119.127854,28.070728,小牛电动(龙泉授权店),浙江省
人民街172号,莲都区,丽水市,119.911736,28.460252,小牛电动车(人民路店),浙江省
丁桥勤丰路308号(丁桥第三幼儿园南面200米),江干区,杭州市,120.235937,30.356627,小牛电动车(丁桥专卖店),浙江省
文教街道清湖路187号,江北区,宁波市,121.554963,29.892923,小牛电动车(北岸琴森店),浙江省
德胜路143号,下城区,杭州市,120.170362,30.299056,小牛电动车(德胜路店),浙江省
昌源路262号附近,鹿城区,温州市,120.507192,28.060880,小牛电动车(藤桥店),浙江省
双龙街西溪银泰南2号楼,西湖区,杭州市,120.073786,30.291963,小牛电动车(西溪银泰店),浙江省
三星大道239号,温岭市,台州市,121.383593,28.377754,小牛电动车(官方体验店),浙江省
春江东路580号附近,桐庐县,杭州市,119.704564,29.808309,桐庐小牛电动车,浙江省
百丈路140号,鄞州区,宁波市,121.565065,29.864890,小牛电动授权体验店,浙江省
永达西路107号,鄞州区,宁波市,121.558213,29.848535,小牛电动授权店(飞虹店),浙江省
翠柏路239号,海曙区,宁波市,121.534420,29.883944,小牛电动授权体验店,浙江省
学院路暴龙联盟联丰中路1041号,海曙区,宁波市,121.487051,29.869327,小牛电动授权体验店,浙江省
江陵路1531号,滨江区,杭州市,120.216805,30.204128,小牛电动授权体验店,浙江省
仁爱路德信·金泊林公寓,江干区,杭州市,120.282840,30.302871,nIU小牛电动,浙江省
划龙桥路25-1号,鹿城区,温州市,120.684127,27.990986,小牛电动车专营店,浙江省
海莲路160号附近,普陀区,舟山市,122.313701,29.954736,小牛电动专卖店,浙江省
经济技术开发区下沙2号大街1139号,江干区,杭州市,120.343566,30.309365,小牛电动授权店(下沙店),浙江省
塘头东大街80号,永嘉县,温州市,120.650415,28.044948,小牛电动授权体验店,浙江省
下体育场路179号,下城区,杭州市,120.173408,30.269514,小牛电动授权体验店,浙江省
东新路717号,下城区,杭州市,120.173040,30.318636,小牛电动专卖店(东新路店),浙江省
永达西路107号附近,鄞州区,宁波市,121.558285,29.848525,小牛电动授权专卖店(飞虹店),浙江省
商城西路211-213号,萧山区,杭州市,120.289129,30.168331,小牛电动授权体验店,浙江省
政法街与政法西街交叉口西北100米,余杭区,杭州市,120.303067,30.408698,小牛电动授权专卖店(临平迎宾路店),浙江省
紫金华府龙方路137号,鹿城区,温州市,120.669026,27.989411,小牛电动授权体验店,浙江省
城北西路164号(杨梅酒店隔壁),仙居县,台州市,120.730887,28.856800,仙居县小牛电动专卖店,浙江省
人民大道159号附近,宁海县,宁波市,121.438255,29.293386,小牛电动授权体验店(宁海店),浙江省
人民中路92-94号,温岭市,台州市,121.373503,28.367378,小牛电动授权体验店,浙江省
南街与曲尺巷交叉口东南50米,吴兴区,湖州市,120.099536,30.860521,小牛电动授权体验店,浙江省
乔司南街146号,余杭区,杭州市,120.288275,30.347735,小牛电动授权专卖(杭州乔司店),浙江省
凯旋路726号,桐乡市,嘉兴市,120.623384,30.674280,小牛电动授权体验店,浙江省
新华路167号,景宁畲族自治县,丽水市,119.634385,27.982159,景宁小牛电动专卖店,浙江省
池塘庙路26-30号,江干区,杭州市,120.192752,30.296549,小牛电动授权体验店,浙江省
无,下城区,杭州市,120.173003,30.318710,小牛电动授权专卖店,浙江省
开源路与温州大道交叉口东北150米,鹿城区,温州市,120.690038,27.982289,小牛电动授权专卖店,浙江省
翁山路93号,定海区,舟山市,122.193087,29.994656,小牛电动授权专卖店,浙江省
维萨新筑3幢底商12号,江干区,杭州市,120.224578,30.292161,小牛电动授权专卖店,浙江省
北白象镇象南西路49-51号,乐清市,温州市,120.860566,28.033516,小牛电动授权专卖店,浙江省
钱江路532号附近,上城区,杭州市,120.197033,30.235269,小牛电动授权专卖店,浙江省
清湖路165附近,江北区,宁波市,121.554912,29.892909,小牛电动授权专卖店,浙江省
勤丰路与大农港路交叉口东50米,江干区,杭州市,120.235760,30.356737,小牛电动授权专卖店,浙江省
三墩路460-490号附近,西湖区,杭州市,120.093423,30.322992,小牛电动授权专卖店,浙江省
崇福镇崇德东路29号,桐乡市,嘉兴市,120.443597,30.527835,小牛电动授权专卖店,浙江省
庆春路22号(三瑞大厦),下城区,杭州市,120.186102,30.258210,小牛电动授权专卖店,浙江省
禾兴南路122-13号附近,南湖区,嘉兴市,120.749129,30.755563,小牛电动专卖店,浙江省
古墩路427-429号附近,西湖区,杭州市,120.098344,30.287055,小牛电动授权专卖店(古墩路店),浙江省
绍兴路747号,拱墅区,杭州市,120.149770,30.313022,小牛电动授权专卖店(绍兴路店),浙江省
海莲路148号附近,普陀区,舟山市,122.313660,29.954800,雅迪小牛电动车,浙江省
昆阳镇白石街62号,平阳县,温州市,120.564324,27.663394,小牛电动授权专卖店,浙江省
暨阳街道艮塔路145号-13,诸暨市,绍兴市,120.234675,29.722912,小牛电动授权专卖店,浙江省
桐乡市庆丰北路26号,桐乡市,嘉兴市,120.551371,30.636780,小牛电动授权专卖店,浙江省
新桥北路167-8号(嘉州海岸对面),海盐县,嘉兴市,120.949867,30.522083,小牛电动授权专卖店,浙江省
当湖东路43号,平湖市,嘉兴市,121.012178,30.686375,小牛电动授权专卖店,浙江省
府前路32-34号,余杭区,杭州市,120.300861,30.417550,小牛电动车体验店(临平店),浙江省
周江岸路与环城西路交叉口西南50米,海曙区,宁波市,121.521870,29.874172,白云小牛,浙江省
文一路42号(德胜快速路北),拱墅区,杭州市,120.146610,30.289864,小牛电动授权体验店,浙江省
丰潭路329号,拱墅区,杭州市,120.105261,30.299740,小牛电动授权体验店,浙江省
解放西路346号,嘉善县,嘉兴市,120.915785,30.845026,小牛电动授权体验店,浙江省
永祥街160号,下城区,杭州市,120.187359,30.343750,小牛电动授权专卖店,浙江省
东环大道93-95号小牛电动,椒江区,台州市,121.434686,28.658321,小牛电动授权体验店,浙江省
柏叶西路309(原光明学校2楼),临海市,台州市,121.153493,28.854667,小牛电动授权体验店,浙江省
育才路277号,柯桥区,绍兴市,120.477230,30.073877,小牛电动车专卖店,浙江省
义东路65-8号,义乌市,金华市,120.081131,29.310604,小牛电动车专卖店,浙江省
横河路40-11号,定海区,舟山市,122.116109,30.007985,小牛电动授权专卖店,浙江省
祥符街道北软路172号,拱墅区,杭州市,120.123851,30.332612,小牛电动授权专卖店,浙江省
划龙桥路与温迪南巷交叉口东南50米,鹿城区,温州市,120.683973,27.991004,小牛电动授权体验店,浙江省
环城西路295号,越城区,绍兴市,120.572098,29.994674,小牛电动授权体验店,浙江省
福全镇金三角中兴公司旁,柯桥区,绍兴市,120.535627,29.986078,小牛电动车超市,浙江省
联合路130号附近,海宁市,嘉兴市,120.682799,30.520533,小牛电动授权专卖店,浙江省
大桥路与育英北路交叉口南100米,乐清市,温州市,120.904173,28.053539,小牛电动授权专卖店,浙江省
江滨北街31号(海天大酒店、东阳剧院、亲子公园、中山大桥),东阳市,金华市,120.236313,29.290591,小牛电动授权专卖店,浙江省
双塔路与昌新路交叉口西南50米,永嘉县,温州市,120.646168,28.040188,小牛电动授权专卖店,浙江省
灵溪镇望鹤路356-358号,苍南县,温州市,120.406170,27.509171,小牛电动授权专卖店,浙江省
城南路,吴兴区,湖州市,120.098832,30.849991,湖州小牛电动车销售维修中心,浙江省
太平街道人民中路92-94号,温岭市,台州市,121.373577,28.367302,小牛电动车官方旗舰店,浙江省
南街与曲尺巷交叉口东南50米,吴兴区,湖州市,120.099492,30.860491,南街小牛电动车店,浙江省
桥南白沙路196号,建德市,杭州市,119.284311,29.461994,小王电动车行,浙江省
中昌街188号附近,普陀区,舟山市,122.317632,29.954212,小牛电动车维修,浙江省
东海中路富顺宾馆旁,普陀区,舟山市,122.290077,29.945404,小牛电动车修理,浙江省
钱王街800号,临安区,杭州市,119.712487,30.225356,小牛电动(钱王大街店)(装修中),浙江省
330国道北100米,永康市,金华市,120.009800,28.910810,小牛车行,浙江省
南大路与南开路交叉口东50米,萧山区,杭州市,120.385441,30.176527,小牛车行,浙江省
颍河西路182号附近,颍州区,阜阳市,115.828672,32.898319,小牛电动,安徽省
吴越街与孝肃路交叉口西北100米,迎江区,安庆市,117.044273,30.507501,小牛电动,安徽省
环城南路152号,埇桥区,宿州市,116.978899,33.636406,小牛电动,安徽省
希夷大道南苑小区7号楼104号商铺,谯城区,亳州市,115.777742,33.867220,小牛电动,安徽省
望江西路与金寨路交口西100米,蜀山区,合肥市,117.262789,31.829712,小牛电动(南七望江西路店),安徽省
越秀苑小区1幢门面103号,蜀山区,合肥市,117.225497,31.854509,小牛电动(长江西路店),安徽省
九华山路128号,镜湖区,芜湖市,118.380680,31.326070,小牛电动(芜湖授权体验店),安徽省
美菱大道412号屯溪路段18号104-105室,包河区,合肥市,117.287841,31.848122,小牛电动(授权体验店),安徽省
红旗北路65号-B,雨山区,马鞍山市,118.493730,31.694733,小牛电动(马鞍山体验店),安徽省
金寨路东侧482号,包河区,合肥市,117.244092,31.803264,小牛电动授权专卖店(金寨路店),安徽省
蒙城路31号1层,庐阳区,合肥市,117.276497,31.864834,小牛电动车授权体验店(蒙城路城隍庙店),安徽省
G310(连天线),砀山县,宿州市,116.347368,34.418706,小牛电动车,安徽省
昭关路,含山县,马鞍山市,118.106836,31.730561,含山小牛电动车,安徽省
南谯北路328号,南谯区,滁州市,118.326445,32.286262,小牛电动授权体验店,安徽省
状元北路199附近,宣州区,宣城市,118.755416,30.950211,清风车业小牛电动事业部,安徽省
延安路64-6-7号,屯溪区,黄山市,118.308207,29.709150,小牛电动授权专卖店(延安路店),安徽省
铜陵北路1号,瑶海区,合肥市,117.325525,31.884791,小牛电动授权专卖店(迅捷市场店),安徽省
东海大道4499号西南80米,蚌山区,蚌埠市,117.356450,32.918642,小牛电动授权体验店,安徽省
国庆中路118-1号附近,田家庵区,淮南市,117.019801,32.648007,小牛电动授权体验店,安徽省
阜阳路与陈小巷交叉口西50米,庐阳区,合肥市,117.286680,31.871290,小牛电动授权专卖店(阜阳路店),安徽省
磨子潭路69号,裕安区,六安市,116.487145,31.740341,小牛电动授权专卖店,安徽省
郎涛路口,郎溪县,宣城市,119.189900,31.125821,小牛电动授权专卖店,安徽省
相山北路101-1号,相山区,淮北市,116.800390,33.963978,小牛电动授权专卖店,安徽省
健康北路66号附近,萧县,宿州市,116.942643,34.180686,小牛电动车体验店,安徽省
戴安桥路与长江东路交叉口西100米,瑶海区,合肥市,117.307503,31.865805,小牛电动长江东路店(授权体验店),安徽省
合作化南路a16号附近,蜀山区,合肥市,117.251459,31.845635,小牛电动授权专卖店,安徽省
金牛路西50米,蜀山区,合肥市,117.236142,31.864032,小牛电动授权专卖店(金牛路店),安徽省
蒙城路21号(牙病防治所隔壁),庐阳区,合肥市,117.276433,31.864791,小牛电动授权体验店,安徽省
新华路与蔡新南路交叉口南50米,谢家集区,淮南市,116.865460,32.599644,小牛电动授权体验店,安徽省
淮河路59号,龙子湖区,蚌埠市,117.391278,32.942820,小牛电动授权专卖店,安徽省
希夷大道与幸福路四巷交叉口西北100米,谯城区,亳州市,115.777777,33.865454,小牛电动授权专卖店,安徽省
昭关路,含山县,马鞍山市,118.106964,31.730136,小牛电动授权专卖店,安徽省
珠江东路与珠江路交叉口西南100米,潘集区,淮南市,116.817553,32.773949,小牛电动车专卖店,安徽省
沈庄路与311国道交叉口西南100米,萧县,宿州市,117.026379,34.219508,小牛电动车沈庄体验店,安徽省
中兴路与大桥路交叉口北150米,五河县,蚌埠市,117.890999,33.139119,小牛贝贝母婴生活馆,安徽省
南一环路292附近,包河区,合肥市,117.290619,31.848250,小牛电动授权服务店,安徽省
陈埭镇四境村趋时鞋业大厦,晋江市,泉州市,118.602905,24.822800,小牛电动,福建省
泉安南路828号1-08(老年大学公交站旁),晋江市,泉州市,118.569219,24.791622,小牛电动,福建省
东大商场东大路160-5号,鼓楼区,福州市,119.315693,26.087911,小牛电动,福建省
湖滨东路374、376号附近,思明区,厦门市,118.107281,24.481883,小牛电动,福建省
洪濑镇东溪西滨东路117号,南安市,泉州市,118.523298,25.064680,小牛电动,福建省
少林北街45号附近,荔城区,莆田市,119.045950,25.489017,小牛电动,福建省
桐城街道太姥大道219-221号,福鼎市,宁德市,120.217467,27.313852,小牛电动,福建省
建设南街148附近,惠安县,泉州市,118.799912,25.026849,小牛电动,福建省
豪香酒店往东30米,平潭县,福州市,119.794135,25.507293,小牛电动,福建省
后巷路33-42号,仓山区,福州市,119.275975,26.026457,小牛电动(百花洲路店),福建省
白马中路125号书香大第2号楼1层10号,台江区,福州市,119.294664,26.064949,小牛电动(白马中路店),福建省
洪濑镇东溪工业区金荣花苑1号楼101-102,南安市,泉州市,118.517330,25.050383,小牛电动(南安体验店),福建省
环城北路563号,同安区,厦门市,118.154643,24.736773,小牛电动(同安旗舰店),福建省
新店镇新兴街149号,翔安区,厦门市,118.245888,24.610601,小牛电动(翔安新店店),福建省
清涛街与西环东路交叉口西南50米,福清市,福州市,119.348378,25.715652,小牛电动(福清万达店),福建省
东湖御景21幢104D,蕉城区,宁德市,119.541175,26.651231,小牛电动(万达店),福建省
马巷镇巷西路桐梓路口里14-104号,翔安区,厦门市,118.242402,24.674464,小牛电动（翔安旗舰店）,福建省
洪山镇西二环中路330号新园b区,鼓楼区,福州市,119.283772,26.075196,小牛电动(党校店),福建省
小桥街与江滨路交叉口东50米,福清市,福州市,119.382291,25.716374,小牛电动(福清小桥街店),福建省
阳头街道广场路广益假日酒店,福安市,宁德市,119.644926,27.079462,小牛电动(广场北路店),福建省
新安路354-356号,安溪县,泉州市,118.192562,25.064154,小牛电动(安溪体验店),福建省
建设北路霞张花园公交公司对面（新日隔壁）,惠安县,泉州市,118.803416,25.035315,小牛电动(惠安建设北路体验店),福建省
溪美街464-466号附近,南安市,泉州市,118.382842,24.964526,小牛电动(南安市区体验店),福建省
闽江大道150-9号,仓山区,福州市,119.269665,26.053593,小牛电动车(福州旗舰店),福建省
北二环西路386号一层店面,鼓楼区,福州市,119.285233,26.102696,小牛电动(铜盘店),福建省
金山大道北恻洪湾路融信宽域55号楼,仓山区,福州市,119.247389,26.054370,小牛电动(洪湾北路店),福建省
福新中路115-1号附近,晋安区,福州市,119.328967,26.081074,小牛电动(晋安区委店),福建省
杨桥中路152号陆庄花园沿街店面,鼓楼区,福州市,119.284551,26.083071,小牛电动(杨桥中路店),福建省
杏林西路39-106,集美区,厦门市,118.032704,24.564766,小牛电动(杏林旗舰店),福建省
六一中路249-1,台江区,福州市,119.320297,26.064750,小牛电动(六一中路店),福建省
仙岳路1393号,湖里区,厦门市,118.130309,24.500288,小牛电动(厦门旗舰店),福建省
莆美镇宝城路24号,云霄县,漳州市,117.333935,23.949125,小牛电动车,福建省
梅园东路720弄12号,荔城区,莆田市,119.020522,25.433668,小牛电动车,福建省
鸿星街5号楼附近,南安市,泉州市,118.429498,24.709698,小牛电动车,福建省
蕉东湖路禾丰商业城120号,蕉城区,宁德市,119.533721,26.661412,小牛电动车,福建省
六一中路253号附近,台江区,福州市,119.320310,26.064437,小牛电动授权专卖店,福建省
广达路191号,台江区,福州市,119.307751,26.067278,小牛电动授权专卖店,福建省
白马南路130号,台江区,福州市,119.299450,26.052569,小牛电动车(索罗克白马南路店),福建省
福飞南路213号,鼓楼区,福州市,119.299112,26.118284,小牛电动车(索罗克福飞店),福建省
金沙街与981县道交叉口东150米,霞浦县,宁德市,120.218881,26.922621,小牛电动车,福建省
祥莲路杜桥里679号,同安区,厦门市,118.136839,24.719053,小牛电动车(乐海店),福建省
桥工街与鸿江东路交叉口东50米,晋江市,泉州市,118.480008,24.715881,小牛电动车(晋江安海体验店),福建省
湖头镇美溪村三安小学入口,安溪县,泉州市,118.047637,25.236836,小牛电动车(湖头体验店),福建省
白马南路168号,台江区,福州市,119.299122,26.053933,小牛电动车(索罗克白马南路店),福建省
水仙大街30-4号附近,芗城区,漳州市,117.660315,24.503209,小牛电动专卖店,福建省
子芳路614-616号附近,石狮市,泉州市,118.644050,24.736153,小牛电动授权体验店,福建省
东吾华庭小区1号楼2室,霞浦县,宁德市,120.010214,26.887377,小牛电动授权体验店,福建省
无,云霄县,漳州市,117.343991,23.948592,小牛电动授权专卖店,福建省
玉桥路9号附近,平和县,漳州市,117.316265,24.370076,小牛电动授权专卖店,福建省
同集南路2之附近,集美区,厦门市,118.101192,24.583973,小牛电动授权专卖店,福建省
建设南路17号江华苑b区d32号,长泰县,漳州市,117.763346,24.618697,小牛电动授权专卖店,福建省
康华西路与康华路交叉口西北100米,诏安县,漳州市,117.168792,23.712962,小牛电动授权专卖店,福建省
金浦大道与龙泉路交叉口东南50米,漳浦县,漳州市,117.612168,24.120828,小牛电动授权专卖店,福建省
石码镇人民路55号,龙海市,漳州市,117.818770,24.442764,小牛电动授权专卖店,福建省
福马路457-9、457-10号,晋安区,福州市,119.349711,26.072527,小牛电动授权专卖店(福马路店),福建省
沁园新村4号楼5号,晋安区,福州市,119.323032,26.106420,小牛电动授权专卖店(北环中路店),福建省
鑫顺街210号附近,南安市,泉州市,118.429998,24.707870,小牛电动南安水头体验店,福建省
湖滨西路68号附近,丰泽区,泉州市,118.579694,24.923414,小牛电动授体验店,福建省
田安北路31号,丰泽区,泉州市,118.602461,24.896986,小牛电动授权专卖店,福建省
六一南路131号附近,仓山区,福州市,119.322067,26.041947,小牛电动(仓山汇达)店,福建省
泉安中路893号锦峰小区47号,晋江市,泉州市,118.584870,24.818984,小牛电动授权体验店,福建省
涵口桥与鞋都路交叉口西北50米,晋江市,泉州市,118.601948,24.838370,小牛电动授权体验店,福建省
同集南路2号103店面孙厝路口公交站牌正后面,集美区,厦门市,118.101264,24.584014,小牛电动集美旗舰店,福建省
201省道北50米,漳浦县,漳州市,117.615802,23.947471,小牛电动车授权店,福建省
鲤南镇柳安衔149号楼,仙游县,莆田市,118.702626,25.353621,小牛电动车门店,福建省
丹霞路与胜利东路交叉路口瑞芳苑9栋16-18号店面,芗城区,漳州市,117.672711,24.514239,小牛电动车授权体验店,福建省
国货东路172号,晋安区,福州市,119.329463,26.065733,小牛电动授权专卖店(王庄店),福建省
丹霞路128号东南商贸城2栋4号,芗城区,漳州市,117.672874,24.512397,漳州小牛售后服务中心,福建省
青湖公寓21栋(青湖村公交站),青山湖区,南昌市,115.941084,28.688103,小牛电动,江西省
五一路与莲塘中大道交叉口北100米,南昌县,南昌市,115.946344,28.547592,小牛电动,江西省
庐山路149号,浔阳区,九江市,115.982095,29.718256,小牛电动,江西省
赣东大道66附近,临川区,抚州市,116.360060,27.986369,小牛电动,江西省
环城路10-3号附近,章贡区,赣州市,114.936501,25.851700,小牛电动,江西省
金赣大道56号附近,南康区,赣州市,114.761314,25.657515,小牛电动,江西省
洪城路109号附近,西湖区,南昌市,115.904297,28.655265,小牛电动,江西省
无,青山湖区,南昌市,115.940976,28.665128,小牛电动,江西省
庆丰路206号1-4小牛电动专卖店,信州区,上饶市,117.962731,28.455151,小牛电动,江西省
万隆南路与南山西路交叉口东100米,信丰县,赣州市,114.931602,25.376169,小牛电动,江西省
叠山路42号,东湖区,南昌市,115.890732,28.684231,小牛电动车授权体验店,江西省
红谷滩新区怡园路554号,东湖区,南昌市,115.848160,28.683001,小牛电动红谷滩授权专卖店,江西省
火炬二路66号,青山湖区,南昌市,115.951326,28.693698,小牛电动(火炬二路),江西省
胜利北路与锦龙路交叉口西北50米,渝水区,新余市,114.936023,27.806536,小牛电动(020体验店),江西省
方志敏大道中路16号,弋阳县,上饶市,117.447705,28.383923,小牛电动工具,江西省
长征西路366号,新建区,南昌市,115.822724,28.679427,小牛电动专卖店,江西省
永叔路电动车市场,吉州区,吉安市,114.990307,27.105236,小牛电动授权体验店,江西省
三八路与柳林街交叉口东北100米,铜鼓县,宜春市,114.373066,28.523126,小牛电动授权经销点,江西省
金陵西路299号附近,安源区,萍乡市,113.861479,27.643122,小牛电动授权体验店,江西省
濂江路117号附近,安远县,赣州市,115.388606,25.135234,小牛电动授权体验店,江西省
南浦路111号二十四中旁,西湖区,南昌市,115.888942,28.667365,小牛电动授权专卖店,江西省
子固北路12号附近,南丰县,抚州市,116.527796,27.222797,小牛电动授权专卖店,江西省
竹园街与长安大道交叉口东南50米,寻乌县,赣州市,115.646804,24.961949,小牛电动授权专卖店,江西省
宜春南路146附近,袁州区,宜春市,114.378274,27.792379,小牛电动车授权体验店(朝阳路店),江西省
G319(厦成线),兴国县,赣州市,115.377768,26.294938,小牛摩托电动车维修,江西省
站北路与马路街交叉口东100米,周村区,淄博市,117.853938,36.794932,小牛电动,山东省
云门山北路与市场街交叉口东南50米,青州市,潍坊市,118.485715,36.699693,小牛电动,山东省
机场路与丝绸路口往东50米,周村区,淄博市,117.859190,36.810657,小牛电动,山东省
胶州东路向阳小区2号网点,胶州市,青岛市,120.016408,36.293475,小牛电动,山东省
青年路与灵山大街十字路口西北角,泰山区,泰安市,117.129116,36.184025,小牛电动,山东省
刘家庄路西150米,槐荫区,济南市,116.923962,36.653853,小牛电动,山东省
利民东路中段6号,东昌府区,聊城市,115.995427,36.450578,小牛电动,山东省
共青团路3号淄博剧院对过,张店区,淄博市,118.058670,36.804961,小牛电动,山东省
莲台山路银丰公馆售楼处北66米路东,长清区,济南市,116.761338,36.560069,小牛电动,山东省
无影山路59号,天桥区,济南市,116.977830,36.679607,小牛电动,山东省
凤凰大街中百超市西30米路北(海天酒店东),高密市,潍坊市,119.773791,36.371943,小牛电动,山东省
郑州路和济南路交界处,平度市,青岛市,119.950201,36.782151,小牛电动,山东省
中海环宇城华润万家,市中区,济南市,116.982140,36.612704,小牛电动,山东省
和平路32-6号楼附近,历下区,济南市,117.051831,36.660942,小牛电动(和平路店),山东省
泺文路21号附近,历下区,济南市,117.024742,36.657865,小牛电动(泉城广场店),山东省
窑头路2-47号,历下区,济南市,117.082079,36.654412,小牛电动(窑头路店),山东省
经七路345号附近,市中区,济南市,116.990235,36.655668,小牛电动(经七路店),山东省
八一立交桥与纬二路交叉口西南100米,市中区,济南市,116.996812,36.647077,小牛电动(八一店),山东省
无,槐荫区,济南市,116.963095,36.655362,小牛电动(槐村街店),山东省
高新区康虹路崇华路东行20米路南,历下区,济南市,117.119800,36.689266,济南小牛电动授权体验店(康虹路店),山东省
中区经二路92号(纤美国度健康乐活体验中心西10米),市中区,济南市,117.001294,36.665967,小牛电动授权体验店(万达店),山东省
黄河二路渤海七路路口向南20米西侧,滨城区,滨州市,118.020600,37.370549,小牛电动(滨州滨城区黄河二路店),山东省
潍柴宿舍路南37号,奎文区,潍坊市,119.124897,36.701454,小牛电动(民生街工厂店),山东省
人民东路与市场街交叉口西南150米,诸城市,潍坊市,119.401707,35.994530,诸城小牛电动,山东省
粥店街道光彩市场3区1栋,岱岳区,泰安市,117.054302,36.182026,小牛电动车,山东省
闵子骞路27号附近,历下区,济南市,117.064581,36.667254,小牛电动车,山东省
华龙路25号,历下区,济南市,117.094642,36.681603,小牛,山东省
高新区康虹路766号盛世花苑3号楼一层105室,历下区,济南市,117.119669,36.689291,济南小牛电动车连锁,山东省
英雄山路52号小牛电动,市中区,济南市,116.999102,36.629747,小牛电动授权体验店,山东省
工业南路与奥体中路交叉口往西150米路南,历下区,济南市,117.114250,36.679441,奥体中路小牛电动,山东省
华龙路25-3号,历下区,济南市,117.094581,36.681602,小牛电动体验店(华龙路店),山东省
文化中路与解放中路交叉口西150米,市中区,枣庄市,117.570626,34.852390,小牛电动专卖店,山东省
南辛庄西路186-1号附近,市中区,济南市,116.960077,36.636610,王官庄小牛电动,山东省
郎茂山路海珀天沅1座店铺,市中区,济南市,116.980647,36.623994,小牛电动专卖店,山东省
青年路1号,泰山区,泰安市,117.129121,36.184069,小牛电动授权体验店,山东省
福寿东街285附近,奎文区,潍坊市,119.126551,36.719587,潍坊小牛电动旗舰店,山东省
善国中路38号枣庄市商业银行南10米,滕州市,枣庄市,117.165963,35.083427,小牛电动授权专卖店,山东省
牡丹路791附近,牡丹区,菏泽市,115.462389,35.240525,小牛电动授权专卖店,山东省
芝罘屯路52号附近,芝罘区,烟台市,121.359675,37.557859,小牛电动授权体验店,山东省
丹阳路241号西南70米,牡丹区,菏泽市,115.492639,35.239306,小牛电动授权体验店,山东省
商城街63号,黄岛区,青岛市,119.997050,35.874913,小牛电动授权体验店,山东省
文化中路32号,市中区,枣庄市,117.570654,34.852390,枣庄小牛电动授权专卖店,山东省
武夷山市场富春江路,黄岛区,青岛市,120.188789,35.958437,小牛电动车专卖店,山东省
海河路,薛城区,枣庄市,117.328690,34.800677,小牛电动车新城店,山东省
和阳路411号-1,城阳区,青岛市,120.389661,36.303048,小牛电动授权专卖店,山东省
大海阳路附49号,芝罘区,烟台市,121.379582,37.543613,小牛电动授权体验店,山东省
工业北路319-4号,历城区,济南市,117.069006,36.705504,小牛电动授权专卖店,山东省
天成路32号,天桥区,济南市,116.995271,36.675045,小牛电动授权专卖店(天桥店),山东省
汇泉路唐人中心B座A2-101,章丘区,济南市,117.536626,36.714354,小牛电动授权专卖店(章丘唐人中心店),山东省
东关大院45号,东港区,日照市,119.464365,35.425901,小牛电动授权专卖店,山东省
青云花园北门沿街路南,安丘市,潍坊市,119.228061,36.440410,小牛电动智能电车体验店,山东省
商场路与潍安路交叉口北100米,安丘市,潍坊市,119.198745,36.430045,小牛电动授权专卖店,山东省
运河路与鼓楼街交叉口东50米运河路46号,任城区,济宁市,116.589798,35.402009,小牛电动授权专卖店,山东省
东关大街9-10-1号,历下区,济南市,117.043753,36.678307,小牛电动授权专卖店,山东省
大名路91号,市北区,青岛市,120.355352,36.087494,小牛电动授权体验店,山东省
银雀山路与通达路交叉口,兰山区,临沂市,118.329245,35.060153,临沂小牛电动车体验店,山东省
九水路39-0号,李沧区,青岛市,120.427927,36.157082,小牛电动授权专卖店(李沧九水路店),山东省
摩托车大世界长铃摩托前排8号,天桥区,济南市,116.967367,36.717740,小牛智能电动车,山东省
新华路4836号世纪环球中心对面,奎文区,潍坊市,119.148915,36.710421,小牛电动新华路工厂店,山东省
开拓路8号,新泰市,泰安市,117.779289,35.908524,小牛电动新泰体验店,山东省
中心店镇富东花园小牛厂新村7号楼,邹城市,济宁市,116.978873,35.444813,精修电动车(富东花园小牛厂新村东),山东省
346省道北50米,东明县,菏泽市,115.222538,35.264970,小牛车行,山东省
农业路与雪松大道贸易广场8栋22号,驿城区,驻马店市,114.047731,32.986242,小牛电动,河南省
中州路文峰大道交叉口向北50米路东,龙安区,安阳市,114.326139,36.100000,小牛电动,河南省
建设路铜马旅游汽车站出口东20米,解放区,焦作市,113.235026,35.233160,小牛电动,河南省
037县道北50米,原阳县,新乡市,113.954206,35.052537,小牛电动,河南省
东大街五四广场十字路口往东20路南209号,新密市,郑州市,113.397131,34.536208,小牛电动,河南省
丰庆路与明达路交叉口西北100米,金水区,郑州市,113.647739,34.806752,小牛电动,河南省
太行南路金夫人名媛会所旁,沁阳市,焦作市,112.920762,35.091879,小牛电动,河南省
交通大道与芙蓉街交叉口向东100米路北,川汇区,周口市,114.637318,33.611495,小牛电动(周口体验店),河南省
郑东新区商务内环路与众意西路交叉口丹尼斯6天地大卖场F3层,金水区,郑州市,113.719906,34.775795,小牛电动(丹尼斯6天地大卖场),河南省
大梁路与西环路交叉口西200米路南,龙亭区,开封市,114.328442,34.801305,小牛电动(开封市专卖店),河南省
黄河路经八路交叉口向东200米路南和平车行,金水区,郑州市,113.670571,34.774487,小牛电动(建文店),河南省
渠东路圣菲城商业街6-37号,金水区,郑州市,113.673179,34.801831,小牛电动授权体验店(渠东路店),河南省
桐柏路192号-4,中原区,郑州市,113.613325,34.751698,小牛电动授权体验店(暂停营业),河南省
金谷园路 107号,西工区,洛阳市,112.441706,34.677416,小牛电动授权体验店(金谷园路店),河南省
航海路豫英路交叉口电动车航母城内7区68号,管城回族区,郑州市,113.696695,34.720064,小牛电动(航母城二店),河南省
小赵寨街101号附近,二七区,郑州市,113.657973,34.734932,小牛电动(小赵寨街),河南省
中原金街8-129,中原区,郑州市,113.602688,34.745648,小牛电动授权专卖店(中原万达店),河南省
政二街与金水路交叉口南100米,金水区,郑州市,113.684732,34.763313,小牛电动车授权体验店(紫荆山公园店),河南省
建设路北段路西小牛电动车,中牟县,郑州市,114.018856,34.733597,小牛电动车,河南省
天坛路与周园路交叉口向东50米路南,济源市,济源市,112.573770,35.087327,小牛电动车,河南省
二环支路电动车大卖场西排15号,金水区,郑州市,113.635261,34.766746,小牛电动车授权体验店(二环支路店),河南省
政府巷与淮河路中段交叉口南50米,息县,信阳市,114.744481,32.347294,息县小牛电动,河南省
航海东路225号康万家A09号,管城回族区,郑州市,113.694630,34.720447,小牛电动车授权体验店(航海东路店),河南省
庙张街与畅和街向东10米路南,金水区,郑州市,113.773442,34.776447,小牛电动车授权体验店(郑东新区祭城店),河南省
雪松路42号朗悦公园茂3号馆家庭茂A1039-1040,中原区,郑州市,113.555568,34.820820,小牛电动车授权体验店(朗悦公园茂店),河南省
黄河路与经七路西北角,金水区,郑州市,113.670804,34.774433,小牛电动授权专卖店(黄河路店),河南省
大学路86-1号,二七区,郑州市,113.643771,34.733895,小牛电动授权专卖店(大学路店),河南省
商都路与黄河南路交叉口西北150米,管城回族区,郑州市,113.745939,34.748647,小牛电动商都路店,河南省
电动车大世界,永城市,商丘市,116.435311,33.929120,小牛电动永城店,河南省
凯旋路与文化路交叉口向北200米路西小牛电动,梁园区,商丘市,115.640797,34.427659,小牛电动体验店,河南省
人民路龙之梦大酒店旁边小牛电动,长葛市,许昌市,113.775689,34.224642,小牛电动授权店(长葛市),河南省
华瑞·紫桂苑13号楼附1号,金水区,郑州市,113.652191,34.829518,小牛电动授权体验店(园田路),河南省
新建路365号,新郑市,郑州市,113.733482,34.397921,小牛电动新郑授权体验店,河南省
梧桐街与金梭路交叉口东南100米附近,中原区,郑州市,113.565638,34.793953,小牛电动授权专卖店,河南省
画圣路420号,禹州市,许昌市,113.477114,34.147016,小牛电动授权专卖店,河南省
文化路与谷阳路交叉口东150米,鹿邑县,周口市,115.487518,33.852733,小牛电动授权专卖店,河南省
和平街与步行街交叉口西50米,解放区,焦作市,113.229285,35.239149,小牛电动授权专卖店,河南省
人民路二七广场,管城回族区,郑州市,113.668807,34.753538,小牛电动授权专卖店,河南省
文化路与凯旋路交叉口北200米路西,梁园区,商丘市,115.640445,34.427343,热风酷车小牛电动(商丘体检店),河南省
航海西路7-16,二七区,郑州市,113.623603,34.720027,小牛电动授权体验店(航海西路店),河南省
美林河畔电动车市场47号,管城回族区,郑州市,113.715503,34.719260,小牛电动车授权体验店(美林河畔店),河南省
南阳路239-26附近,金水区,郑州市,113.638721,34.790297,小牛电动车授权体验店(南阳路国美店),河南省
京广路35号电动车市场南1排5号,二七区,郑州市,113.657973,34.734932,小牛电动车金牌体验店(京广路店),河南省
桐柏路192号小牛电动电池维修,中原区,郑州市,113.613375,34.751818,小牛电动服务中心电池维修站,河南省
黄河中路与巴黎街路口东北角海斯顿公园1号楼11号商铺,华龙区,濮阳市,115.039124,35.772549,小牛电动体验店,河南省
画圣路大禹像北100米路西小牛电动,禹州市,许昌市,113.477222,34.147063,小牛电动大禹像店,河南省
如意湖街道地德街温哥华山庄南区,金水区,郑州市,113.718611,34.783101,小牛电动授权体验店(熙地港店),河南省
凯旋路与文化路交叉口北100米路东,梁园区,商丘市,115.640434,34.426531,小牛电动授权体验店,河南省
建设路与春秋路交叉口向东20米,湖滨区,三门峡市,111.209485,34.778776,小牛电动授权体验店,河南省
太行路402号附近,淇滨区,鹤壁市,114.281719,35.754860,鹤壁小牛电动授权专卖店,河南省
梅溪路222号附近,卧龙区,南阳市,112.531118,32.993125,小牛电动授权体验店,河南省
建设路与开源路口向东30米路北,卫东区,平顶山市,113.310095,33.736627,小牛电动授权体验店,河南省
京广路陇海路向南二百米电动车市场南一排,二七区,郑州市,113.642442,34.736091,小牛电动授权专卖店(陇海路店),河南省
西大街530号,魏都区,许昌市,113.820741,34.028375,小牛电动授权体验店(劳动店),河南省
解放路与人民路交叉口向西50米路北,召陵区,漯河市,114.047548,33.569024,漯河小牛电动车专卖店,河南省
丰庆路博颂路南200米路西丰庆电动车生活广场,金水区,郑州市,113.647753,34.806700,小牛电动车授权体验店(丰庆路店),河南省
西大街与劳动路交叉口向西20米,红旗区,新乡市,113.876747,35.303193,小牛电动授权专卖店,河南省
和平路与绿洲路交叉口向北20米路西,民权县,商丘市,115.145293,34.643580,小芈(民权店),河南省
航海东路186附近,管城回族区,郑州市,113.695648,34.718524,小牛电动售后网点,河南省
苹果园南路1号附近,顺河回族区,开封市,114.379549,34.805724,小牛电动车修配,河南省
文峰街道建设路联营汽车站东南100米,唐河县,南阳市,112.843259,32.686286,小牛五金日杂电动工具,河南省
武侯路358号,卧龙区,南阳市,112.504955,32.982463,小牛电动车维修,河南省
安漳大道与东工路交叉口向东30米路南,北关区,安阳市,114.373080,36.118960,小牛精修电动车,河南省
独山大道南段西50米,宛城区,南阳市,112.570857,32.971595,小牛精修电动车,河南省
桂花巷与红枫巷交叉口西北50米,淇滨区,鹤壁市,114.281822,35.748504,小牛专业维修电动车,河南省
泰山南路西100米,宛城区,南阳市,112.624549,32.675586,小牛摩托车电动车维修,河南省
建设路50号,涧西区,洛阳市,112.412092,34.663093,通源摩托车电动车维修中心,河南省
新竹路金地阳光城北区A823号,洪山区,武汉市,114.398520,30.491312,小牛电动,湖北省
锦江东路东50米,夷陵区,宜昌市,111.306112,30.767577,小牛电动,湖北省
檀溪路与青龙庙路交叉口西南100米,襄城区,襄阳市,112.130907,32.009974,小牛电动,湖北省
齐安大道165西50米,新洲区,武汉市,114.803363,30.830067,小牛电动,湖北省
和平大道973号附9号,青山区,武汉市,114.392494,30.634933,小牛电动,湖北省
和平北街20号附近,利川市,恩施土家族苗族自治州,108.947946,30.296773,小牛电动,湖北省
赤壁大道20号(梦巴黎旁),黄州区,黄冈市,114.886713,30.450835,小牛电动(黄冈店),湖北省
万国摩配市场C11-806,江岸区,武汉市,114.293438,30.645927,小牛电动(汉口店),湖北省
常青街街道马场路金贸大厦,江汉区,武汉市,114.258711,30.613602,小牛电动车,湖北省
珞喻路306号,洪山区,武汉市,114.367156,30.520064,小牛电动车,湖北省
巨龙大道下集还建小区B18-5号,黄陂区,武汉市,114.277229,30.707911,小牛电动(盘龙城店),湖北省
解放大道78号,硚口区,武汉市,114.206029,30.592461,小牛电动(古田三路店),湖北省
航空花园53号,恩施市,恩施土家族苗族自治州,109.482015,30.291405,小牛电动(恩施授权店),湖北省
一堰路与车城南路交叉口东50米,茅箭区,十堰市,110.768591,32.609381,小牛电动车,湖北省
南湖花木城小牛电动(红绿灯路口),洪山区,武汉市,114.332417,30.481504,小牛电动车,湖北省
团结大道1015附21号,洪山区,武汉市,114.356140,30.587943,小牛电动(新世纪花园店),湖北省
玫瑰街十里玫瑰二期H2-1栋3号,汉阳区,武汉市,114.218964,30.565545,小牛电动(玫瑰街店),湖北省
二桥D2区22栋水仙里81号(银杏街7号店面),汉阳区,武汉市,114.206301,30.568593,小牛电动(汉阳银杏街店),湖北省
红旗渠路9号附近,江汉区,武汉市,114.245568,30.622150,小牛电动(红旗渠店),湖北省
光谷一路23号附近,江夏区,武汉市,114.441444,30.431632,小牛电动(光谷一路店),湖北省
胜利街与黄兴路交叉口东南50米,江岸区,武汉市,114.299689,30.588678,小牛电动(江岸体验店),湖北省
中南路80号,武昌区,武汉市,114.334979,30.540707,小牛电动授权专卖店,湖北省
瑞安街169号,武昌区,武汉市,114.317988,30.513021,小牛电动授权专卖店,湖北省
北京中路165号-附2南80米,沙市区,荆州市,112.262613,30.304108,小牛电动车,湖北省
雄楚大道1021附16号附近,洪山区,武汉市,114.408829,30.497634,小牛电动车,湖北省
中山大道1023号,江岸区,武汉市,114.303185,30.597503,小牛电动专卖店,湖北省
夷陵大道与杨岔路交叉口东南100米,伍家岗区,宜昌市,111.321410,30.670697,小牛电动授权体验店,湖北省
泰山路泰山庙老居委会门口小牛电动专卖店,谷城县,襄阳市,111.642000,32.255994,小牛电动专卖店(李阳摩托店),湖北省
无,东宝区,荆门市,112.199426,31.024045,小牛电动授权专卖店,湖北省
玫瑰街北50米,汉阳区,武汉市,114.218971,30.565552,小牛电动授权专卖店,湖北省
珞喻路300附1号附近,洪山区,武汉市,114.367050,30.520061,小牛电动授权专卖店,湖北省
园林大道商业街111号附近,宜都市,宜昌市,111.443577,30.377722,台铃小牛电动,湖北省
东山大道与东湖二路交叉口东北50米,西陵区,宜昌市,111.294138,30.718600,小牛电动专卖店,湖北省
前进路98-9号,樊城区,襄阳市,112.158762,32.064399,小牛电动授权专卖店,湖北省
广场街办事处槐荫大道251号,孝南区,孝感市,113.919720,30.917170,孝感小牛电动车授权店,湖北省
书城路与南湖大道交叉口东北100米,洪山区,武汉市,114.332553,30.481629,小牛电动南湖花木城授权专卖店,湖北省
舵落口大市场17区2栋18、19号,东西湖区,武汉市,114.155411,30.610232,小牛电动授权专卖店(舵落口店),湖北省
中南万国,武昌区,武汉市,114.334719,30.539944,武汉市牛电动专卖店,湖北省
仙女路2号南90米,汉川市,孝感市,113.829255,30.641732,小牛智能电动车,湖北省
金貿大廈C座,江汉区,武汉市,114.258667,30.613662,小牛电动车售后中心,湖北省
南坪街道望月社区新河路荷塘月色小区0-1栋107号,武陵区,常德市,111.683414,29.065549,小牛电动,湖南省
嘉雨路与荷花路交叉口东北150米,芙蓉区,长沙市,113.035187,28.192497,小牛电动,湖南省
人民路步行街与梳子巷交叉口西南100米,武陵区,常德市,111.694030,29.027183,小牛电动,湖南省
枫林三路与枫林二路交叉口西北50米,岳麓区,长沙市,112.918559,28.210450,小牛电动,湖南省
朝晖路236号,雨花区,长沙市,113.022767,28.176444,小牛电动,湖南省
星沙大市场四区70栋373号,长沙县,长沙市,113.079716,28.241882,小牛电动(星沙体验店),湖南省
上麻园岭巷与芙蓉中路交叉口西南50米盛大金禧2098号,开福区,长沙市,112.986530,28.214997,小牛电动(融成店),湖南省
城南东路与车站南路交叉口北100米,雨花区,长沙市,113.010266,28.175985,小牛电动(车站路店),湖南省
韶山中路200号工人文化宫内南1层,雨花区,长沙市,112.993486,28.165574,小牛电动(东塘体验店),湖南省
安康路附近,雨花区,长沙市,113.016925,28.099525,小牛电动(洞井铺店),湖南省
远大二路1515号,长沙县,长沙市,113.108373,28.210033,小牛电动(远大二路泉塘体验店),湖南省
舞水路108号,鹤城区,怀化市,109.961145,27.552213,小牛电动车,湖南省
南津南路9号北80米,零陵区,永州市,111.629141,26.205783,小牛电动车,湖南省
朝晖路220附近,雨花区,长沙市,113.022847,28.176377,小牛电动授权体验店,湖南省
朝阳街道解放东路126号,芙蓉区,长沙市,113.006713,28.190785,小牛电动授权体验店,湖南省
船山路221号,蒸湘区,衡阳市,112.594718,26.905521,衡阳市小牛电动,湖南省
解放西路61号附近,蒸湘区,衡阳市,112.585168,26.892585,小牛电动授权体验店,湖南省
国庆南路振兴桥振兴社区1层,北湖区,郴州市,113.032736,25.784727,小牛电动授权体验店,湖南省
建设中路660号,芦淞区,株洲市,113.137189,27.850401,飞达车行(文化园店),湖南省
环城北路小伍菜馆对面,石鼓区,衡阳市,112.606306,26.902751,小牛电动授权体验店,湖南省
霞光西路7号楼7号门面,岳塘区,湘潭市,112.919704,27.828987,小牛电动授权体验店,湖南省
湖湘南路8号步步高广场,岳塘区,湘潭市,112.939933,27.830669,小牛电动授权体验店,湖南省
田红路47号附近,石峰区,株洲市,113.134045,27.887795,小牛电动授权专卖店,湖南省
安全里147号(永兴大厦),珠晖区,衡阳市,112.625895,26.893684,小牛电动授权专卖店,湖南省
常德市四中对面,武陵区,常德市,111.705764,29.024841,小牛电动车电脑维修,湖南省
南桂西路与市东下路交叉口南100米,禅城区,佛山市,113.124262,23.031386,小牛电动,广东省
增槎路76号福星摩配城广场区06档,白云区,广州市,113.224091,23.151434,小牛电动,广东省
海滨大道南与解放东路交叉口西100米,霞山区,湛江市,110.415207,21.197649,小牛电动,广东省
新安大道与骊一村中路交叉口东南100米,潮安区,潮州市,116.662737,23.488148,小牛电动,广东省
华远东路与绿景一路交叉口东150米,禅城区,佛山市,113.118066,23.002013,小牛电动,广东省
振兴三路27号110铺,新会区,江门市,113.036903,22.510324,小牛电动,广东省
兴和北大街与太和北路交叉口西北100米,白云区,广州市,113.353345,23.297382,小牛电动,广东省
无,花都区,广州市,113.210217,23.386548,小牛电动,广东省
建设路187号(锦绣花园华神火锅店旁),龙华区,深圳市,114.023261,22.647241,小牛电动,广东省
永安北路56号,南海区,佛山市,113.212684,23.032713,小牛电动,广东省
石岐区街道莲塘东路18号,中山市,中山市,113.382882,22.531293,小牛电动,广东省
新洋路292号附近,湘桥区,潮州市,116.626640,23.665320,小牛电动,广东省
建新西路与解放西路交叉口东南50米,霞山区,湛江市,110.399410,21.191624,小牛电动,广东省
侨港街20号,兴宁市,梅州市,115.724459,24.147544,小牛电动,广东省
金环南路12号,金平区,汕头市,116.715790,23.360364,小牛电动,广东省
西丽街道西丽社区沙河西路3233号南蓉大酒店106,南山区,深圳市,113.953318,22.577132,小牛电动,广东省
环市大道中双山大道海达大街,南沙区,广州市,113.536134,22.792448,小牛电动,广东省
上屋大道与宝石南路交叉口东100米,宝安区,深圳市,113.934928,22.680954,小牛电动,广东省
新沙路84号,宝安区,深圳市,113.837071,22.728700,小牛电动,广东省
观澜大道516号,龙华区,深圳市,114.063697,22.720703,小牛电动,广东省
容桂大道北与文桂东路一街交叉口西北50米,顺德区,佛山市,113.265532,22.769226,小牛电动,广东省
谷饶镇谷贵路46号(泰洲车行连锁),潮阳区,汕头市,116.415528,23.345422,小牛电动,广东省
大北路368号,番禺区,广州市,113.368941,22.949078,小牛电动车,广东省
园山仔路与横增路交叉口西北50米,东莞市,东莞市,113.790342,22.812865,小牛电动授权专卖店(长安店),广东省
新湖路华侨新村西提一巷32-1号,宝安区,深圳市,113.873042,22.567356,小牛电动(新湖路店),广东省
蛇口新街229-3号,南山区,深圳市,113.926415,22.488600,小牛电动(蛇口店),广东省
新安街道11区新乐社区新乐一街小牛电动,宝安区,深圳市,113.907937,22.554268,小牛电动(南头关授权专卖店),广东省
东滨路与爱榕路交叉口东南50米,南山区,深圳市,113.928931,22.504569,小牛电动(东滨店),广东省
棉湖大道中段与湖滨西路交叉口西北150米,揭西县,揭阳市,116.140142,23.428112,小牛电动(棉湖专卖店),广东省
航城街道鹤洲社区鹤洲路34号,宝安区,深圳市,113.861582,22.626748,小牛电动(鹤洲授权专卖店),广东省
人民路与平安路交叉口西北50米,电白区,茂名市,111.006654,21.513260,小牛电动(电白体验店),广东省
新华大道南50米,潮阳区,汕头市,116.603912,23.252397,小牛电动(朝阳专卖体验店),广东省
堤东路196号附近,蓬江区,江门市,113.095500,22.578683,小牛电动(江门逢江区店),广东省
隆都路57号(沙溪手机城对面),中山市,中山市,113.316023,22.512872,小牛电动(沙溪店),广东省
新阳路与马牙路交叉口东150米,榕城区,揭阳市,116.361504,23.553140,小牛电动(东山店),广东省
长江路47号(糖果KTV隔壁),龙湖区,汕头市,116.729301,23.378918,小牛电动(长江店),广东省
阳美国际玉都丰德珠宝大厦1层,揭东区,揭阳市,116.320626,23.560057,小牛电动(揭阳阳美玉都店),广东省
小榄镇基头路30号首层,中山市,中山市,113.242073,22.673137,小牛电动(小榄店),广东省
同德路9巷1号,榕城区,揭阳市,116.370166,23.531014,小牛电动(揭阳体验专卖店),广东省
固戍一路76号附近,宝安区,深圳市,113.857926,22.601817,小牛电动车,广东省
大路顶路与金石大道交叉口东50米,潮安区,潮州市,116.624135,23.524666,小牛电动车,广东省
开园中路20号102铺,增城区,广州市,113.828993,23.298086,小牛电动车,广东省
陈村二宅基路2号,顺德区,佛山市,113.227751,22.953958,小牛电动车(佛山形象店),广东省
太宝路15号,东莞市,东莞市,113.676689,22.825929,小牛电动授权专卖店(虎门店),广东省
新塘大道中104号,增城区,广州市,113.609315,23.116791,小牛电动车行,广东省
河东新村61号河东路76,宝安区,深圳市,113.880116,22.573334,小牛电动授权体验店,广东省
景龙建设路189附近,龙华区,深圳市,114.023267,22.647182,小牛电动授权体验店,广东省
上川路161号,宝安区,深圳市,113.899275,22.578027,小牛电动授权体验店,广东省
莲凤路附近,澄海区,汕头市,116.784588,23.488627,小牛电动专卖店,广东省
河婆镇温泉大道A3栋,揭西县,揭阳市,115.839163,23.432291,小牛电动授权店,广东省
南新路1236号向南西海花园E栋一楼,南山区,深圳市,113.918953,22.521807,小牛电动车专卖店,广东省
德政南路53-2号,越秀区,广州市,113.275681,23.117415,小牛电动专卖店,广东省
茂南开发区油城四路65号,茂南区,茂名市,110.913662,21.663980,小牛电动授权体验店,广东省
柏溪路17号,光明区,深圳市,113.889656,22.779276,小牛电动授权专卖店,广东省
坦洲镇金斗大街新村7号,中山市,中山市,113.470297,22.260467,小牛电动授权体验店,广东省
西湖大道82号附近,雷州市,湛江市,110.084030,20.916151,小牛电动授权体验店,广东省
汕尾大道238号,城区,汕尾市,115.363629,22.775182,小牛电动授权专卖店,广东省
松岗街道溪头社区天云路1号,宝安区,深圳市,113.838637,22.771667,小牛电动授权专卖店,广东省
石化大道东碧桂园十里银滩三期海逸湾5号楼3单元4号铺,惠东县,惠州市,114.719247,22.795210,小牛电动自行车店,广东省
富和路32号银成花园底下1楼,增城区,广州市,113.828993,23.298183,小牛电动授权体验店,广东省
凤塘大道584-1号,宝安区,深圳市,113.805396,22.701255,小牛电动授权专卖店(福永塘尾店),广东省
益民路益中园8幢一楼店面,澄海区,汕头市,116.769999,23.464194,小牛电动车专卖店,广东省
南兴路与官巷大街交叉口东北50米,中山市,中山市,113.176206,22.612600,中山市古镇南兴路小牛电动,广东省
东镇大道22,中山市,中山市,113.459211,22.538993,小牛电动授权专卖店,广东省
光明大街52号附近,光明区,深圳市,113.949735,22.759113,小牛电动授权专卖店,广东省
河南岸金湖路160号,惠城区,惠州市,114.422681,23.047037,小牛电动河南岸授权体验店,广东省
东方一街与恒嘉路交叉口西50米,宝安区,深圳市,113.846929,22.763066,小牛电动授权专卖店,广东省
南新路1873-4附近,南山区,深圳市,113.918954,22.521715,小牛电动授权专卖店,广东省
新沙路84-1号附近,宝安区,深圳市,113.837107,22.728697,小牛电动授权专卖店,广东省
庄山大道,电白区,茂名市,111.294157,21.515457,小牛电动授权专卖店,广东省
旺岗路与果园巷交叉口北100米,惠城区,惠州市,114.420977,23.122258,小牛电动授权专卖店,广东省
固戍一路与恒南路交叉口东50米,宝安区,深圳市,113.857900,22.601503,小牛电动授权体验店固戍店,广东省
广祥路532号,潮南区,汕头市,116.421816,23.257634,小牛电动授权专卖店,广东省
城新西路福居楼13号之1铺面(金丰大厦斜对面),湘桥区,潮州市,116.631934,23.655005,小牛电动授权体验店(城新店),广东省
霖都大道51号附近,揭西县,揭阳市,115.840659,23.429455,小牛电动车O2O体验店,广东省
鹅岭西路16号-8号商铺,惠城区,惠州市,114.390855,23.079376,小牛电动鹅岭西路授权体验店,广东省
东鑫巷119号附近,田东县,百色市,107.122920,23.600782,小牛电动,广西壮族自治区
北雀路106-11号附近,柳北区,柳州市,109.398712,24.363358,小牛电动,广西壮族自治区
屏山大道43号丰华商厦,鱼峰区,柳州市,109.414411,24.302932,小牛电动,广西壮族自治区
北部湾中路10号,海城区,北海市,109.125900,21.482566,小牛电动,广西壮族自治区
大学东路162号-10铺小牛电动,西乡塘区,南宁市,108.261868,22.839371,小牛电动,广西壮族自治区
无,良庆区,南宁市,108.318492,22.753903,小牛电动,广西壮族自治区
蒲庙镇彩虹南路68号,邕宁区,南宁市,108.485208,22.760772,小牛电动,广西壮族自治区
东盟大道与广场路交叉口西100米,东兴市,防城港市,107.970351,21.550387,小牛电动,广西壮族自治区
防城镇防港路168号,防城区,防城港市,108.364564,21.762181,小牛电动,广西壮族自治区
廉州镇还珠大道21号,合浦县,北海市,109.195200,21.662691,小牛电动,广西壮族自治区
二环北路与石棠路交叉口东50米,玉州区,玉林市,110.184105,22.649500,小牛电动,广西壮族自治区
星湖路28-1号质量监督局生活区旁,青秀区,南宁市,108.342857,22.806852,南宁小牛电动星湖路专卖店,广西壮族自治区
五一东路37-15号附近,江南区,南宁市,108.293797,22.795775,小牛电动(五一路专卖店),广西壮族自治区
定罗路与灵源路交叉口西北200米,武鸣区,南宁市,108.282597,23.149966,小牛电动(授权专卖店),广西壮族自治区
金水路106号附近,临桂区,桂林市,110.215807,25.249140,小牛电动(金水店),广西壮族自治区
中华路一巷与铁唐巷交叉口西南50米,兴宁区,南宁市,108.324616,22.831910,小牛电动授权专卖店,广西壮族自治区
城东路与新芝路交叉口东北50米,北流市,玉林市,110.351108,22.708138,小牛电动车,广西壮族自治区
平南镇西山路124号,平南县,贵港市,110.398564,23.549355,小牛电动车,广西壮族自治区
中山路附近,港北区,贵港市,109.598826,23.093972,小牛电动车,广西壮族自治区
中华路北大路口133号,西乡塘区,南宁市,108.305359,22.819684,小牛电动车(中华路体验店),广西壮族自治区
青山路10东南50米,青秀区,南宁市,108.357754,22.797844,小牛电动授权体验店,广西壮族自治区
云景路9号东景花园,青秀区,南宁市,108.388007,22.816592,小牛电动授权体验店,广西壮族自治区
横州镇环城西路116号,横县,南宁市,109.266726,22.686442,小牛电动专卖店,广西壮族自治区
朝阳街道铁唐巷81号,兴宁区,南宁市,108.322232,22.830650,小牛电动授权体验店,广西壮族自治区
新兴二路119-3号附近,长洲区,梧州市,111.280427,23.481746,小牛电动授权体验店,广西壮族自治区
五一东路37号附近,江南区,南宁市,108.293781,22.795761,小牛电动授权专卖店,广西壮族自治区
建设中路151号,八步区,贺州市,111.541845,24.413349,小牛电动授权专卖店,广西壮族自治区
城北二路与桂林街交叉口南50米,右江区,百色市,106.610779,23.898721,小牛智能电动车,广西壮族自治区
一环东路48号,玉州区,玉林市,110.168280,22.631416,小牛电动授权专卖店,广西壮族自治区
中华路4-7号,兴宁区,南宁市,108.329387,22.833294,南宁小牛电动中华路授权专卖店,广西壮族自治区
子材西大街1-1号小牛电动体验店,钦南区,钦州市,108.633060,21.967985,小牛电动授权体验店,广西壮族自治区
漓江路31-6号附近,七星区,桂林市,110.308024,25.259721,小牛电动车专卖店,广西壮族自治区
中山南路5号桂青园门口,象山区,桂林市,110.284098,25.252184,小牛电动授权专卖店,广西壮族自治区
中山北路132号,叠彩区,桂林市,110.302591,25.311106,小牛电动授权体验店(北门店),广西壮族自治区
铁唐巷155-156号,兴宁区,南宁市,108.326831,22.833042,南宁小牛授权体验店,广西壮族自治区
海棠区南田机关大门对面小牛电动,海棠区,三亚市,109.760990,18.407001,小牛电动,海南省
秀英大道2-21号附近,秀英区,海口市,110.280880,20.010552,小牛电动授权体验店(秀英旗舰店),海南省
中沙路18号F栋144-145,龙华区,海口市,110.315026,19.985532,小牛电动授权专卖店,海南省
新华南路2号金鹿电动车城26号铺,龙华区,海口市,110.345575,20.037621,小牛电动授权专卖店(东湖金鹿店),海南省
荔枝沟路190-5号附近,吉阳区,三亚市,109.529591,18.297115,小牛电动(荔枝沟店),海南省
椰林镇建设路468号,陵水黎族自治县,陵水黎族自治县,110.028869,18.503426,小牛电动(授权专卖店),海南省
海口人民公园后门东湖路(如家快捷酒店旁),龙华区,海口市,110.344690,20.036486,小牛电动(东湖路一店),海南省
龙昆北路23号第四间,龙华区,海口市,110.328457,20.029011,小牛电动专卖店,海南省
解放路933号,天涯区,三亚市,109.497921,18.264825,小牛电动授权体验店,海南省
高登东街85号附近,琼山区,海口市,110.361602,19.998438,小牛电动授权体验店,海南省
069乡道与225国道交叉口北150米,崖州区,三亚市,109.165889,18.364018,绿源电动车,海南省
人民大道50号,美兰区,海口市,110.339630,20.056810,海甸岛小牛电动,海南省
海垦路与滨涯路交叉口东南50米,龙华区,海口市,110.306194,20.001207,小牛电动车店,海南省
秀新路北50米,秀英区,海口市,110.282832,20.003425,小牛电动体验店(秀英二店),海南省
吉阳镇亚龙湾路80号,吉阳区,三亚市,109.592025,18.281336,小牛电动田独专卖店,海南省
天涯区马岭社区马岭街89号,天涯区,三亚市,109.337421,18.303800,小牛电动车授权专卖店,海南省
天竺路6-8号,渝北区,重庆市,106.488569,29.584651,小牛电动(重庆授权专卖店),重庆市
南坪惠工路13号city城市广场1层,南岸区,重庆市,106.564442,29.525336,小牛电动(城市广场店),重庆市
建新西路170号,江北区,重庆市,106.522889,29.567830,小牛电动(江北店),重庆市
石新路123号附21-2号,九龙坡区,重庆市,106.456234,29.518590,小牛电动(石新路店),重庆市
万盛经开区翠屏路与865县道交叉口东50米,綦江区,重庆市,106.915186,28.951469,小牛电动体验店,重庆市
无,綦江区,重庆市,106.923830,28.948393,小牛电动体验店,重庆市
永安镇竹枝路200号巴蜀花园A区,奉节县,重庆市,109.460050,31.021742,小牛电动授权体验店,重庆市
厚德路与大学城中路交叉口南200米,沙坪坝区,重庆市,106.307410,29.615699,小牛电动授权专卖店,重庆市
歇马镇卢作孚路378号,北碚区,重庆市,106.400948,29.797507,北碚小牛电动授权专卖店,重庆市
渝西大道中段447-附13号附近,永川区,重庆市,105.909460,29.353765,小牛电动授权专卖店,重庆市
无,铜梁区,重庆市,106.083972,29.859064,小牛电动车授权经销店,重庆市
万盛经开区万东镇塔山路加气站旁,綦江区,重庆市,106.924325,28.948412,小牛电动车授权专卖店,重庆市
鱼轻路41一8号,巴南区,重庆市,106.514422,29.380245,小牛电动车巴南区受权店,重庆市
天竺路45号盛世北辰A区,渝北区,重庆市,106.488093,29.586200,电动工具五金工具,重庆市
北大街与202省道交叉口西50米,城口县,重庆市,108.656348,31.945390,城口县小牛电动车经营部,重庆市
顺城东路861号附近,会理县,凉山彝族自治州,102.248521,26.662832,小牛电动,四川省
二环路东5段-1号附16号,锦江区,成都市,104.099475,30.625731,小牛电动授权体验店(锦江万达),四川省
清江东路356号附3号,青羊区,成都市,104.024719,30.669906,小牛电动授权体验店(清江东路店),四川省
一环路南三段与小天西街交叉口东南50米,武侯区,成都市,104.056582,30.633020,小牛电动授权专卖店,四川省
酒圣路71号,翠屏区,宜宾市,104.609778,28.791531,小牛电动(宜宾旗舰体验店),四川省
营门口路283-285号,金牛区,成都市,104.040229,30.687822,小牛电动授权专卖店(营门口店),四川省
二环路南四段73号附18号,武侯区,成都市,104.031712,30.635006,小牛电动授权专卖店(红牌楼店),四川省
长江西路188-122号74、76、78、80、82,旌阳区,德阳市,104.386149,31.127765,小牛电动(授权专卖店),四川省
天府一街与益州大道中段交叉口西北100米,武侯区,成都市,104.056379,30.560855,小牛电动授权店,四川省
前进镇攀枝花大道南段530号,仁和区,攀枝花市,101.721639,26.522838,小牛电动授权体验店,四川省
泰山北路与鳅鱼巷交叉口东北50米,旌阳区,德阳市,104.395301,31.132597,小牛电动授权店,四川省
成绵路与福安巷交叉口东南50米,涪城区,绵阳市,104.746042,31.466494,小牛电动授权专卖店,四川省
经华南路14-16号,锦江区,成都市,104.104405,30.642770,小牛电动授权专卖店(经华南路店),四川省
徐州中路2-8号,东坡区,眉山市,103.824051,30.049997,小牛电动授权专卖店(眉山店),四川省
跃进路43号3幢7号,涪城区,绵阳市,104.740859,31.470157,小牛电动授权专卖店,四川省
永康西路79号附近,崇州市,成都市,103.677470,30.622050,小牛电动授权经销点,四川省
沙冲社区服务中心沙冲路派出所对面浙商电动车城二楼,南明区,贵阳市,106.703439,26.547225,小牛电动,贵州省
环城路13号附近,红花岗区,遵义市,106.919277,27.671041,小牛电动,贵州省
塔山西路202号附近,西秀区,安顺市,105.928242,26.239985,小牛电动,贵州省
大连路463号附近,汇川区,遵义市,106.943284,27.713254,小牛电动车,贵州省
金阳世纪城北京西路417号小牛电动专卖店,观山湖区,贵阳市,106.634341,26.596449,小牛电动(授权专卖店),贵州省
剑江中路281号,都匀市,黔南布依族苗族自治州,107.516194,26.247326,小牛电动车,贵州省
兴泰街道水库社区文化路荣御天下摩托车便民登记服务站附近,兴义市,黔西南布依族苗族自治州,104.901588,25.074403,小牛电动专卖店,贵州省
富民路28号附近,兴义市,黔西南布依族苗族自治州,104.898194,25.080182,小牛电动体验店,贵州省
沙冲中路43号,南明区,贵阳市,106.703451,26.547233,小牛电动授权体验店,贵州省
珠海路七天酒店旁,汇川区,遵义市,106.930365,27.721486,小牛电动授权专卖店,贵州省
鹿城东路137号附近,楚雄市,楚雄彝族自治州,101.556231,25.037758,小牛电动,云南省
龙马路21-8号附近,红塔区,玉溪市,102.546272,24.363604,小牛电动,云南省
环城北路233号城市之光B101,盘龙区,昆明市,102.715677,25.055941,小牛电动授权体验店(环城北路店),云南省
北京路金鑫地铁站A出口旁景秀花园4号,盘龙区,昆明市,102.728187,25.076091,小牛电动车旗舰店(北京路店),云南省
前兴路672号前卫茶文化市场11-12号,西山区,昆明市,102.709818,25.002949,小牛电动授权专卖店(前兴路店),云南省
人民东路522-6-7号,盘龙区,昆明市,102.743022,25.043429,小牛电动车官方授权体验店(人民东路店),云南省
西昌路538号,五华区,昆明市,102.698297,25.036214,小牛电动车授权体验店,云南省
西昌路586号,五华区,昆明市,102.697755,25.036877,小牛电动车官方授权店(7牛站店),云南省
学府路680号附近,五华区,昆明市,102.675983,25.063580,小牛电动(学府路店),云南省
南宁北路164号,麒麟区,曲靖市,103.805129,25.503420,小牛电动(官方授权体验店),云南省
环城西路374号附2号,西山区,昆明市,102.697510,25.026150,小牛电动(环城西路),云南省
昆洛路与珥季路交叉口西100米,官渡区,昆明市,102.773314,24.976152,小牛电动(珥季路2店),云南省
清红路与祥华路交叉口西北50米,祥云县,大理白族自治州,100.552686,25.481387,小牛电动授权体验店,云南省
兴盛路73号,蒙自市,红河哈尼族彝族自治州,103.386123,23.360272,小牛电动授权专卖店,云南省
马街村农行下职业技术学院对面,寻甸回族彝族自治县,昆明市,102.923067,25.768260,小牛电动授权体验店,云南省
西昌路568号,五华区,昆明市,102.697980,25.036482,小牛电动车授权体验店(7牛站西昌路店),云南省
农垦路与瑞宏路交叉口西100米,瑞丽市,德宏傣族景颇族自治州,97.863960,24.012490,小牛电动授权专卖店,云南省
开化中路59号,文山市,文山壮族苗族自治州,104.240513,23.370455,文山小牛官方授权体验店,云南省
无,大理市,大理白族自治州,100.140213,25.863493,小牛电动车电池更换点,云南省
环城南路668号家乐福旁云纺电动车城第一排5-1号,西山区,昆明市,102.710502,25.022608,小牛电动(装修中),云南省
050乡道南50米,弥勒市,红河哈尼族彝族自治州,103.315792,24.143563,小牛车行,云南省
科技二路580附近,雁塔区,西安市,108.902313,34.220501,小牛电动,陕西省
东风路南50米,金台区,宝鸡市,107.177829,34.364172,小牛电动,陕西省
西二环南路48号,莲湖区,西安市,108.889206,34.261974,小牛电动,陕西省
胜利大街北50米,临渭区,渭南市,109.478233,34.509734,小牛电动,陕西省
文景路南段电动车市场5号楼1层1B号,莲湖区,西安市,108.938634,34.285767,小牛电动授权体验店(文景路店),陕西省
步行街与长安西路交叉口南150米,雁塔区,西安市,108.944982,34.190394,小牛电动授权专卖店,陕西省
丈八西路南50米,雁塔区,西安市,108.851478,34.198154,小牛电动车,陕西省
电子正街140号附近,雁塔区,西安市,108.919916,34.202968,小牛电动车授权体验店,陕西省
北关永鑫电动车市场1排1层8-9号,莲湖区,西安市,108.946631,34.277962,小牛电动(北关店),陕西省
西长安街与府东一路十字东北角城南新天地广场7-10107,长安区,西安市,108.910946,34.158028,小牛电动(授权体验店),陕西省
青龙路南50米,雁塔区,西安市,108.979363,34.231073,小牛电动(经九路店),陕西省
劳动南路118号西市城购物中心六宫格1层,莲湖区,西安市,108.907767,34.244716,小牛电动(大唐西市店),陕西省
伞塔路付9号,碑林区,西安市,108.994458,34.264037,小牛电动(旗舰店),陕西省
名州镇三十米大道红绿灯,绥德县,榆林市,110.269124,37.504788,小牛电动车,陕西省
大明宫街道凤城一路东段北大明宫万达公馆10107号,未央区,西安市,108.974446,34.314018,小牛电动授权体验店,陕西省
虎头桥路69号附近,汉台区,汉中市,107.024108,33.080774,小牛电动授权体验店,陕西省
太华路电动自行车批发市场141号,新城区,西安市,108.973590,34.288565,小牛电动授权专卖店,陕西省
万达广场步行街8-108室,临渭区,渭南市,109.453311,34.505886,小牛电动授权体验店,陕西省
伞塔路付9号附近,碑林区,西安市,108.994458,34.264004,小牛电动授权专卖店,陕西省
文化东路122号附近,阎良区,西安市,109.231266,34.663479,小牛电动阎良专卖店,陕西省
西二环路48号附近,莲湖区,西安市,108.889113,34.262415,小牛电动授权专卖店,陕西省
镇定北街米兰婚纱西南30米路北,绥德县,榆林市,110.268406,37.505449,小牛电动车O2O体验店,陕西省
东窑坊路东窑坊小区地下停车场出入口对面,碑林区,西安市,108.992840,34.265996,小牛电动服务体验中心,陕西省
乐育北路10号附近,渭城区,咸阳市,108.716494,34.340852,小牛电动授权专卖店,陕西省
丈八西路里花水一排一号,雁塔区,西安市,108.851405,34.198169,陈斌兄弟车行,陕西省
仓坊街与迎宾中路交叉口南150米,山丹县,张掖市,101.096179,38.784130,小牛电动授权经销点,甘肃省
段家滩路20号兰州国际摩托车汇展中心B区1一3号,城关区,兰州市,103.895400,36.044710,兰州小牛体验店,甘肃省
七一路169-3号,城东区,西宁市,101.801064,36.617731,小牛电动,青海省
昆仑西路新园巷内100米,城西区,西宁市,101.720008,36.634866,小牛电动车维修部,青海省
凤凰北街155号附近,兴庆区,银川市,106.263007,38.474744,小牛电动(中山公园店),宁夏回族自治区
宏佑巷与长城东路交叉口西北50米,兴庆区,银川市,106.288704,38.453626,小牛电动工具,宁夏回族自治区
长春南路西二巷与长沙路交叉口东南50米,新市区,乌鲁木齐市,87.580293,43.867418,小牛电动(乌市授权体验店),新疆维吾尔自治区
广东路100附近,伊州区,哈密市,93.510892,42.828904,小牛电动车行,新疆维吾尔自治区
吐乌大高速出口与河滩北路交叉口西南100米,沙依巴克区,乌鲁木齐市,87.598288,43.823544,小牛电动授权专卖店,新疆维吾尔自治区
屯坪北路与屯坪北路西四巷交叉口东南50米,头屯河区,乌鲁木齐市,87.346179,43.942953,小牛电动车专卖店,新疆维吾尔自治区
