address,city,districd,lat,lon,name,province,street,town
广东省广州市南沙区珠江管理区珠江二路2号万顷沙车行,广州市,南沙区,22.750412344218983,113.58266500863522,广东南沙珠江台铃专卖店,广东省,,
广州从化区太平镇太平东路132,广州市,从化区,23.5539859225784,113.59358543922477,广东从化太平台铃专卖店,广东省,,
广州市海珠区东晓南路253号,广州市,海珠区,23.08898129664783,113.32353998097368,广东海珠昌岗台铃专卖店,广东省,,
广东省广州市南沙区榄核镇民生路117号B101,广州市,南沙区,22.840834763321688,113.34660262747649,广东南沙榄核台铃专卖店,广东省,,
广州市南沙区坂头金岭北路290号,广州市,南沙区,22.800623652137688,113.54212645725543,广东南沙金洲台铃专卖店,广东省,,
广州市海珠区石榴岗18号自编A2栋1号,广州市,海珠区,23.08898129664783,113.32353998097368,广东海珠石榴岗台铃专卖店,广东省,,
广州花都赤坭镇华贵路23-15,广州市,花都区,23.3922638655127,113.08692532158759,广东花都赤坭台铃专卖店,广东省,,
广东省广州南沙经济开发区南沙街江南路29路,广州市,南沙区,22.807929296528254,113.5314355437236,广东南沙江南台铃专卖店,广东省,,
广州花都区炭步镇炭步汽车站对面信达电动车行,广州市,花都区,23.348428282857824,113.11831481101238,广东花都炭步台铃专卖店,广东省,,
广东省广州市南沙区黄阁镇湖田中路16号,广州市,南沙区,22.807929296528254,113.5314355437236,广东南沙黄阁台铃专卖店,广东省,,
广州市增城区中新镇风光路190号首层2号,广州市,增城区,23.292704307327043,113.626532859895,广东增城中新台铃专卖店,广东省,,
广州花都区狮岭合成北五街52号,广州市,花都区,23.46633279342832,113.159491967779,广东花都狮岭台铃专卖店,广东省,,
广东省广州市天河区长兴路193号,广州市,天河区,23.13035783510465,113.36850942427998,广东天河长兴台铃专卖店,广东省,,
广东省广州市黄埔区永和街贤江市场前排A1-A3,广州市,黄埔区,23.187491541424553,113.48707083968644,广东黄埔永台铃专卖店,广东省,,
广州市从化区城郊街新村北路181号真爱电动车行,广州市,从化区,23.559630378464863,113.58851755886134,广东从化城郊台铃专卖店,广东省,,
广州市黄埔区黄埔东路3704号01号/保沙路10号-8,广州市,黄埔区,23.187491541424553,113.48707083968644,广东黄埔南岗台铃专卖店,广东省,,
广州市黄埔区茅岗珠江北路台铃电动车,广州市,黄埔区,23.187491541424553,113.48707083968644,广东黄埔茅岗台铃专卖店,广东省,,
广东省广州市增城区派潭镇洪田第三小区加9号,广州市,增城区,23.494117831086832,113.78875030612205,广东增城派潭台铃专卖店,广东省,,
广东省增城市永和镇荔香路14号永和永达五金经营部,广州市,增城区,23.266592400631392,113.81754566889597,广东增城永台铃专卖店,广东省,,
广州市增城区新塘镇新星横街2-6号（即万子豪程酒店左侧）,广州市,增城区,23.125801324179665,113.61791739141275,广东增城新塘台铃专卖店,广东省,,
广东省广州市增城区仙村镇运河西路87号,广州市,增城区,23.172439191414647,113.72570354240003,广东增城仙村台铃专卖店,广东省,,
广东省广州市萝岗区联和街道长安街9号,广州市,黄埔区,23.256272300342058,113.52257363237052,广东萝岗联台铃专卖店,广东省,,
广东省广州市萝岗区镇龙镇镇龙大道243号汉丰车行,广州市,黄埔区,23.256272300342058,113.52257363237052,广东萝岗九龙台铃专卖店,广东省,,
广东省广州市黄埔区长洲岛金洲南路14号,广州市,黄埔区,23.187491541424553,113.48707083968644,广东黄埔长洲台铃专卖店,广东省,,
广东省广州市南沙区大岗镇灵山环城东路锦江苑11一13号铺,广州市,南沙区,22.807929296528254,113.5314355437236,广东南沙大岗台铃专卖店,广东省,,
广东省广州市荔湾区棉村增南路127号台铃专卖店,广州市,荔湾区,23.06423764542135,113.22365455450343,广东荔湾棉村台铃专卖店,广东省,,
广东省广州市荔湾区葵蓬桥头（芳村茶业城内）辉驰车行,广州市,荔湾区,23.098787828458867,113.22604814163569,广东荔湾葵蓬台铃专卖店,广东省,,
广东省广州市番禺区钟村镇钟村市场旁边顺客楼后门飞达车行,广州市,番禺区,22.97984508373711,113.32124534937975,广东番禺钟村台铃专卖店,广东省,,
广东省广州市番禺区市桥镇大北路富都城大厅右侧台铃电动车专卖店,广州市,番禺区,22.94383073151757,113.39046958043075,广东番禺市桥台铃专卖店,广东省,,
广州市番禺区石碁大龙街大龙村基龙西路5号之9铺,广州市,番禺区,22.94383073151757,113.39046958043075,广东番禺石碁台铃专卖店,广东省,,
广东番禺石楼镇市莲路264号,广州市,番禺区,22.94383073151757,113.39046958043075,广东番禺石楼台铃专卖店,广东省,,
广州市番禺区洛浦街沙溪村新沙路21号,广州市,海珠区,23.082320999146454,113.29189420498697,广东番禺沙溪台铃专卖店,广东省,,
广东省广州市番禺区沙湾镇沙湾大道与经述路交叉口,广州市,番禺区,22.94383073151757,113.39046958043075,广东番禺沙湾台铃专卖店,广东省,,
广州市番禺区市桥桥南街桥南路53号之109,广州市,番禺区,22.94383073151757,113.39046958043075,广东番禺桥南台铃专卖店,广东省,,
广东省广州市番禺区南村镇兴业大道北侧3区1号商业综合楼B栋首层2-6跃远摩托车商行,广州市,番禺区,22.94383073151757,113.39046958043075,广东番禺南村台铃专卖店,广东省,,
广州番禺区洛溪新城新浦路20栋8号铺（即食街方向）,广州市,番禺区,23.053443866513042,113.29771972699692,广东番禺洛溪台铃专卖店,广东省,,
广东省增城市石滩镇沙圆路88号御福车行,广州市,增城区,23.266592400631392,113.81754566889597,广东增城石滩台铃专卖店,广东省,,
广州市番禺区大石街大山村祥和路18号,广州市,番禺区,22.94383073151757,113.39046958043075,广东番禺大石林木元,广东省,,
广东省广州市白云区钟落潭镇钟升中路101号台铃电动车专卖店,广州市,白云区,23.38865702219814,113.41261191293889,广东白云钟落潭林建毓,广东省,,
广东省广州市天河区东圃二马路7号（奥莱达车行）,广州市,天河区,23.11987311323598,113.40720788665374,广东天河东圃陈春坚,广东省,,
广东省广州市天河区龙洞东路217号7铺,广州市,天河区,23.20317307469785,113.37380242000411,广东天河龙洞余泽民,广东省,,
广州市花都区狮岭镇旗岭富誉路10号，新民加油站旁台铃电动车,广州市,花都区,23.475769592908573,113.23149818721379,广东花都旗岭杨参,广东省,,
广东省广州广东省广东省广州市花都区新华镇清布市场旁众诚车行,广州市,花都区,23.411161504875746,113.22657580629208,广东花都新华杨桂栋,广东省,,
广东省广州市花都区新华镇花城路17-（2-7号）,广州市,花都区,23.411161504875746,113.22657580629208,广东花都新华裴云海,广东省,,
广州市花都区新华花城路39号，台铃电动车店,广州市,花都区,23.411161504875746,113.22657580629208,广东花都新华龚岳斌,广东省,,
广东省广州市花都区三东市场斜对面台铃电动车专卖店,广州市,花都区,23.411161504875746,113.22657580629208,广东花都三东林俊勇,广东省,,
广东省广州市花都区花山镇两龙路32号台铃专卖店,广州市,花都区,23.411161504875746,113.22657580629208,广东花都花山万传祥,广东省,,
广东省广州市花都区花东镇政府对面台铃专卖店,广州市,花都区,23.442202295145538,113.3300279026868,广东花都花东张泽钦,广东省,,
广东省广州市花都区狮岭镇杨屋中心市场对面,广州市,花都区,23.431419684128834,113.21273170208222,广东花都杨屋曾国钦,广东省,,
广东省广州市白云区增槎路，江南8号,广州市,白云区,23.16431683445584,113.27943309061779,广东白云增槎陈海升,广东省,,
广州市白云区石井镇石沙路升平前街14号升平楼台铃电动车,广州市,白云区,23.16431683445584,113.27943309061779,广东白云石门邓素玲,广东省,,
广州市白云区京溪街道沙太路段奥邦轮胎城内（中成路27号）,广州市,白云区,23.18596421471892,113.33403216686912,广东白云京溪林伟民,广东省,,
广东省广州市白云区江高镇江人一路自编1号,广州市,白云区,23.2799130597528,113.23873005949916,广东白云江高陈桂洪,广东省,,
广东省广州市黄埔区文冲街广新路732-734号,广州市,黄埔区,23.107923556563367,113.474374908257,广东黄埔文冲董文明,广东省,,
