address,city,districd,lat,lon,name,province,street,town
云南省丽江市古城区香格里大道1150号,丽江市,玉龙纳西族自治县,100.223244,26.866136,丽江超越摩托车商贸有限公司,云南省,,
云南省大理市下关镇建设东路37号森工局电动车一条街,大理白族自治州,大理市,100.231178,25.585928,大理市追风电动车行,云南省,,
云南省大理州弥渡县文笔北路新日电动车专卖店,大理白族自治州,弥渡县,100.489558,25.34831,弥渡县春华电动车经营部,云南省,,
云南省保山市玉泉路96号电动车一条街,保山市,隆阳区,99.171861,25.117111,隆阳区久顺电动车经营部,云南省,,
云南省德宏州芒市北新日总代理,德宏傣族景颇族自治州,芒市,98.588086,24.43369,芒市华南阳光车行,云南省,,
云南省大理州鹤庆县东环路新日电动车（钱江摩托）,大理白族自治州,鹤庆县,100.16903,26.560835,鹤庆县武林车行,云南省,,
楚雄市元谋县元马镇发祥路171号,楚雄彝族自治州,元谋县,101.86533,25.708328,元谋县元马新日电动车经营部,云南省,,
玉溪市红塔区春和街道马井街（九龙路）,玉溪市,红塔区,102.530512,24.400787,红塔区欣荣摩托车修理部,云南省,,
蒙自滇浙电动车有限公司,红河哈尼族彝族自治州,蒙自市,103.388601,23.367713,蒙自祥顺源商贸有限责任公司,云南省,,
弥勒市温泉路164号,红河哈尼族彝族自治州,弥勒市,103.434361,24.405751,弥勒市华丰山河摩托车销售有限公司,云南省,,
云南省文山市环北路华泰园（凯路仕车店）,文山壮族苗族自治州,文山市,104.235382,23.373979,文山市翔升车行,云南省,,
云南省普洱市宁洱县宁洱镇东山路216号,普洱市,宁洱哈尼族彝族自治县,101.049529,23.058522,宁洱茶乡摩托城,云南省,,
云南省昭通市昭阳区爱民路裕康商业广场242号内,昭通市,昭阳区,103.710144,27.337305,昭通市昭阳区安辉电动车销售部,云南省,,
云南省西双版纳景洪市铂金广场124号,西双版纳傣族自治州,景洪市,100.794752,22.009191,景洪王派电动车店,云南省,,
云南省勐腊县城南路高中坡辉煌广场1-1,西双版纳傣族自治州,勐腊县,101.56782,21.468633,勐腊县红兴车行,云南省,,
云南省红河州河口县人民路141号,Lao Cai,,103.964314,22.506677,河口安驰车行,Lao Cai,,
云南省玉溪市易门县龙泉东路泰坤汽车城2-4号,玉溪市,易门县,102.1736,24.674644,易门荣兴摩托车销售有限公司,云南省,,
云南省昭通市镇雄县南大街统计局家属3号,昭通市,镇雄县,104.872464,27.432525,镇雄县云长商贸中心,云南省,,
云南省昭通市巧家县青年路中段,昭通市,巧家县,102.926867,26.91839,巧家县白鹤滩镇新日电动车行,云南省,,
云南省临沧市耿马傣族佤族自治县孟定镇中缅路明光汽车城旁,临沧市,耿马傣族佤族自治县,99.089422,23.559217,孟定兄弟电动车行,云南省,,
云南省德宏州芒市团结大街162号三棵树旁,德宏傣族景颇族自治州,芒市,98.578901,24.426103,芒市路路顺电动车行,云南省,,
云南昭通水富新日电动车专卖店,昭通市,水富市,104.412652,28.631131,水富新日电动车专卖店,云南省,,
云南省红河哈尼族彝族自治州建水县永祯路142号新日专卖,红河哈尼族彝族自治州,建水县,102.820679,23.621229,建水县顺风车行,云南省,,
云南省曲靖市宣威市西宁路新日专卖店,曲靖市,宣威市,104.093783,26.220339,宣威市伟泽电动车行有限公司,云南省,,
云南省曲靖市马龙县启秀街第四中学对面,曲靖市,马龙区,103.582228,25.42799,马龙县通泉镇忠誉摩配,云南省,,
云南省曲靖市罗平县龙门街新日电动车,曲靖市,罗平县,104.302346,24.884953,罗平县天洪电动车经营部,云南省,,
沾益西平瑞丰摩托车经营部,曲靖市,沾益区,103.82177,25.604343,沾益县瑞风商贸有限责任公司,云南省,,
云南省昆明市西昌路96号,昆明市,西山区,102.706476,25.026287,昆明元日商贸有限公司,云南省,,
云南省曲靖市金宝路靖江商城17-3、17-4,曲靖市,麒麟区,103.804246,25.468592,俞奇皓(直营),云南省,,
云南省昆明市嵩明县玉明路妇幼保健院旁,昆明市,嵩明县,103.042449,25.327236,云南省嵩明县嵩阳镇用心电动车经营部(直营),云南省,,
云南省安宁市县街镇耳目村297号,昆明市,安宁市,102.443072,24.825159,安宁新日专卖店(直营),云南省,,
云南省晋宁县昆阳街道办事处永乐大街488号,昆明市,晋宁区,102.598,24.663917,云南省晋宁县昆阳驰骋商行日电动车经营部(直营),云南省,,
云南省曲靖市陆良县城中兴南路延长线,曲靖市,陆良县,103.666663,25.030051,云南省陆良县中枢镇新日电动车经营部(直营),云南省,,
云南省昆明市官渡区新亚洲体育城五环峰商商铺D3栋15-17,昆明市,官渡区,102.760461,24.946375,昆明市永友摩托车贸易有限公司(直营),云南省,,
昆明市西昌路96号,昆明市,西山区,102.706476,25.026287,云南你好商贸有限公司,云南省,,
寻甸东门环岛旁凤悟路豪爵专卖店,昆明市,呈贡区,102.804341,24.875083,寻甸仁德家俊车行(直营),云南省,,
云南省丽江市永胜县灵源路25号雷特酒店旁新日专卖店,丽江市,永胜县,100.75448,26.684901,云南省永胜县永北镇永康电动车商店(直营),云南省,,
云南省祥云县城西综合服务公司友联商贸城内上好佳岁丰农贸公司,大理白族自治州,祥云县,100.550978,25.474207,祥云县阳光安安车行(直营),云南省,,
云南省昆明市环城路南路汕头大厦背后老家电城内B区85号,昆明市,西山区,102.702629,25.023891,昆明忠兴宏源经贸有限公司(直营),云南省,,
云南省红河州弥勒县温泉路新潮流电动车商行,红河哈尼族彝族自治州,弥勒市,103.437978,24.404628,云南省红河州弥勒县新日形象专卖店(直营),云南省,,
云南省昭通市昭阳区爱民路裕康广场D-28号,昭通市,昭阳区,103.710112,27.337346,昭通市昭阳区兴俊电动车行,云南省,,
云南省泸西县迎宾路红绿灯口,红河哈尼族彝族自治州,泸西县,103.748973,24.533972,云南省红河州泸西县新日形象专卖店,云南省,,
云南省红河州石屏县焕文路55号,红河哈尼族彝族自治州,石屏县,102.483286,23.719568,云南省红河州石屏县新日形象专卖店(直营),云南省,,
云南省开远市临泉东路东升小区9-10号商铺,红河哈尼族彝族自治州,开远市,103.2817,23.707783,开远市庭渝摩托车行,云南省,,
云南省玉溪市红塔区龙马路宏兴公寓下门面房,玉溪市,红塔区,102.54631,24.36264,玉溪新源商贸有限公司(直营),云南省,,
云南省玉溪地区江川县城（大街镇）仁和街与浪广路20号交叉口,玉溪市,江川区,102.746337,24.295179,江川县大街镇红瑞车行(直营),云南省,,
通海县秀山西路215号长虹机动车商城A栋6-13号,玉溪市,通海县,102.74059,24.11323,云南省通海宏源摩托车行(直营),云南省,,
云南省普洱市宁洱路145号,普洱市,思茅区,100.966512,22.825065,普洱市思茅区得力车行(直营),云南省,,
云南省景东县凌云路与嘉辉汽车城交叉口新华保险楼下门面房,普洱市,景东彝族自治县,100.845529,24.447041,景东东俊车行(直营),云南省,,
云南省临沧市耿马县孟定镇中缅路允相路口斜对面远大车行,临沧市,耿马傣族佤族自治县,99.095753,23.562832,云南省临沧市耿马县孟定口岸新日形象专卖店(直营),云南省,,
云南省西双版纳景洪市宣慰大道83号,西双版纳傣族自治州,景洪市,100.793411,22.006464,云南省西双版纳景洪市新日形象专卖店,云南省,,
施甸县甸阳镇王飞电动车销售店,保山市,施甸县,99.183374,24.721319,施甸县甸阳镇王氏电动车经营行,云南省,,
云南省昆明市盘龙区欣都龙城4幢1-065,昆明市,盘龙区,102.733119,25.079309,昆明朗顾经贸有限公司,云南省,,
楚雄市团结路180号,楚雄彝族自治州,楚雄市,101.553209,25.040873,楚雄市鹿城台玲车行,云南省,,
开远市建设东路,红河哈尼族彝族自治州,开远市,103.270156,23.717514,砚山县平远镇无限飞翔车行(直营),云南省,,
云南省文山市丘北县普者黑大街95号,文山壮族苗族自治州,丘北县,104.193034,24.036322,杨友(直营),云南省,,
云南省文山州文山市开化中路军分区附属楼,文山壮族苗族自治州,文山市,104.2465,23.367381,文山市优狐商贸有限责任公司(直营),云南省,,
云南昭通市昭阳路新日专卖店,昭通市,昭阳区,103.71059,27.333044,昭通市昭阳区铭刻商贸有限公司(直营),云南省,,
云南省蒙自天马路麒麟街浙江商贸城B区3幢47-50号,红河哈尼族彝族自治州,蒙自市,103.40007,23.37248,云南省蒙自世纪小羚羊电动车行(直营),云南省,,
云南省昭通市昭阳区爱民路裕康商业广场242号,昭通市,昭阳区,103.710144,27.337305,昭通市昭阳区安辉电动车经营部(直营),云南省,,
云南省思茅区五一路5号,普洱市,思茅区,100.965673,22.783895,云南省普洱市思茅区好兄弟电动车经营部(直营),云南省,,
云南省临沧市耿马县孟定镇下城保险公司旁,临沧市,耿马傣族佤族自治县,99.081995,23.55404,孟定鸿运车行(直营),云南省,,
云南省大理州巍山县南诏镇系马桩110号,大理白族自治州,巍山彝族回族自治县,100.308914,25.237624,巍山县超泰车行(直营),云南省,,
云南省大姚县环城北路3号,楚雄彝族自治州,大姚县,101.324007,25.730351,大姚县诚信车行(直营),云南省,,
云南省楚雄市团结路297号楚雄周恒达公司家旺车行,楚雄彝族自治州,楚雄市,101.551808,25.037044,楚雄市路城恒达家旺车行(直营),云南省,,
白沟富民路新日电动车,昆明市,富民县,102.513737,25.219051,保定白沟和顺自行车商行(直营),云南省,,
金辰街道,昆明市,盘龙区,102.72812247276306,25.076195061245343,北市区店,云南省,,
大观街道,昆明市,西山区,102.69866645336151,25.035685453102957,西昌路店,云南省,,
龙山镇,保山市,龙陵县,98.69627550244334,24.592406054774933,龙陵新日,云南省,,
勐仑镇,西双版纳傣族自治州,勐腊县,101.24978542327882,21.93520346134042,新日电动车,云南省,,
云南省临沧市耿马县人民路开发二区门口,临沧市,耿马傣族佤族自治县,99.401562,23.530034,耿马顺风电动车行,云南省,,
云南省玉溪市红塔区龙马路18号2-1,玉溪市,红塔区,102.546234,24.363031,红塔区杭骏车行,云南省,,
云南省文山州砚山县嫁依镇小石桥同安街,文山壮族苗族自治州,砚山县,103.943807,23.710448,砚山县嫁依镇威伦车行,云南省,,
云南文山州砚山县平远镇新平路,文山壮族苗族自治州,砚山县,103.771296,23.7485,砚山县平远镇无限飞翔车行,云南省,,
昭通市昭阳区爱民路7号裕康商业广场A幢B区1层148号,昭通市,昭阳区,103.7089,27.33757,昭通市昭阳区创运电动车行,云南省,,
云南省大理市下关镇建设路滇西商务中心B1-1-11号,大理白族自治州,大理市,100.230011,25.586567,大理市奇峰电动车行,云南省,,
云南省楚雄大姚县明德路8号,楚雄彝族自治州,大姚县,101.336617,25.729513,大姚万路通电动车经营部,云南省,,
曲江镇,红河哈尼族彝族自治州,建水县,102.79461979866028,23.963945475209893,新日电动车,云南省,,
临安镇,红河哈尼族彝族自治州,建水县,102.87671416997911,23.64056707394134,小马车行,云南省,,
大理创新工业园区凤仪镇,大理白族自治州,大理市,100.31356841325761,25.58521697702102,凤仪新日电动车,云南省,,
挖色镇,大理白族自治州,大理市,100.23169934749605,25.828176511024896,挖色新日电动车,云南省,,
大理镇,大理白族自治州,大理市,100.1609493792057,25.700885918988735,大理古城新日电动车,云南省,,
云南省通海县长虹路13号,玉溪市,通海县,102.755009,24.113411,通海十三电摩车行,云南省,,
云南省红河州泸西县中枢镇小村烟站隔壁,红河哈尼族彝族自治州,泸西县,103.75881,24.555735,泸西金龙电动车大世界,云南省,,
云南省玉溪市新平县古城街道办事处新平大道（老穆斯林11号）,玉溪市,新平彝族傣族自治县,101.98875,24.0637,新平佳诚摩托车行,云南省,,
云南省广南县莲城镇北宁路36号,文山壮族苗族自治州,广南县,105.049494,24.053921,广南县莲城新日电动车行,云南省,,
云南省文山州丘北县锦屏镇普者黑大街140号,文山壮族苗族自治州,丘北县,104.192295,24.036995,丘北红俊车行,云南省,,
云南省楚雄市南华县龙城大道仁和4院14号,楚雄彝族自治州,南华县,101.284373,25.194286,南华县龙川镇万通车行,云南省,,
云南省临沧市沧源佤族自治县勐董镇财产保险公司对面,临沧市,沧源佤族自治县,99.25825,23.141359,沧源县飞腾摩托车维修,云南省,,
云南省临沧市耿马县景戈路商业步行街,临沧市,耿马傣族佤族自治县,99.41081,23.530894,耿马万里车行,云南省,,
文澜镇,红河哈尼族彝族自治州,蒙自市,103.3886043727398,23.370153858889584,蒙自新日二分店,云南省,,
勐焕街道,德宏傣族景颇族自治州,芒市,98.58055830001831,24.422782419598065,鑫旺摩托车电动车修理店,云南省,,
勐焕街道,德宏傣族景颇族自治州,芒市,98.57598915696146,24.417916235999268,熊建摩托车电动车修理店,云南省,,
勐焕街道,德宏傣族景颇族自治州,芒市,98.57504367828369,24.432818254234896,通达摩托车电动车修理店,云南省,,
勐焕街道,德宏傣族景颇族自治州,芒市,98.57990652322769,24.44771118667412,创辉摩托车电动车修理店,云南省,,
云南省楚雄市禄丰县金山镇龙城路官场二组综合楼,楚雄彝族自治州,禄丰县,102.06259,25.137869,禄丰县台铃电动车销售店,云南省,,
云南省保山市腾冲市腾越镇秀峰社区东方小区8号,保山市,腾冲市,98.498951,25.022053,腾冲市腾越镇金米电动车行,云南省,,
云南省德宏州盈江县平原镇南部新区勐町路,德宏傣族景颇族自治州,盈江县,97.9479,24.698567,盈江县海洋车行,云南省,,
金辰街道,昆明市,盘龙区,102.72763565182686,25.07639062757264,新日电动车金星地铁站店,云南省,,
旧城镇,德宏傣族景颇族自治州,盈江县,98.08265715837479,24.743950822858995,盈江旧城新日电动车,云南省,,
弄璋镇,德宏傣族景颇族自治州,盈江县,97.88318797945978,24.61365812489825,弄璋杨凡车行,云南省,,
小板桥街道,昆明市,官渡区,102.77103245258331,24.974300259664485,昆明小板桥电动车市场新日旗舰店,云南省,,
老寨苗族乡,红河哈尼族彝族自治州,蒙自市,103.78525480628015,23.399506992882408,小王车行,云南省,,
南诏镇,大理白族自治州,巍山彝族回族自治县,100.30130937695505,25.229617154688512,大理巍山新日电动车,云南省,,
屏山街道,昆明市,禄劝彝族苗族自治县,102.4577544629574,25.549950700882164,张朝良,云南省,,
039县道西50米,德宏傣族景颇族自治州,盈江县,97.927717,24.763953,户勐新日电动车,云南省,,
芒线街南50米,德宏傣族景颇族自治州,盈江县,97.753366,24.493552,芒线新日电动车,云南省,,
云南省昆明市宜良县匡远街道永昌街,昆明市,宜良县,103.151147,24.921433,昆明宜良新日电动车,云南省,,
勐龙镇,西双版纳傣族自治州,景洪市,100.6826189160347,21.590491758641793,新日电动车,云南省,,
羊街乡,红河哈尼族彝族自治州,开远市,103.37176144123077,23.580873828434676,老杜维修店,云南省,,
铜都街道,昆明市,东川区,103.19482818245886,26.07635794002538,昆明东川新日电动车（装修中）,云南省,,
文澜镇,红河哈尼族彝族自治州,蒙自市,103.37774947285655,23.357974203950754,团山新日电动车,云南省,,
雨过铺镇,红河哈尼族彝族自治州,蒙自市,103.25331375002861,23.474748351640866,蒙自纳瓦寨新日电动车,云南省,,
坝心镇,红河哈尼族彝族自治州,石屏县,102.63388976454735,23.649363251690453,坝心新日电动车,云南省,,
宁洱镇,普洱市,宁洱哈尼族彝族自治县,101.04952901601791,23.05852911131089,宁洱茶乡摩托城,云南省,,
小板桥街道,昆明市,官渡区,102.7708299458027,24.974235827146895,昆明新日华潮店,云南省,,
云南省昆明市呈贡区吴家营街道景明南路云上小镇,昆明市,呈贡区,102.843995,24.840188,呈贡区大学城店,云南省,,
云南省昆明市盘龙区金辰街道北辰大道5-7号鑫实园(金秋路),昆明市,盘龙区,102.735972,25.078448,北辰大道店,云南省,,
草坝镇,红河哈尼族彝族自治州,蒙自市,103.40420544147493,23.51435068197325,蒙自市草坝镇分销,云南省,,
文澜镇,红河哈尼族彝族自治州,蒙自市,103.4235468506813,23.359755731446835,蒙自观音桥分销,云南省,,
金河镇,红河哈尼族彝族自治州,金平苗族瑶族傣族自治县,103.22666198015214,22.77579570694227,蒙自金平,云南省,,
莲城镇,文山壮族苗族自治州,广南县,105.06599754095078,24.05409131166908,广南县莲城钰惠电动车行,云南省,,
竹园镇,红河哈尼族彝族自治州,弥勒市,103.41572552919389,24.110768800625888,弥勒云龙车行,云南省,,
思茅镇,普洱市,思茅区,100.97214326262474,22.797929111061407,普洱新日专卖店,云南省,,
云南省昆明市盘龙区东华街道白龙路267附2号兴昭大酒店,昆明市,盘龙区,102.740306,25.053282,昆明白龙路新日加盟店,云南省,,
太平镇,德宏傣族景颇族自治州,盈江县,97.85030677914621,24.657326380208396,盈江太平新日电动车,云南省,,
茂兰镇,临沧市,云县,100.23909553885461,24.56129756265272,云县茂兰新日,云南省,,
湾甸傣族乡,保山市,昌宁县,99.36081290245056,24.5198872810137,保山湾甸新日,云南省,,
曲石镇,保山市,腾冲市,98.60488057136536,25.223228421493072,曲石新日,云南省,,
松桂镇,大理白族自治州,鹤庆县,100.21387338638306,26.38384932964068,松桂新日,云南省,,
西洒镇,文山壮族苗族自治州,西畴县,104.67982247471811,23.443681984502476,西畴专卖店,云南省,,
东村南路与拥军路交叉口东50米,红河哈尼族彝族自治州,蒙自市,103.410572,23.364759,蒙自分销东村店,云南省,,
盏西镇,德宏傣族景颇族自治州,盈江县,98.14658761024477,25.06299543436925,盏西新日,云南省,,
支那乡,德宏傣族景颇族自治州,盈江县,98.12889441847803,25.1470837637772,支那新日,云南省,,
芒东镇,德宏傣族景颇族自治州,梁河县,98.2217685878277,24.660820692416973,芒东新日,云南省,,
那邦镇,德宏傣族景颇族自治州,盈江县,97.5548279285431,24.734519691143344,那帮新日,云南省,,
大屯镇,红河哈尼族彝族自治州,个旧市,103.25937151908875,23.42674446464112,蒙自分销大屯店,云南省,,
云南省昆明市盘龙区东华街道白龙路昆明理工大学新迎校区,昆明市,盘龙区,102.732847,25.049557,白龙路二店,云南省,,
云南省楚雄彝族自治州大姚县金碧镇百草岭大街59庞业大酒店,楚雄彝族自治州,大姚县,101.327549,25.717992,大姚店,云南省,,
云南省昆明市盘龙区鼓楼街道环城北路云南省航务管理局,昆明市,五华区,102.717891,25.054895,环城北路店,云南省,,
云南省昆明市五华区莲华街道苏宁电器(龙泉路店),昆明市,五华区,102.710107,25.070296,通慧市场店,云南省,,
云南省昆明市官渡区关上街道海明路日新小区,昆明市,官渡区,102.737305,25.001887,日新路店,云南省,,
云南省昆明市安宁市太平新城街道素爱茶味道万辉·星城蓝山郡,昆明市,安宁市,102.584388,24.92493,安宁新日,云南省,,
云南省昆明市呈贡区洛羊街道大新册段新册标准化农贸市场,昆明市,呈贡区,102.840744,24.900729,小新册店,云南省,,
