address,city,districd,lat,lon,name,province,street,town
四川省名山县红星镇百马街197号,成都市,武侯区,104.075931,30.651651,雅安市名山区星达车行,四川省,,
四川省泸州市龙马潭区金山路六和苑四号楼2号门市,泸州市,龙马潭区,105.438865,28.896478,李吉,四川省,,
乐山市市中区柏杨中路556号,乐山市,市中区,103.741007,29.591837,乐山市中心城区嘉乐摩托车行,四川省,,
四川省荥经县严道派出所旁,雅安市,荥经县,102.83575,29.794641,荥经县宏运摩托车销售点,四川省,,
四川省天全县电动车一条街门市,雅安市,天全县,102.767599,30.055918,天全县华龙车行,四川省,,
四川省攀枝花市米易县攀莲镇大坪北路,攀枝花市,米易县,102.102363,26.890067,米易县何氏商贸有限公司,四川省,,
四川省泸州市纳溪城区柏林小区2号楼第一层35号门市,泸州市,纳溪区,105.365974,28.766428,张诗权,四川省,,
四川省宜宾市商业街2号楼8号“北京新日专卖”发货地址:四川宜宾市难岩长江大道19-10号,宜宾市,翠屏区,104.626583,28.756438,宜宾奕星商贸有限公司,四川省,,
四川省南溪县北大街163号,成都市,彭州市,103.942072,30.987527,宜宾市南溪区唐泽均车行,四川省,,
四川省长宁县长宁镇竹都大道二段43号,宜宾市,长宁县,104.915553,28.579791,长宁县建国电动车行,四川省,,
四川省宜宾市珙县巡场镇芙蓉路大道75号,宜宾市,珙县,104.709291,28.458505,孙希兵,四川省,,
四川省内江市中区交通路166号,成都市,简阳市,104.520957,30.419353,内江市中区远大车行,四川省,,
四川荣县环城南路169号,自贡市,荣县,104.413752,29.454827,荣县环城三哥车行,四川省,,
四川省邻水县交警大队对面下50米,广安市,邻水县,106.93038,30.334769,邻水县万鑫电动车行,四川省,,
四川省武胜县下东街,广安市,武胜县,106.297055,30.344998,武胜县沿口胜仔电动车店,四川省,,
大竹县竹阳北路,达州市,大竹县,107.213055,30.736949,大竹县馨飞电动车销售门市,四川省,,
达州市达川区翠屏街通达西路389号,达州市,达川区,107.50382,31.20121,达州市达川区振男车行,四川省,,
四川省华蓥市双河镇明光路284号,广安市,华蓥市,106.773792,30.367604,刘建平,四川省,,
四川省营山县翠屏路金穗门口,南充市,营山县,106.562643,31.072064,营山县钟文车行,四川省,,
四川省遂宁市射洪县太和镇新阳街488号雅迪电动车专卖店,遂宁市,射洪县,105.380744,30.871051,任勇,四川省,,
四川省泸州泸县二中学府路34号,泸州市,泸县,105.373297,29.141478,泸县福集镇好弟兄电动车销售部,四川省,,
四川省凉山州西昌市长安中路安宁小区292号（北京新日专卖）,凉山彝族自治州,西昌市,102.248767,27.887948,西昌志彬电动车销售有限公司,四川省,,
四川省内江市威远县严陵镇杉树坳街中段320号,内江市,威远县,104.664391,29.519834,威远县恒瑞祥商贸有限公司,四川省,,
四川省峨眉山市符溪镇乐峨路符溪段26号1-7号,乐山市,峨眉山市,103.560945,29.599729,峨眉山市志春摩托车销售经营部,四川省,,
四川省自贡市自流井区汇东路市图书馆360号,自贡市,自流井区,104.770279,29.343876,自贡市继翔商贸有限公司,四川省,,
四川省自贡市富顺县斧江大道中段五羊本田,自贡市,富顺县,104.9708,29.18051,富顺县宏达摩托车经营部,四川省,,
会理县顺城路891号,凉山彝族自治州,会理县,102.248886,26.653898,会理县新能源电动车行,四川省,,
四川省乐山市五通桥区牛华镇豪爵铃木专卖店,乐山市,五通桥区,103.802914,29.464398,乐山市五通桥区驰骋车行,四川省,,
资中县前西街嘉陵摩托车行,内江市,资中县,104.853399,29.788898,资中县飞跃摩托车行,四川省,,
四川省南充市人民南路300-304号,南充市,顺庆区,106.080963,30.785046,南充金夫人电动车城,四川省,,
广安市广安区兴安东街22-24号,广安市,广安区,106.641608,30.474003,广安市城南兴安中街凯达自行车经营部,四川省,,
四川省广安市岳池县九龙镇九龙大街千禧家园门市（新日电动车专卖店）,广安市,岳池县,106.445699,30.531469,岳池县新日电动车经营部,四川省,,
四川省绵阳市长虹大道中段39号大兴达摩托车公司“北京新日专卖”,绵阳市,涪城区,104.737816,31.476933,四川大兴达摩托车有限责任公司,四川省,,
四川省广元市文化路,广元市,利州区,105.857438,32.429992,广元市城区宽宏摩托车经营部东坝店,四川省,,
四川省眉山市丹棱县西门大道,眉山市,丹棱县,103.512733,30.014448,丹棱县平安车行,四川省,,
四川省青神县青城镇福家小区22-23号,眉山市,青神县,103.841839,29.83118,青神县邓氏车业销售部一门市,四川省,,
四川省安岳县北大街279号,资阳市,安岳县,105.347711,30.108797,阳运建,四川省,,
四川巴中市巴州区南池南路540号,巴中市,巴州区,106.755631,31.848914,巴中市巴州区锦程电动车行,四川省,,
中江县凯江镇朝阳中路215号,德阳市,中江县,104.679474,31.030735,唐海芳,四川省,,
四川省资阳市雁江区松涛路一段213号,资阳市,雁江区,104.630679,30.148071,资阳市大地四海商贸有限责任公司,四川省,,
四川简阳市五友路二段新日电动车专卖店,成都市,简阳市,104.549422,30.394245,简阳市简城镇新新日电动车行,四川省,,
人民路新汽车站东邻,成都市,双流区,103.875763,30.58234,平顶山市玖晋源商贸有限公司,四川省,,
四川省成都市都江堰市青城桥头郦湾酒店对面,成都市,都江堰市,103.612376,30.977239,都江堰市高信摩托车行(直营),四川省,,
四川省成都市金牛区兴川路1027蚂蚁物流城北基,成都市,金牛区,104.100075,30.753435,金牛区洪诚电动自行车行,四川省,,
眉山市东坡区一环东路（巴黎春天对面）新日电动车,眉山市,东坡区,103.842152,30.043771,眉山市新兴摩托车销售有限公司,四川省,,
邛崃市临邛镇东街212号,成都市,邛崃市,103.466573,30.411524,沈正彬,四川省,,
四川省眉山市洪雅县三宝镇,眉山市,洪雅县,103.423194,29.832785,洪雅县余东车行,四川省,,
四川省德阳市旌阳区泰山北路一段76号,德阳市,旌阳区,104.394653,31.128979,德阳新日专卖店(直营),四川省,,
四川省眉山市东坡区一环东路团部对面,眉山市,东坡区,103.842506,30.051132,眉山市东坡区彭氏电器自行车行(直营),四川省,,
四川成都市新都区新繁镇白鹤街东段8-10号,成都市,新都区,104.007569,30.878267,成都市诚吉商贸有限公司(直营),四川省,,
四川眉山市凤鸣百路462号,眉山市,东坡区,103.848538,30.075439,四川彭山县大余摩托车凤鸣百路经营部(直营),四川省,,
四川眉山市一环西路463号,眉山市,东坡区,103.82257,30.04593,眉山市东坡区金典车行(直营),四川省,,
四川省眉山市东坡区一环西路,眉山市,东坡区,103.821434,30.044845,眉山新日电动车专卖店,四川省,,
绵竹市瑞祥路27号,德阳市,绵竹市,104.194732,31.34298,四川绵竹市（王倩）(直营),四川省,,
四川省都江堰市青城路49号,成都市,都江堰市,103.631742,30.983484,四川省都江堰万丰车行(直营),四川省,,
四川成都金堂县淮口镇淮州大道127—129号,成都市,金堂县,104.563065,30.711996,金堂淮口唐氏车行,四川省,,
四川省仁寿县文林镇陵州路二段299号,眉山市,仁寿县,104.1567,29.989994,四川省仁寿县（孙敏丽）(直营),四川省,,
德阳市泰山北路三段秦密村,德阳市,旌阳区,104.396329,31.154963,德阳超美车业有限公司(直营),四川省,,
四川省中江县朝阳中路104号,德阳市,中江县,104.68094,31.034641,中江县银鑫五交化标件经营部(直营),四川省,,
四川德阳绵竹市剑南镇瑞祥路24号,德阳市,绵竹市,104.198823,31.347545,绵竹市新日专卖店(直营),四川省,,
资阳市西门松涛红绿灯路口,资阳市,雁江区,104.627636,30.128901,四川资阳新日专卖店(直营),四川省,,
简阳五友路二段118号,成都市,简阳市,104.549422,30.394245,四川简阳新日专卖店,四川省,,
四川省洪雅县青云街76号新日专卖店,眉山市,洪雅县,103.37795,29.901635,四川省洪雅县新日专卖店(直营),四川省,,
四川省武胜县六十米大街新日专卖店,广安市,武胜县,106.295764,30.348772,四川省武胜县新日专卖店(直营),四川省,,
四川省广安邻水县万兴大道33-34号,广安市,邻水县,106.929836,30.330848,四川邻水县新日专卖店(直营),四川省,,
四川省大竹县竹阳北路338号,达州市,大竹县,107.215081,30.738384,大竹县新日电动车车行(直营),四川省,,
四川达州渠县渠红镇渠光路133号,达州市,渠县,106.968101,30.828817,四川省达州渠县新日专卖店(直营),四川省,,
四川省达州市南外通达西路512号,达州市,达川区,107.502478,31.203136,达州新日电动车专卖店(直营),四川省,,
四川省遂宁市天宫北路开元驾校斜对面,遂宁市,船山区,105.592567,30.496826,四川遂宁船山区大运车行(直营),四川省,,
四川省遂宁市大英县客馆街新日专卖店,遂宁市,大英县,105.258376,30.576808,遂宁市大英县新日电动车店(直营),四川省,,
四川省阆中市保宁醋西路19号新日电动车店,南充市,阆中市,105.985872,31.57505,阆中新日电动车专卖店(直营),四川省,,
四川郫县一里阳光街5号,成都市,郫都区,103.89191,30.80972,郫县智业电动车配件维修中心(直营),四川省,,
四川省城市武侯区置信丽都花园小区366-3号,成都市,武侯区,104.063375,30.620208,四川省成都办事处(直营),四川省,,
四川省成都市温江区柳城凤溪大道北段539号2栋1楼,成都市,温江区,103.828643,30.69967,温江盛达电动车经营部(直营),四川省,,
四川省射洪县沱牌大道繁荣公寓门面房,遂宁市,射洪县,105.372592,30.863936,射洪县华辉摩托车有限责任公司(直营),四川省,,
四川省成都西南摩托车展销中心（双流九江）,成都市,双流区,103.920603,30.632581,四川成都新日电动车销售旗舰店(直营),四川省,,
自贡市富顺县富顺镇釜江大道中段480号1栋1层36号,自贡市,富顺县,104.968259,29.181069,富顺县新日电动车专卖店(直营),四川省,,
四川省渠县渠江镇营渠路,达州市,渠县,106.968346,30.844114,渠江镇玫瑰之约电动车门市(直营),四川省,,
四川省阆中市保宁醋西街,南充市,阆中市,105.983261,31.574408,阆中市春雷贸易有限公司(直营),四川省,,
四川省渠县营渠路131路,达州市,渠县,106.968346,30.844114,渠县新日专卖店(直营),四川省,,
成都高新区中和镇柳荫街64号新日电动车,成都市,双流区,104.091063,30.557405,成都高新区中和镇新日电动车专卖店(直营),四川省,,
四川成都市金牛区五块石电器市场C座三楼,成都市,金牛区,104.066587,30.708666,四川成都五块石新日电动车专卖店,四川省,,
四川达州渠县营渠路65号,达州市,渠县,106.968346,30.844114,渠江镇绿佳电动车(直营),四川省,,
四川省射洪县太和镇城信花园繁荣公寓小区,遂宁市,射洪县,105.379326,30.851862,四川射洪新日专卖店,四川省,,
四川省阆中市保宁醋西街25号,南充市,阆中市,105.983261,31.574408,阆中新日电动车专卖店(直营),四川省,,
四川成都温江区凤溪大道北段549号,成都市,温江区,103.827965,30.702162,四川成都温江新日专卖店(直营),四川省,,
四川广安华蓥市明光路269号,广安市,华蓥市,106.775491,30.371779,华蓥市鸿攀摩托车商行(直营),四川省,,
雅安市雨城南四路7号,雅安市,雨城区,102.994827,29.996278,雅安市雨城区森林车行(直营),四川省,,
四川省成都市华阳镇正东下街79-89号,成都市,双流区,104.066147,30.501098,双流县华阳万和摩托车商场(直营),四川省,,
芦山县平安路65,雅安市,芦山县,102.9288,30.144851,四川省芦山县永盛车行,四川省,,
汉源县九襄镇兴襄路3号,雅安市,汉源县,102.625276,29.498235,汉源县添运车行经营部,四川省,,
雅安市名山区陵园路180号,雅安市,名山区,103.109418,30.07976,四川雅安名山新日专卖店(直营),四川省,,
雅安市名山区,雅安市,名山区,103.109185,30.069954,攀枝花市金宸商贸有限责任公司(直营),四川省,,
四川省崇州市崇阳镇蜀州中路371号,成都市,崇州市,103.669298,30.623721,崇州市崇阳鹏飞电动车门市(直营),四川省,,
四川省双流县藏卫路南一段211-218,成都市,双流区,103.920809,30.565482,四川双流简四摩托车销售有限公司,四川省,,
四川省双流县中和镇柳萌街74-76号,成都市,双流区,104.09215,30.55843,四川省双流县中和镇（李春风）(直营),四川省,,
四川大邑县晋原镇东壕沟南段6号新日专卖,成都市,大邑县,103.524054,30.586107,四川大邑县新日专卖店(直营),四川省,,
四川省新津县黄鹤大道77号,成都市,新津县,103.799918,30.414682,四川新津县新日专卖店(直营),四川省,,
四川邛崃市临邛镇长安大道313号,成都市,邛崃市,103.480257,30.410326,临邛玉祥机车部件经营部(直营),四川省,,
四川省峨眉山市胜利镇名山路东段2号附14号,乐山市,峨眉山市,103.510624,29.593709,峨眉山市盛大摩托车有限公司(直营),四川省,,
四川省眉山市东坡区一环西路,眉山市,东坡区,103.821434,30.044845,眉山市奔腾摩托销售有限公司(直营),四川省,,
四川省筠连县筠连镇筠州南路160号,宜宾市,筠连县,104.505591,28.157545,四川省筠连县双贵摩托车行(直营),四川省,,
四川省宜宾市江安县竹海路东段,宜宾市,叙州区,104.643215,28.751768,四川省江安县安尔达电动车修理销售店(直营),四川省,,
四川省宜宾市高县庆符路硕勋路9号,宜宾市,高县,104.516256,28.432862,高县新日电动车专卖店(直营),四川省,,
四川省兴文县古宋镇（县城）建国大道地税局门市38号,宜宾市,兴文县,105.24916,28.308271,四川兴文县富强电动车(直营),四川省,,
四川省自贡市汇东路西段雄飞家电底楼1号,自贡市,大安区,104.751213,29.333242,四川省自贡市汇东新区雨雷车行(直营),四川省,,
四川省自贡市荣县旭阳镇南街114号,自贡市,荣县,104.42321,29.454691,四川省自贡市荣县（穆祥荣）(直营),四川省,,
四川省富顺县釜江大道西段检察院综合楼底楼,自贡市,富顺县,105.005218,29.182768,四川富顺县新日专卖店,四川省,,
四川省夹江县焉城镇迎春南路319号,乐山市,夹江县,103.583238,29.735866,四川省夹江县新日专卖店(直营),四川省,,
四川乐山市中区苏稽大道674号,成都市,武侯区,104.075931,30.651651,乐山市市中区伟志车行(直营),四川省,,
四川省乐山市五通桥区中心路兄弟车行,乐山市,五通桥区,103.814195,29.409124,乐山市五通桥区兄弟车行(直营),四川省,,
四川省雅安市雨城区康藏路504号,雅安市,雨城区,102.994776,29.996922,四川省雅安市（曾修林）(直营),四川省,,
四川雅安芦山县先锋路10号,雅安市,芦山县,102.9271,30.143796,芦山县新日专卖店(直营),四川省,,
四川省内江市威远县三河路331—335号,内江市,威远县,104.661516,29.514825,四川省威远县江大电动摩托车行(直营),四川省,,
四川省隆昌县金鹅镇新华街506号门面,内江市,隆昌市,105.293672,29.340784,四川省隆昌县新日专卖店(直营),四川省,,
棬子路159号,内江市,市中区,105.067996,29.574728,内江市中区远大车行,四川省,,
九里堤街道,成都市,金牛区,104.03947323560716,30.708449148202117,金牛区洪诚电动自行车行,四川省,,
草堂北路2号附2-3号,成都市,青羊区,104.029111,30.662942,草堂新日电动车,四川省,,
城北街道,绵阳市,涪城区,104.74626749753953,31.466606695677946,绵阳成绵路新日店,四川省,,
东坝街道,广元市,利州区,105.84446847438812,32.432124503761905,广元新日电动车旗舰店,四川省,,
安阜街道,宜宾市,翠屏区,104.61081862449647,28.78117861372873,宜宾江北新日,四川省,,
西城街道,巴中市,巴州区,106.7556095123291,31.849102818798183,巴中新日电动车,四川省,,
南城街道,宜宾市,翠屏区,104.62665706872943,28.761217885837933,宜宾弈星商贸有限公司,四川省,,
富世镇印花庄社区釜江大道中段398号,自贡市,富顺县,104.969865,29.18064,富顺宏达摩托车经营部,四川省,,
福集镇,泸州市,泸县,105.37369117140773,29.14857844171819,泸县福集镇好弟兄电动车销售部,四川省,,
苏祠街道,眉山市,东坡区,103.84205460548401,30.04384839747448,眉山新日电动车,四川省,,
通惠街道,眉山市,东坡区,103.82380887866022,30.048505887223264,青神新日电动车,四川省,,
学苑街道,自贡市,大安区,104.76234734058382,29.336666886401574,自贡市继翔商贸有限公司,四川省,,
临邛镇,成都市,邛崃市,103.46786230802537,30.410675384209505,邛崃新日电动车,四川省,,
三宝镇,眉山市,洪雅县,103.4223371744156,29.831626823727476,洪雅新日电动车,四川省,,
丹棱镇,眉山市,丹棱县,103.50593090057373,30.016113691071382,丹棱新日电动车,四川省,,
南溪街道,宜宾市,南溪区,104.97391864657402,28.839409650896613,宜宾市南溪区唐泽均车行,四川省,,
江安镇,宜宾市,江安县,105.0757044553757,28.725026103236576,江安,四川省,,
长宁镇,宜宾市,长宁县,104.91735354065897,28.578627464437513,长宁县建国电动车行,四川省,,
巡场镇,宜宾市,珙县,104.71159324049948,28.444845824473305,孙希兵,四川省,,
九支镇,泸州市,合江县,105.68907871842386,28.583795112788394,赤水市新日电动车,四川省,,
红星镇,雅安市,名山区,103.28563168644908,30.151365165083444,雅安市名片区星达车行,四川省,,
严道镇,雅安市,荥经县,102.83621147274971,29.79508019973979,荥经县宏运摩托车销售点,四川省,,
城厢镇,雅安市,天全县,102.74877816438676,30.068238582993132,天全县华龙车行,四川省,,
柏杨街道,乐山市,市中区,103.74087631702426,29.59163246338881,乐山市中心城区嘉乐摩托车行,四川省,,
绥山镇,乐山市,峨眉山市,103.48775491118433,29.59168027676971,峨眉山市志春摩托车销售经营部,四川省,,
大兴街与42县道交叉口东北150米,重庆市,合川区,106.139039,30.318351,武胜兴隆镇分销,重庆市,,
重龙镇,内江市,资中县,104.84872654080391,29.777818076240482,资中县飞跃摩托车行,四川省,,
小市街道,泸州市,龙马潭区,105.43893858790398,28.896884859655604,李吉,四川省,,
安富街道,泸州市,纳溪区,105.36904558539392,28.767627364936345,张诗权,四川省,,
严陵镇,内江市,威远县,104.66383248567583,29.518429292240334,威远县恒瑞祥商贸有限公司,四川省,,
攀莲镇,攀枝花市,米易县,102.10222363471985,26.890279751592274,米易县何氏商贸有限公司,四川省,,
城关镇,凉山彝族自治州,会理县,102.24869906902313,26.66311687687941,会理县新能源电动车行,四川省,,
岳阳镇,资阳市,安岳县,105.34985035657883,30.109861662649287,安岳新日电动车,四川省,,
西城街道,凉山彝族自治州,西昌市,102.24915638566019,27.888006677315083,西昌市凌动电瓶车销售有限公司,四川省,,
四川省自贡市荣县旭阳镇二佛路136号,自贡市,荣县,104.419776,29.451992,荣县旭阳镇罗兵摩托车经营部,四川省,,
简城街道办事处正中街39号,成都市,简阳市,104.549139,30.39306,简阳新日电动车,四川省,,
三贤祠街道,资阳市,雁江区,104.63583558797838,30.122232649637205,资阳新日电动车旗舰店,四川省,,
吉祥街与飞龙北路交叉口东50米,广安市,武胜县,106.39539,30.416621,飞龙新日,四川省,,
凯江镇,德阳市,中江县,104.67883005738261,31.03018854926599,中江新日电动车专卖店,四川省,,
白马镇,眉山市,东坡区,103.72989267110826,30.054516650714753,白马新日电动车,四川省,,
三苏乡,眉山市,东坡区,103.61932128667831,30.049065421355884,三苏新日电动车,四川省,,
万胜镇,眉山市,东坡区,103.62280413508417,30.083933713515044,万胜新日电动车,四川省,,
多悦镇,眉山市,东坡区,103.72791051864624,30.160305700213673,多悦新日电动车,四川省,,
思蒙镇,眉山市,东坡区,103.74424517154696,29.928420952537852,思蒙新日电动车,四川省,,
旭阳镇,自贡市,荣县,104.4225811958313,29.445868007877735,荣县旭杨镇罗兵摩托车经营部,四川省,,
严道镇,雅安市,荥经县,102.83469200134277,29.794472683131968,荥经县宏运摩托车销售点,四川省,,
城厢镇,雅安市,天全县,102.75752753019333,30.065548203468307,天全县华龙车行,四川省,,
蒙顶山镇,雅安市,名山区,103.0968202650547,30.063734071075416,名山区新日,四川省,,
潮河镇,泸州市,泸县,105.271467,29.075556,泸县瓦子镇,四川省,,
天兴镇,泸州市,泸县,105.29128566384318,29.10398568488486,泸县天兴镇,四川省,,
方洞镇雨锋村,泸州市,泸县,105.43601,29.29985,雨坛镇,四川省,,
云龙镇,泸州市,泸县,105.4869206249714,29.057459244993385,泸县云龙镇,四川省,,
云锦镇,泸州市,泸县,105.65024033188821,29.080336559726536,泸县云锦镇,四川省,,
柳城街道,成都市,温江区,103.82942944765091,30.699226607298932,新日温江,四川省,,
顺庆区,南充市,顺庆区,106.086208,30.789607,南充新日电动车,四川省,,
射洪县,遂宁市,射洪县,105.381902,30.870629,射洪雅迪电动车,四川省,,
大竹县,达州市,大竹县,107.213055,30.736949,大竹新日,四川省,,
泰宁路,达州市,达川区,107.504785,31.171633,达州新日电动车,四川省,,
万兴中路与人民路南段交叉口东北50米,广安市,邻水县,106.92585,30.325831,邻水新日电动车,四川省,,
广宁北路172号(区地税局旁),广安市,广安区,106.633926,30.460979,广安新日电动车,四川省,,
九龙大街325号(千僖家园西北),广安市,岳池县,106.445938,30.531612,岳池新日电动车,四川省,,
武胜县,广安市,武胜县,106.296505,30.34499,武胜新日电动车,四川省,,
前进大道30号,广安市,岳池县,106.500478,30.468113,石垭新日,四川省,,
顾兴大街与顾兴街交叉口北100米,广安市,岳池县,106.46619,30.65938,顾县新日电动车,四川省,,
大兴街与42县道交叉口西50米,重庆市,合川区,106.137902,30.317632,兴隆新日电动车,重庆市,,
武胜县,广安市,武胜县,106.158081,30.401781,钟鸣新日,四川省,,
沿口镇五十米大街,广安市,武胜县,106.294435,30.342035,武胜沿口新日,四川省,,
安汉路九龙泉超市附近,南充市,高坪区,106.11915,30.778404,南充顾镇,四川省,,
营山县,南充市,营山县,106.798291,31.116177,营山石萍镇新日,四川省,,
黄舣镇,泸州市,江阳区,105.57147592306137,28.888375629527705,黄舣,四川省,,
大西街与烟市街交叉口东南150米,德阳市,绵竹市,104.32219,31.41633,河清新日电动车,四川省,,
滨河西路228,巴中市,南江县,106.82969,32.34518,阳和镇,四川省,,
恩野路与魁字湾二街交叉口西150米,巴中市,恩阳区,106.626462,31.792135,庆华镇新日电动车,四川省,,
将军乡高岩村7组,眉山市,洪雅县,103.38945,29.884281,将军乡新日电动车,四川省,,
三宝镇,眉山市,洪雅县,103.41943502426147,29.83003644862373,三宝新日电动车,四川省,,
宝兴路16,广元市,利州区,105.64143,32.374701,宝轮新日电动车,四川省,,
育才路与212国道交叉口南100米,广元市,利州区,105.927978,32.394685,大石新日电动车,四川省,,
元坝镇葭萌路543号,广元市,昭化区,105.963945,32.323256,元坝新日电动车,四川省,,
下西街道,广元市,利州区,105.79277023673059,32.42177468391206,河西新日电动车,四川省,,
嘉陵街道,广元市,利州区,105.82324951887132,32.44339894261998,北门新日电动车,四川省,,
红岩镇,广元市,昭化区,105.73851853609085,32.20802623542708,红岩新日电动车,四川省,,
东河镇,广元市,旺苍县,106.28990560770033,32.22891768047886,旺苍新日电动车,四川省,,
陵江镇,广元市,苍溪县,105.93480125069621,31.732433191143716,苍溪新日电动车,四川省,,
红星路110号,广元市,苍溪县,106.151709,31.880351,歧坪新日电动车,四川省,,
白龙镇,广元市,剑阁县,105.57207137346268,31.80695004051526,白龙新日电动车,四川省,,
三贤祠街道,资阳市,雁江区,104.6242618560791,30.111702791942413,姜安新日电动车,四川省,,
狮子山街道,资阳市,雁江区,104.62786942720413,30.150534848577912,西溪新日电动车,四川省,,
绥山镇,乐山市,峨眉山市,103.49270895123482,29.593898326264135,富顺县赵化镇,四川省,,
板桥镇,自贡市,富顺县,104.783675,29.127367,富顺县板桥镇,四川省,,
柏溪镇,宜宾市,叙州区,104.54723283648494,28.713256575852803,宜宾县,四川省,,
沙河镇,宜宾市,高县,104.74774807691576,28.550809897656965,沙河,四川省,,
沙河镇,宜宾市,高县,104.75109547376633,28.55515551508239,沙河,四川省,,
蕨溪镇,宜宾市,叙州区,104.26186457276346,28.922918982002255,蕨溪,四川省,,
庆符镇,宜宾市,高县,104.51601862907411,28.436126452589622,高县,四川省,,
嘉明镇,泸州市,泸县,105.40327727794647,29.243501973531647,泸县喻寺镇,四川省,,
福集镇,泸州市,泸县,105.3280855715275,29.19621099603873,泸县太和镇,四川省,,
福集镇,泸州市,泸县,105.4089233279228,29.1996961791668,泸县石马镇,四川省,,
方洞镇,泸州市,泸县,105.44930800795555,29.259609439746804,方洞镇,四川省,,
云锦镇,泸州市,泸县,105.64401626586915,29.08036820489986,云锦镇,四川省,,
立石镇,泸州市,泸县,105.68650245666505,29.14927065785982,立石镇,四川省,,
毗卢镇,泸州市,泸县,105.66830366849901,29.20197547402239,仙佛镇,四川省,,
245乡道西100米,泸州市,泸县,105.31252,29.037524,玉峰镇,四川省,,
胡家镇,内江市,隆昌市,105.22882908582689,29.236003168478675,胡家镇,四川省,,
云顶镇,内江市,隆昌市,105.28335839509964,29.235222596496747,云顶镇,四川省,,
云顶镇,内江市,隆昌市,105.28036370873451,29.267227015644792,石鹅镇,四川省,,
金鹅镇,内江市,隆昌市,105.29756605625153,29.334193007396554,隆昌,四川省,,
奇峰镇,泸州市,泸县,105.5590867996216,29.147757380653765,富和,四川省,,
中石镇,自贡市,富顺县,105.20431637763978,29.17897767643549,中石镇,四川省,,
福集镇,泸州市,泸县,105.31293511390687,29.181063063248978,顺江镇,四川省,,
普安镇,广元市,剑阁县,105.47203436493875,32.03194311838857,普安新日电动车,四川省,,
三堆镇,广元市,利州区,105.62697619199754,32.494450717837566,三堆镇新日电动车,四川省,,
羊木镇,广元市,朝天区,105.78137084841728,32.59709444534515,羊木镇新日电动车,四川省,,
关庄镇,广元市,青川县,105.15222117304802,32.38997407790559,关庄镇新日电动车,四川省,,
清江路与联谊街交叉口北150米,广元市,青川县,105.332932,32.220779,竹园镇新日电动车,四川省,,
白水镇,广元市,旺苍县,106.06359153985979,32.24700164354765,白水镇新日电动车,四川省,,
宏仁大道东段附近,绵阳市,梓潼县,105.172089,31.640116,梓潼县新日电动车,四川省,,
黑龙镇青竹乡,眉山市,青神县,103.831634,29.865379,黑龙镇新日电动车,四川省,,
永寿镇复兴乡五皇村,眉山市,东坡区,103.88631,29.932339,五皇新日电动车,四川省,,
喻寺镇,泸州市,泸县,105.40162503719333,29.24439715933454,喻寺镇,四川省,,
云龙镇,泸州市,泸县,105.49050807952882,29.05781562473474,云龙镇,四川省,,
太伏镇,泸州市,泸县,105.6366039812565,28.977429047842467,太付镇,四川省,,
福集镇,泸州市,泸县,105.32878562808038,29.195986216976877,太和镇,四川省,,
古佛镇,自贡市,富顺县,105.24581551551819,29.183325209213027,石马镇,四川省,,
玄滩镇,泸州市,泸县,105.57961106300355,29.20915135130452,玄滩镇,四川省,,
天兴镇,泸州市,泸县,105.29144257307054,29.104099346947915,天兴镇,四川省,,
潮河镇,泸州市,泸县,105.271467,29.075556,瓦子镇,四川省,,
龙万乡,泸州市,泸县,105.31568169593812,29.153149792971597,一心镇,四川省,,
抚琴街道,成都市,金牛区,104.04963344335559,30.687694308352373,新日五块石店（倍特）,四川省,,
四川省开江县新宁镇新安路2号门市,达州市,开江县,107.859648,31.08744,王娅辉,四川省,,
四川省泸州市叙永县叙永镇和平大道143号,泸州市,叙永县,105.446164,28.162002,叙永珠峰新日,四川省,,
古蔺镇,泸州市,古蔺县,105.82561120390893,28.038910521755724,古蔺都市风新日,四川省,,
四川省雅安市雨城区康藏路526、528号,雅安市,雨城区,102.994125,29.99714,雅安新迪商贸有限公司,四川省,,
河坝子镇,眉山市,青神县,103.96285057067873,29.897010371660137,河坝子新日电动车（新开）,四川省,,
青平路青溪中学附近,广元市,青川县,104.836726,32.458059,青溪新日电动车（新开）,四川省,,
羊安镇,成都市,邛崃市,103.73916640877724,30.345083716217385,羊安镇新日电动车（新开）,四川省,,
团结镇,自贡市,大安区,104.80754926800728,29.40728037743927,团结新日,四川省,,
蒙阳镇,雅安市,名山区,103.11007708311081,30.073233813299368,名山区新日,四川省,,
四合乡,凉山彝族自治州,西昌市,102.2627256810665,27.91652133802629,四合新日,四川省,,
河北街道,雅安市,雨城区,102.9929906129837,29.99791071484681,雅安新迪商贸有限公司,四川省,,
月华大道212号附近,达州市,大竹县,107.289486,30.802188,月华,四川省,,
庙坝街1053号,达州市,大竹县,107.098761,30.596463,庙坝,四川省,,
竹石路与507乡道交叉口西南100米,达州市,大竹县,107.187617,30.599507,大竹高穴,四川省,,
代市镇翠屏村七组,广安市,前锋区,106.827215,30.508377,前锋,四川省,,
兴业街与弘前大道交叉口东100米,广安市,前锋区,106.891118,30.497867,广前路店,四川省,,
崇义镇,成都市,温江区,103.71597737073898,30.867190138376518,都江堰新日电动车,四川省,,
古宋镇,宜宾市,兴文县,105.23825436830522,28.302290710983183,兴文新日,四川省,,
长宁镇,宜宾市,翠屏区,104.85694885253908,28.598487605817144,长宁镇新日,四川省,,
罗龙街道,宜宾市,南溪区,104.9188542366028,28.840999108204347,罗龙新日,四川省,,
四川省泸州市古蔺县古蔺镇东新街278号,泸州市,古蔺县,105.823486,28.037841,古蔺县大兴达车行,四川省,,
四川省成都市青白江区,成都市,青白江区,104.250877,30.878681,成都市青白江区浩洁电动车行,四川省,,
四川省南充市营山县金穗街139号,南充市,营山县,106.563415,31.073704,营山县168电动车服务中心,四川省,,
四川省泸州市龙马潭区向阳路20号楼1层9号,泸州市,龙马潭区,105.440525,28.897205,钟德群,四川省,,
广元市利州区东坝文化路98号,广元市,利州区,105.84316,32.432085,广元市福君商贸有限公司,四川省,,
崇阳街道,成都市,崇州市,103.66923183202746,30.623955839427747,崇州新日电动车,四川省,,
四川省崇州市崇阳街道蜀州中路371号,成都市,崇州市,103.669298,30.623721,崇州市崇阳鹏飞电动车门市,四川省,,
四川省射洪县新阳街545号,遂宁市,射洪县,105.378028,30.871229,射洪县欣达车业,四川省,,
四川省成都市温江区凤溪大道北段713号,成都市,温江区,103.827618,30.702378,成都金毅远大贸易有限责任公司,四川省,,
文艺街与隆庆街交叉口东南100米,广元市,剑阁县,105.52717,32.287501,剑阁新日电动车,四川省,,
四川省成都市大邑县富民路北段,成都市,大邑县,103.530677,30.589203,大邑岳斌车行,四川省,,
晋原镇,成都市,大邑县,103.53067561984062,30.589202026770124,大邑岳斌车行,四川省,,
红牌楼街道,成都市,武侯区,104.02987763285637,30.634700690714,红牌楼新日店,四川省,,
城厢镇,凉山彝族自治州,冕宁县,102.17500537633896,28.552528611377163,冕宁新日,四川省,,
德州镇,凉山彝族自治州,德昌县,102.1808324754238,27.40348151659102,德昌新日,四川省,,
盐井镇,凉山彝族自治州,盐源县,101.50882244110109,27.42023459073378,盐源新日,四川省,,
九襄镇,雅安市,汉源县,102.62057125568393,29.498913578122323,九襄新日,四川省,,
车子镇,乐山市,市中区,103.73864740133287,29.53378851556846,车子新日,四川省,,
九峰镇,乐山市,市中区,103.7780450284481,29.5260951921547,九峰新日,四川省,,
安谷镇,乐山市,市中区,103.69522377848627,29.511362706309225,安谷新日,四川省,,
通江街道,乐山市,市中区,103.74139934778215,29.611721416923622,通江新日,四川省,,
水口镇,乐山市,市中区,103.67526680231096,29.553955476909746,水口新日,四川省,,
冠英镇,乐山市,五通桥区,103.76354232430461,29.444691964683276,冠英新日,四川省,,
四川省广安市岳池县裕民镇裕民镇人民政府,广安市,岳池县,106.46053,30.323329,岳池裕民新日电动车,四川省,,
四川省达州市通川区魏兴镇医药大道,达州市,通川区,107.517099,31.348816,达州魏家豪爵新日,四川省,,
营门口路251号人和逸景西,成都市,金牛区,104.041063,30.687147,营门口新日旗舰店,四川省,,
一环路西三段3号,成都市,青羊区,104.03885,30.668255,一环路西三段新日电动车,四川省,,
木鱼镇,广元市,青川县,105.40185034275056,32.6394132704747,木鱼新日电动车,四川省,,
四川省广安市武胜县街子镇街子镇人民政府,广安市,武胜县,106.313501,30.261294,街子新日电动车,四川省,,
四川省广安市武胜县真静乡真静乡人民政府,广安市,武胜县,106.243963,30.212868,真静,四川省,,
四川省宜宾市翠屏区南岸街道大坪街4附22号鑫鑫大酒店,宜宾市,叙州区,104.635787,28.759619,宜宾南岸,四川省,,
华金大道二段558号,成都市,青白江区,104.251783,30.883766,青白江新日电动车专卖店,四川省,,
西坝镇,乐山市,五通桥区,103.7899674475193,29.374362727553436,西坝新日,四川省,,
关庙乡,乐山市,市中区,103.79781156778336,29.6706475145825,关庙新日,四川省,,
洪川镇,眉山市,洪雅县,103.38131815195085,29.906214520061646,洪雅新日电动车,四川省,,
宝轮镇,广元市,利州区,105.64179673790932,32.37439238095567,宝轮新日电动车,四川省,,
大石镇,广元市,利州区,105.93038231134416,32.39276554303027,大石新日电动车,四川省,,
下西街道,广元市,利州区,105.80151423811915,32.412106383657694,河西新日电动车,四川省,,
红光乡,广元市,青川县,105.09586662054063,32.400122593679114,红岩新日电动车,四川省,,
普济镇,广元市,旺苍县,106.46785005927084,32.2387586977218,普济新日电动车,四川省,,
东河镇,广元市,旺苍县,106.28998339176178,32.22905495156441,旺苍新日电动车,四川省,,
歧坪镇,广元市,苍溪县,106.14986747503279,31.887362510316528,歧坪新日电动车,四川省,,
牛市口街道,成都市,锦江区,104.1055762767792,30.644314768897733,经华南路新日店,四川省,,
下寺镇,广元市,剑阁县,105.52476659417154,32.28772331202686,剑阁新日电动车,四川省,,
青溪镇,广元市,青川县,104.83677864074708,32.46078038818499,青溪新日电动车,四川省,,
宗场镇,宜宾市,翠屏区,104.5769061148167,28.84749530728352,宗场新日,四川省,,
三堆镇,广元市,利州区,105.5831703543663,32.55260560176261,白龙新日电动车专卖店,四川省,,
三江镇,广元市,旺苍县,106.54807358980179,32.23850800607509,三江镇新日电动车专卖店,四川省,,
四川省泸州市龙马潭区莲花池街道龙马大道三段36号,泸州市,龙马潭区,105.437506,28.910716,泸州江北镇新日,四川省,,
四川省泸州市龙马潭区莲花池街道龙马大道三段,泸州市,龙马潭区,105.437466,28.910729,黄舣新日,四川省,,
四川省泸州市泸县兆雅镇307省道,泸州市,龙马潭区,105.5554,28.980385,泸州杨四店新日,四川省,,
四川省泸州市合江县车辋镇车辋镇,泸州市,合江县,105.754779,28.653771,车辋新日,四川省,,
四川省泸州市江阳区石寨镇石寨镇人民政府,泸州市,江阳区,105.194972,28.924578,石寨新日,四川省,,
南河街道,广元市,利州区,105.82578957080841,32.428280391265424,南河新日电动车,四川省,,
东河镇,广元市,旺苍县,106.30833640694618,32.2276720209855,旺苍新日电动车专卖店,四川省,,
四川省宜宾市翠屏区南城街道光复街2号滨江公寓小区,宜宾市,翠屏区,104.629378,28.764469,宜宾新日精品形象店,四川省,,
四川省宜宾市筠连县筠连镇筠连县公安局晨晖雅居,宜宾市,筠连县,104.501317,28.153647,宜宾新日筠连店,四川省,,
四川省乐山市市中区苏稽镇新市街45号新桥小学,乐山市,市中区,103.666041,29.590968,苏稽新日,四川省,,
新繁镇,成都市,新都区,104.01132211089137,30.874369585230127,新繁新日电动车专卖店,四川省,,
新繁镇,成都市,新都区,104.01097476482391,30.874230306544288,新繁新日店,四川省,,
四川省遂宁市射洪县子昂街道射洪客运总站,遂宁市,射洪县,105.37276,30.851103,射洪,四川省,,
四川省南充市嘉陵区火花街道耀目路一段31-33号紫景雅园,南充市,嘉陵区,106.059165,30.761858,南充市嘉陵区,四川省,,
蒙阳镇,成都市,彭州市,104.10830274224283,30.95821999645557,蒙阳新日电动车,四川省,,
隆丰镇,成都市,彭州市,103.86934876441956,31.046798596232456,隆丰新日电动车,四川省,,
四川省泸州市泸县嘉明镇正大街11号,泸州市,泸县,105.333479,29.254767,嘉明镇新日,四川省,,
四川省泸州市泸县福集镇中国邮政储蓄银行(大田营业所),泸州市,泸县,105.363146,29.201187,大田新日,四川省,,
四川省泸州市泸县玄滩镇玄参路,泸州市,泸县,105.580199,29.204049,玄滩新日,四川省,,
四川省南充市高坪区长乐镇长乐镇卫生院,南充市,高坪区,106.36284,30.79352,南充长乐镇,四川省,,
白水镇,广元市,旺苍县,106.01936727762224,32.26045621698381,白水新日电动车,四川省,,
四川省南充市阆中市七里街道海棠社区居委会丽枫酒店(阆中国际商贸城店),南充市,阆中市,105.990964,31.552042,阆中七里专卖,四川省,,
四川省宜宾市长宁县花滩镇花滩镇人民政府,宜宾市,长宁县,104.771877,28.493092,花滩新日,四川省,,
四川省宜宾市筠连县巡司镇Q31县道,宜宾市,筠连县,104.579285,28.092718,巡司新日,四川省,,
大划镇,成都市,崇州市,103.7361314892769,30.580633144618044,崇州大化镇,四川省,,
江源镇,成都市,崇州市,103.77614066004755,30.589124677004754,崇州江源镇,四川省,,
文林镇,眉山市,仁寿县,104.15336519479753,29.990341223837852,陵州路新日电动车店,四川省,,
四川省凉山彝族自治州西昌市西城街道长安中路272号安宁小区,凉山彝族自治州,西昌市,102.249401,27.888062,西昌一店,四川省,,
四川省凉山彝族自治州西昌市西城街道长安中路242号安宁小区,凉山彝族自治州,西昌市,102.249316,27.888056,西昌二店,四川省,,
天马镇,成都市,都江堰市,103.7612557411194,30.971908111704575,天马镇新日电动车,四川省,,
羊马镇,成都市,崇州市,103.74625146389008,30.655721881326464,羊马新日电动车,四川省,,
崇阳街道,成都市,崇州市,103.70046347379683,30.60682461896181,金鸡乡新日电动车,四川省,,
锦江乡,成都市,崇州市,103.66240963339806,30.670179878090078,锦江新日电动车,四川省,,
王场镇,成都市,崇州市,103.58644276857376,30.602571063874564,王场新日电动车,四川省,,
三江镇,成都市,崇州市,103.80600705742837,30.563826839099086,听江新日电动车,四川省,,
龙泉街道,成都市,龙泉驿区,104.26796659827232,30.560114163921273,龙泉玫瑰之约,四川省,,
隆丰镇,成都市,彭州市,103.86934876441956,31.046798596232456,新日彭州,四川省,,
公平街道,成都市,温江区,103.84987458586694,30.699443401323265,新日温江（唐总）,四川省,,
驷马桥街道,成都市,金牛区,104.08737882971764,30.688829147686956,新日解放路,四川省,,
宝林镇,成都市,邛崃市,103.50441142916681,30.38120785032387,新日邛崃宝林,四川省,,
三道堰镇,成都市,郫都区,103.91834467649461,30.871038351929986,新日三道堰,四川省,,
花桥镇,成都市,新津县,103.8517065346241,30.436152991524757,新日花桥,四川省,,
晋原街道,成都市,大邑县,103.52968454360962,30.586109142518545,新日大邑,四川省,,
龙桥镇,成都市,新都区,104.02613461017609,30.819364096105723,新日新都龙桥,四川省,,
德源镇,成都市,郫都区,103.85695964097978,30.795955932999398,新日郫县德源,四川省,,
花园镇,成都市,郫都区,103.74900609254838,30.85809908442335,新日郫县花园,四川省,,
永宁镇,成都市,温江区,103.90571281313899,30.728227705959334,新日温江永宁,四川省,,
永宁镇,成都市,温江区,103.9033578336239,30.730165567304905,新日温江文家场,四川省,,
柳城街道,成都市,温江区,103.82723942399026,30.697837038290466,新日温江西门,四川省,,
万春镇,成都市,温江区,103.81618201732635,30.75902482853652,新日温江西门河边,四川省,,
和盛镇,成都市,温江区,103.77390235662462,30.752973145496696,新日温江和盛,四川省,,
天府街道,成都市,温江区,103.79509985446931,30.687036925806794,新日温江天府,四川省,,
柳城街道,成都市,温江区,103.83033603429796,30.683978308156735,新日温江大湾区,四川省,,
涌泉街道,成都市,温江区,103.87246951460841,30.67255146133606,新日温江涌泉,四川省,,
永盛镇,成都市,崇州市,103.7689456343651,30.669058661851857,新日温江永盛,四川省,,
犀浦镇,成都市,郫都区,103.97143363952635,30.75816855750539,新日郫县犀浦,四川省,,
固驿镇,成都市,邛崃市,103.58234971761703,30.38616059990886,新日邛崃固驿,四川省,,
三河街道,成都市,金牛区,104.1219699382782,30.772603139522634,新日天回镇,四川省,,
华阳镇街道,成都市,双流区,104.0684625506401,30.488937322453392,新日华阳利隆车型,四川省,,
蒲阳镇,成都市,都江堰市,103.68289902806282,31.041895745106956,新日都江堰蒲阳,四川省,,
石羊镇,成都市,都江堰市,103.64327341318132,30.8425823243808,新日都江堰石羊,四川省,,
临邛镇,成都市,邛崃市,103.42643961310387,30.403431364077964,新日邛崃桑园,四川省,,
东升街道,成都市,双流区,103.9262665808201,30.557754838039155,新日双流易师车行,四川省,,
新都镇,成都市,新都区,104.1569955646992,30.82775748535047,新日新都西龙,四川省,,
中和街道,成都市,双流区,104.08812314271928,30.556872530119414,新日双流中和,四川省,,
赵镇街道,成都市,金堂县,104.40062329173088,30.862518662287663,新日金堂,四川省,,
光华街道,成都市,青羊区,104.00845751166344,30.6669338521765,新日青羊大道,四川省,,
合作街道,成都市,郫都区,103.92408862709999,30.791641583250023,新日厂北路,四川省,,
洛带镇,成都市,龙泉驿区,104.32762295007706,30.636107322794842,新日西河洛带,四川省,,
高埂镇,成都市,邛崃市,103.62387835979463,30.402145127085895,新日邛崃高埂,四川省,,
安仁镇,成都市,大邑县,103.63203629851341,30.48687096943629,新日大邑唐场,四川省,,
师古镇,德阳市,什邡市,104.06213387846948,31.16177357828757,新日什邡师古镇,四川省,,
四川省内江市东兴区双才镇双才中学内江市东兴区双才镇中心校,内江市,东兴区,105.085159,29.675057,双才新日,四川省,,
四川省内江市东兴区三烈镇三烈派出所,内江市,东兴区,105.062162,29.701746,三烈新日,四川省,,
四川省内江市市中区朝阳镇朝阳镇人民政府,内江市,市中区,104.900049,29.542897,朝阳新日,四川省,,
四川省泸州市江阳区分水岭镇江阳区分水岭镇肖嘴村村民委员会,泸州市,江阳区,105.562643,28.819698,分水新日,四川省,,
四川省泸州市纳溪区大渡口镇大渡口镇中心小学,泸州市,纳溪区,105.231472,28.741028,大渡新日,四川省,,
四川省泸州市合江县望龙镇新建路64号,泸州市,合江县,105.846685,28.898127,望龙新日,四川省,,
四川省泸州市纳溪区白节镇白节镇,泸州市,纳溪区,105.486655,28.659163,白节新日,四川省,,
四川省泸州市江阳区通滩镇通滩镇人民政府,泸州市,江阳区,105.294136,28.911668,通滩,四川省,,
四川省泸州市江阳区蓝田街道蓝滨城蓝滨城·江尚,泸州市,江阳区,105.441356,28.861323,蓝田新日,四川省,,
四川省泸州市合江县五通镇五通镇中学,泸州市,合江县,105.61256,28.558535,五通新日,四川省,,
四川省泸州市叙永县分水镇大山坪,泸州市,叙永县,105.31658,27.864065,大山坪新日,四川省,,
四川省泸州市合江县榕山镇天华路101号,泸州市,合江县,105.921297,28.858604,榕山新日,四川省,,
四川省泸州市纳溪区护国镇大洲驿客运站,泸州市,纳溪区,105.354182,28.58206,护国新日,四川省,,
四川省泸州市纳溪区棉花坡镇纳叙路,泸州市,纳溪区,105.406509,28.759249,安富桥新日,四川省,,
四川省泸州市纳溪区龙车镇龙车镇人民政府,泸州市,纳溪区,105.535052,28.784255,龙车新日,四川省,,
四川省泸州市合江县尧坝镇尧坝古镇,泸州市,合江县,105.64777,28.742619,尧坝新日,四川省,,
四川省内江市东兴区永福镇133县道,内江市,东兴区,105.340029,29.791071,永福新日,四川省,,
四川省内江市市中区永安镇永安镇人民政府,内江市,市中区,104.935659,29.506752,永安新日,四川省,,
四川省内江市东兴区富溪镇富溪镇车站,内江市,市中区,105.008126,29.666375,富溪新日,四川省,,
四川省内江市东兴区顺河镇顺河镇人民政府,内江市,东兴区,105.233618,29.581087,顺河新日,四川省,,
簇桥街道,成都市,武侯区,103.9907079935074,30.607619903378307,新日簇桥,四川省,,
鹤山街道,成都市,蒲江县,103.50193172693253,30.198605148173502,新日浦江,四川省,,
文昌镇,绵阳市,梓潼县,105.17084509134294,31.64271596411554,新日梓潼店,四川省,,
城南街道,绵阳市,涪城区,104.77583885192873,31.42834956462511,世纪车行,四川省,,
河边镇,绵阳市,涪城区,104.5516423881054,31.46085276338194,新日河边镇店,四川省,,
长虹大道南段13号,绵阳市,涪城区,104.742114,31.454211,宏顺车行,四川省,,
游仙镇,绵阳市,游仙区,104.76634785532951,31.488326604062813,赵记宏兴车行,四川省,,
安昌镇,绵阳市,北川羌族自治县,104.42097455263139,31.645017664537214,小何车行,四川省,,
花荄镇,绵阳市,安州区,104.5671871304512,31.53488216649055,安州新日店,四川省,,
永兴镇,绵阳市,涪城区,104.63825762271883,31.458507619974153,新日永新店,四川省,,
永明镇,绵阳市,三台县,104.87817719578744,31.363955220613576,新日永明店,四川省,,
八洞镇,绵阳市,三台县,104.81210365891458,31.07980210067936,新日八洞店,四川省,,
乐安镇,绵阳市,三台县,104.98969942331314,31.10138161460759,新日乐安店,四川省,,
石牛镇,绵阳市,梓潼县,105.07980018854141,31.56721809867611,新日王石牛店,四川省,,
城厢街道,绵阳市,涪城区,104.7607085108757,31.458111799733263,新日涪城区警钟街店,四川省,,
永安镇,绵阳市,北川羌族自治县,104.45462822914125,31.692864363230274,新日陈氏车行永安店,四川省,,
高新街道,绵阳市,涪城区,104.68957364559175,31.46908203609157,新日高新区双发市场店,四川省,,
普安镇,广元市,剑阁县,105.4702600836754,32.03327558448544,新日普安店,四川省,,
嘉川镇,广元市,旺苍县,106.23032703995707,32.21251739912904,新日嘉川店,四川省,,
嘉陵街道,广元市,利州区,105.83387777209282,32.43499050220212,新日平桥店,四川省,,
中子镇,广元市,朝天区,106.03673055768013,32.68997553857962,新日中子店,四川省,,
元坝镇,广元市,昭化区,105.96708565950397,32.323644349310904,新日元坝店,四川省,,
中坝街道,绵阳市,江油市,104.74564254283904,31.778501940271894,新日江油店,四川省,,
杨家镇,绵阳市,涪城区,104.72217455506328,31.337970690575133,新日杨家店,四川省,,
吴家镇,绵阳市,涪城区,104.69523176550865,31.39157995626369,新日吴家店,四川省,,
黎雅镇,绵阳市,梓潼县,105.00784456729889,31.72738235483833,新日黎雅店,四川省,,
中太镇,绵阳市,三台县,104.97095748782156,31.383796114726977,新日中太店,四川省,,
黄土镇,绵阳市,安州区,104.4802513718605,31.585294317935155,新日黄土店,四川省,,
龙门镇,绵阳市,涪城区,104.6955589950085,31.56906232836287,新日龙门店,四川省,,
四川省宜宾市南溪区南溪街道长江大道西段194-280号,宜宾市,南溪区,104.972039,28.838413,南溪二店,四川省,,
北坝街道,绵阳市,三台县,105.09847640991214,31.091171291026043,三台县新日专卖店,四川省,,
黄水镇,成都市,双流区,103.90753135085106,30.543489106657255,新日双流小八哥,四川省,,
四川省绵阳市北川羌族自治县擂鼓镇擂鼓村委会,绵阳市,北川羌族自治县,104.433387,31.778657,竹山擂鼓新日电动车,四川省,,
四川省凉山彝族自治州会东县鲹鱼河镇三鑫路南段157号,凉山彝族自治州,会东县,102.576599,26.631975,会东新日,四川省,,
