address,city,districd,lat,lon,name,province,street,town
安徽省黄山市徽州区岩寺镇永佳大道玉红花园118号,黄山市,徽州区,118.34213,29.815784,黄山市徽州区俊杰电动车销售有限公司,安徽省,,
安徽省安庆市怀宁县稼仙路96号,安庆市,怀宁县,116.82726,30.734184,怀宁县新日电动车专卖店,安徽省,,
安徽省郎溪县中港路天诚车业,宣城市,郎溪县,119.18392,31.129963,郎溪县顺风电动车贸易有限责任公司,安徽省,,
安徽省绩溪县华阳镇扬之南路7号,宣城市,绩溪县,118.590136,30.060895,绩溪县龙诚车业销售有限公司,安徽省,,
黄山市屯溪区延安路76号新日电动车专卖店,黄山市,屯溪区,118.309456,29.709293,黄山市大山车业有限公司,安徽省,,
安徽省歙县鸿基商贸城14幢122号,黄山市,歙县,118.433353,29.865106,歙县阳光车业有限公司,安徽省,,
黟县碧阳镇马道路林源商城8号,黄山市,黟县,117.944173,29.925885,程辉,安徽省,,
安徽省铜陵市淮河大道201号“新日电动车专卖店”,铜陵市,郊区,117.797453,30.896875,铜陵市中睿商贸有限责任公司,安徽省,,
庐江县越城北路18-3号,合肥市,庐江县,117.291367,31.260006,庐江县恒博商贸有限公司,安徽省,,
桐城市范岗东工业园,安庆市,桐城市,116.916365,30.964747,桐城市新润车业销售有限公司,安徽省,,
安徽省望江县东洲路华电大楼（望江县三叶车行),安庆市,望江县,116.691009,30.126943,望江县三合车辆销售有限责任公司,安徽省,,
安徽省安庆市孝肃路161号北京新日专卖店,安庆市,迎江区,117.044145,30.507216,安庆市金阳光车业销售有限责任公司,安徽省,,
安徽省岳西县建设西路210号,安庆市,岳西县,116.351297,30.847427,岳西县马卫东车行,安徽省,,
安徽省东至县尧城路81号,池州市,东至县,117.02103,30.09742,东至县风驰车行,安徽省,,
潜山县新建村256号,安庆市,潜山市,116.286823,30.679269,潜山县新日电动车总店(直营),安徽省,,
安徽省池州市青阳县庙前路青山阁7号,池州市,青阳县,117.851116,30.636842,青阳县蓉城镇龙胜车行,安徽省,,
安徽省太湖县晋熙镇老城城北路,安庆市,太湖县,116.276328,30.428851,太湖县齐齐车业,安徽省,,
安徽省池州市秀山通达广场104-105号,池州市,贵池区,117.481273,30.652294,贵池区恒博车行,安徽省,,
宿松县孚玉镇富康路109号,安庆市,宿松县,116.121724,30.162309,宿松县淮海车行,安徽省,,
安徽省宁国市宁阳西路,宣城市,宁国市,118.958245,30.592362,宁国市阳光摩托车销售有限公司,安徽省,,
安徽省黄山市黄山区平湖西路,黄山市,黄山区,118.126676,30.292464,李志强,安徽省,,
南陵县南翔中路120号,芜湖市,南陵县,118.346848,30.923209,芜湖东万新能源汽车销售有限公司,安徽省,,
广德县太极大道263号,宣城市,广德县,119.421954,30.896441,广德县金钢电动车经营部,安徽省,,
泾县交通路180号（泾县茶城）,宣城市,泾县,118.413403,30.683314,泾县航天车业经营部,安徽省,,
祁门县文峰南路106号,黄山市,祁门县,117.714731,29.848904,黄卉,安徽省,,
安徽省马鞍山市红旗中路67号“天行车业”,马鞍山市,雨山区,118.494369,31.69541,马鞍山市天行车业有限公司,安徽省,,
安徽省芜湖市中二街柳春园25号“天行车行”,芜湖市,弋江区,118.372627,31.32636,芜湖市天行车业有限公司,安徽省,,
安徽省马鞍山市当涂县提署西路98号阳光花园旁新日电动车,马鞍山市,当涂县,118.48493,31.494438,马季骏,安徽省,,
阜南县鹿城镇淮河东路,阜阳市,阜南县,115.589396,32.634557,阜南县徐氏车业销售有限公司,安徽省,,
颍上步行街中段,阜阳市,颍上县,116.250377,32.635483,颍上县文涛电动车行,安徽省,,
阜阳市颍州区颍河西路238号金地小区,阜阳市,颍州区,115.827782,32.898208,阜阳精英贸易有限公司,安徽省,,
涡阳县胜利路电动车一条街,亳州市,涡阳县,116.204444,33.507247,涡阳县东升车业,安徽省,,
安徽省亳州市涡阳县胜利路二中对面,亳州市,涡阳县,116.21557,33.504648,军辉制冷设备格力空调专卖店,安徽省,,
安徽芜湖县环城南路31号,芜湖市,芜湖县,118.578977,31.142659,芜湖县腾飞摩托车行,安徽省,,
安徽省无为县西大街107号时代广场西新日电动车专卖店,芜湖市,无为县,117.908102,31.298626,无为县晶鑫车业有限责任公司,安徽省,,
巢湖市巢湖中路,合肥市,巢湖市,117.871912,31.598097,巢湖市美琳娜电动车经营部,安徽省,,
繁昌县繁阳镇环城东路,芜湖市,繁昌县,118.203457,31.084009,繁昌县东晨电动车经营部,安徽省,,
界首市人民路96号（法姬娜大道交叉口）,阜阳市,颍上县,116.26375,32.628664,界首市东城彩虹时尚电动车生活馆,安徽省,,
安徽省利辛县人民路78号聚源车业物资局,亳州市,利辛县,116.20615,33.13799,利辛县聚源车业有限责任公司,安徽省,,
安徽省蒙城县蒙蚌路唤鸡楼东20米,亳州市,蒙城县,116.68585,33.177942,李连海,安徽省,,
临泉县城关镇解放北大街中段东侧,阜阳市,临泉县,115.26063,33.06788,临泉县金哲电动车经营部,安徽省,,
安徽省固镇县永凤车行,蚌埠市,固镇县,117.324041,33.316715,固镇县永凤车行,安徽省,,
安徽五河县国防路中段五河宏达车业有限责任公司负责人:小朱,蚌埠市,五河县,117.891636,33.147328,五河县雷丁助动自行车经营部,安徽省,,
安徽省淮北市濉溪县烈山路北段“新日专卖店”,淮北市,相山区,116.749221,33.970171,淮北利得鑫商贸有限公司,安徽省,,
安徽省宿州市泗县国防中路军粮供应站楼下,宿州市,泗县,117.885259,33.47688,泗县宏鑫车业销售有限公司,安徽省,,
安徽省砀山县道北中路民族学校对门北京新日电动车专卖,宿州市,砀山县,116.349663,34.418503,砀山县博文电动车销售有限公司,安徽省,,
怀远县城关镇禹王路中段39号,蚌埠市,怀远县,117.189445,32.960326,怀远县永平新日电动车经营部,安徽省,,
天长市天发广场10#房楼10-111-112-113-114,滁州市,天长市,119.00134,32.678444,天长市王伟车行,安徽省,,
安徽省含山县环峰镇,马鞍山市,含山县,118.10565,31.707349,含山县环峰镇君临电动车经营部,安徽省,,
安徽省明光市池河大道58号酒厂红楼门面,滁州市,明光市,118.007202,32.775675,明光市闳博商贸行,安徽省,,
安徽省 宿州市 埇桥区 浍水路（农科所楼下） 瑞美车业,宿州市,埇桥区,116.984625,33.623098,宿州市瑞美车业有限公司,安徽省,,
安徽省 灵璧县 经济开发区 凌山路8号,宿州市,灵璧县,117.564018,33.524179,灵璧县灵城朱增电动车销售部,安徽省,,
安徽省萧县龙城镇交通路中段南侧,宿州市,萧县,116.940222,34.16995,萧县驰原电动车商行,安徽省,,
安徽省定远县定城镇迎宾东路,滁州市,定远县,117.693538,32.528365,定远县定城镇顺路电动车经营部,安徽省,,
安徽省和县陋室西街168#,马鞍山市,和县,118.362485,31.71944,和县历阳镇双马车行,安徽省,,
安徽省肥西县巢湖路中段,合肥市,肥西县,117.165426,31.720349,肥西县新大陆车行,安徽省,,
安徽省六安市磨子潭路春苑新村2号楼21号-22号门面新日电动车专卖店,六安市,裕安区,116.487049,31.741666,六安市裕安区涌康车业经营部,安徽省,,
安徽省霍邱县城关镇东湖路250号,六安市,霍邱县,116.277738,32.332687,霍邱县城关镇天地车业二店,安徽省,,
舒城飞霞路步行街,六安市,舒城县,116.948248,31.461227,宋丰蕾,安徽省,,
安徽寿县南门外十字路口,淮南市,寿县,116.787141,32.573306,寿县安新电器经营部,安徽省,,
安徽省合肥市新站区国际汽配城广场A幢115新日电动车,合肥市,瑶海区,117.327539,32.018097,合肥广昌贸易有限公司,安徽省,,
霍山县衡山镇六福东路96-6,六安市,霍山县,116.315499,31.402256,霍山县远大车行,安徽省,,
六安市叶集区民强中路,六安市,叶集区,115.908504,31.849165,六安市叶集区俊悦车业经营部,安徽省,,
安徽省淮南市田区安成经济开发区6号/蓝天化工厂内,淮南市,田家庵区,116.975841,32.644233,淮南市大家庭电器有限公司,安徽省,,
凤台县城关镇西城河商业街AC-125号,淮南市,凤台县,116.722614,32.709243,凤台县城关镇超越电动车经销部,安徽省,,
肥东县龙泉西路16号,合肥市,肥东县,117.46153,31.88134,肥东县大庆车行,安徽省,,
凤台县民政局北侧,淮南市,凤台县,116.720618,32.707417,凤台瑞鑫(直营),安徽省,,
安徽省合肥市美菱大道412号屯溪路段18号103室,合肥市,包河区,117.293714,31.847791,安徽中伟车业有限公司,安徽省,,
安徽省淮南市凤台县城关镇农水路南侧,淮南市,凤台县,116.72791,32.704394,凤台县城关镇刘虎电动车经销部,安徽省,,
合肥瑶海区长江东路436号,合肥市,瑶海区,117.343957,31.868085,合肥市森发电子商贸有限公司,安徽省,,
长丰县水湖镇长淮路南段新日店,合肥市,长丰县,117.170997,32.462234,长丰新日旗舰店(直营),安徽省,,
肥东县店埠镇龙泉西路,合肥市,肥东县,117.441938,31.876293,肥东永红电动车商行(直营),安徽省,,
长丰县水湖镇长合北路步行街,合肥市,长丰县,117.166506,32.481449,长丰辉轮摩托车电动车销售有限公司,安徽省,,
安徽省长丰县水湖镇长淮路城东大市场南新日旗舰店,合肥市,长丰县,117.170658,32.475785,安徽长丰新日旗舰店(直营),安徽省,,
安徽省肥东县龙泉西路16号,合肥市,肥东县,117.46153,31.88134,肥东金顺车业有限公司(直营),安徽省,,
安徽省含山县华阳西路新日专卖店(含山万里行摩托车经营部),马鞍山市,含山县,118.099438,31.719886,含山县环峰文强车行(直营),安徽省,,
蚌埠市淮河东路55号（药监局楼下）,蚌埠市,蚌山区,117.392367,32.942757,蚌埠市同盛车业有限公司(直营),安徽省,,
安徽省凤阳县楼西街,滁州市,凤阳县,117.561699,32.862694,新日电动车凤阳专卖店,安徽省,,
安徽省全椒县儒林路,滁州市,全椒县,118.276407,32.078953,新日电动车全椒专卖店(直营),安徽省,,
安徽省来安县西大街法院正对面,滁州市,琅琊区,118.30493,32.31762,安徽省来安县（郑福健）(直营),安徽省,,
安徽省滁州明光市池河大道,滁州市,明光市,117.994017,32.778999,安徽省滁州明光市（邓广萍）(直营),安徽省,,
安徽省天长市明珠广场11-14号,滁州市,天长市,119.004817,32.667571,丁氏车行(直营),安徽省,,
安徽省怀远县禹王路中段公安局东侧,蚌埠市,怀远县,117.217479,32.97202,怀远县腾飞商贸有限公司(直营),安徽省,,
安徽省灵璧县解放路西关小学楼下,宿州市,灵璧县,117.54973,33.542509,灵璧县新日电动车专卖店(直营),安徽省,,
天长市石梁东路与万寿南路交汇处西北角天寿珠宝玉器有限公司门面,滁州市,天长市,119.027094,32.682676,天长市天秦车行(直营),安徽省,,
滁州市丰乐北路80号丰乐菜场旁新日电动车,滁州市,琅琊区,118.310878,32.303487,安徽省滁州市滁州大不同车业（吴云）(直营),安徽省,,
含山县环峰南路22号（棉麻公司门面房）,马鞍山市,含山县,118.108931,31.709481,含山县飞翔商贸有限公司(直营),安徽省,,
安徽省滁州市南谯区担子瑶海大市场11幢,滁州市,南谯区,118.37245,32.251545,滁州市再林摩托车销售有限公司,安徽省,,
滁州市天长西路新日电动车专卖店,滁州市,琅琊区,118.321196,32.29638,滁州市再林摩托车销售有限公司,安徽省,,
全椒县吴敬梓路105号,滁州市,全椒县,118.274319,32.097855,全椒县新日电动车专卖店,安徽省,,
安徽省宿州市萧县交通路西段,宿州市,萧县,116.926566,34.180303,萧县新化车行,安徽省,,
安徽省宿州市浍水路二中南门大兴车业新日专卖店,宿州市,埇桥区,116.987506,33.626888,宿州市风行电动车销售有限公司,安徽省,,
安徽省灵璧县汽车站北电动车大卖场,宿州市,灵璧县,117.551203,33.536142,灵璧县创意车业有限公司(直营),安徽省,,
安徽省亳州市文帝街红绿灯东50米全泰电动车行,亳州市,谯城区,115.767194,33.860971,亳州市好朋友车业有限责任公司,安徽省,,
安徽省阜阳市尚源五金钟表有限公司颖河西路222号,阜阳市,颍州区,115.833018,32.898569,阜阳市尚源电动车有限公司(直营),安徽省,,
安徽省涡阳市胜利东路77号北京新日涡阳专卖店,亳州市,涡阳县,116.217819,33.504455,涡阳市新日车业有限公司(直营),安徽省,,
安徽省阜南县地城南路15号王氏车业新日专卖,阜阳市,阜南县,115.588664,32.633405,安徽省阜南王氏车业销售有限公司(直营),安徽省,,
安徽省太和县建设路环保局楼下向西50米新日电动车,阜阳市,太和县,115.472399,33.229536,太和县文清摩托车有限公司,安徽省,,
安徽省颍上县步行街中段北京新日专卖店,阜阳市,颍上县,116.250377,32.635483,颍上县金阳电动车销售有限公司(直营),安徽省,,
安徽繁昌孙村镇龙华路,芜湖市,繁昌县,118.198931,31.082783,繁昌县大志车行,安徽省,,
芜湖市九华中路117号,芜湖市,镜湖区,118.38077,31.350297,欧尚（中国）投资有限公司（芜湖店）(直营),安徽省,,
安徽省巢湖市巢湖中路180号都市佳人车业,合肥市,巢湖市,117.871305,31.596965,巢湖市辉腾车业有限公司,安徽省,,
安徽省繁昌县繁阳镇毅达商业街南侧新日电动车,芜湖市,繁昌县,118.200483,31.085121,安徽省繁昌县（潘继鑫）(直营),安徽省,,
宣城市宣州区状元北路,宣城市,宣州区,118.755197,30.950856,宣城市金钻车业经营部,安徽省,,
安徽省池州市秋浦东路7号楼小曹车行,池州市,贵池区,117.498776,30.654283,池州市曹氏电动车销售有限公司(直营),安徽省,,
安徽省泾县谢家园路,宣城市,泾县,118.417235,30.690027,泾县天一电动车销售有限公司(直营),安徽省,,
安徽省池州市通达广场110号,池州市,贵池区,117.481273,30.652294,庐江县庐城镇新阳光车行(直营),安徽省,,
安徽省池州市杏林雅居西块4号楼,池州市,贵池区,117.481401,30.651719,池州市栋豪摩托车销售有限公司,安徽省,,
安徽省安庆市潜山县舒州大道121号零碑工商行对面,安庆市,潜山市,116.573571,30.646571,潜山新日专卖店,安徽省,,
安徽省安庆市宿松县园林路68号,安庆市,宿松县,116.124973,30.158849,安徽安庆市宿松县（吴凯）(直营),安徽省,,
岳西县建设西路130号,安庆市,岳西县,116.352049,30.847438,安徽岳西县华禹车行(直营),安徽省,,
安徽省东至县尧北路(县回收公司楼),池州市,东至县,117.023841,30.099245,东至县鑫润车行(直营),安徽省,,
安徽省池州市青阳县新日电动专卖店,池州市,青阳县,117.847362,30.63923,池州青阳县新日商贸有限公司(直营),安徽省,,
安徽省太湖县老城城北路,安庆市,太湖县,116.276328,30.428851,太湖县时代车业有限责任公司,安徽省,,
休宁县海阳镇新宁广场48号,黄山市,休宁县,118.182909,29.789971,休宁县大山车行(直营),安徽省,,
安徽省宣城市中山路中医院公交站旁新日电动车专卖店,宣城市,广德县,119.422263,30.889151,宣城市清风电动车销售有限公司(直营),安徽省,,
安徽省宣城市宣州区孙埠镇兴隆路9号,宣城市,宣州区,118.894986,30.898139,宣城市璇乐电动车销售有限公司,安徽省,,
安徽省黄山太平县太平西路正大车行,黄山市,黄山区,118.134566,30.295895,黄山市黄山区二子车业有限公司,安徽省,,
安徽省宁国市津河西路苏果超市对面/教委新日专卖店,宣城市,宁国市,118.981371,30.623847,宁国市宁新车业有限公司(直营),安徽省,,
安徽省宣城市旌德县烟草公司对面,宣城市,旌德县,118.540487,30.28635,旌德县顺风车业销售有限公司(直营),安徽省,,
安徽省广德县桃州镇镇政府正对面太极大道西侧23号,宣城市,广德县,119.442992,30.89348,广德县广远车业有限公司(直营),安徽省,,
安徽省南陵县城东南翔中路128号,芜湖市,南陵县,118.346798,30.923908,南陵天宝电动车销售有限公司(直营),安徽省,,
安徽省亳州市谯城区桐乡路86号,亳州市,谯城区,115.761772,33.853061,谯城区大阳电动车专卖店,安徽省,,
万春街道,芜湖市,鸠江区,118.49555253982547,31.363517776052642,芜湖万春新日,安徽省,,
相山路283号,淮北市,相山区,116.799783,33.963613,淮北市区新日电动车智能骑行生活馆,安徽省,,
城关镇,阜阳市,临泉县,115.25229647755624,33.04570679178079,临泉新日专卖店,安徽省,,
黄麓镇,合肥市,巢湖市,117.58145704865457,31.62295964280673,巢湖市黄麓镇新日电动车,安徽省,,
苏湾镇,合肥市,巢湖市,117.81685039401056,31.874318733245218,巢湖市苏湾镇新日,安徽省,,
散兵镇,合肥市,巢湖市,117.74982333183291,31.528083041220423,巢湖散兵镇新日,安徽省,,
砀城镇,宿州市,砀山县,116.34989127516747,34.41851906204678,砀山县新日电动车旗舰店,安徽省,,
城关镇,宿州市,砀山县,116.347797,34.4181,砀山县新日电动车二店,安徽省,,
城关街道,亳州市,涡阳县,116.21504724025728,33.50492233598813,涡阳新日专卖店,安徽省,,
散兵镇,合肥市,巢湖市,117.74800479412079,31.528427124515307,巢湖市槐林镇新日,安徽省,,
坝镇镇,合肥市,巢湖市,117.57906854152681,31.314029893987755,巢湖市坝镇镇成林车业,安徽省,,
城关镇,亳州市,蒙城县,116.56453639268877,33.260072218274836,蒙城新日专卖店,安徽省,,
安徽省安庆市潜山县梅城镇舒州西路舒州1148号,安庆市,潜山市,116.563703,30.631274,潜山县志成车行,安徽省,,
安徽省合肥市瑶海区安徽国际汽车城汽摩配市场A1栋115.157商铺1-2层,合肥市,瑶海区,117.327993,31.882913,合肥捷大商贸有限公司,安徽省,,
安徽省蚌埠市淮河东路淮秀园小区2号楼一层12号,蚌埠市,蚌山区,117.391291,32.942786,蚌埠君悦车业有限公司,安徽省,,
安徽省六安市金源步行街131号,六安市,舒城县,116.949202,31.460696,舒城晶玖商贸有限公司,安徽省,,
弋矶山公共服务中心,芜湖市,镜湖区,118.36134552955626,31.368180692843165,芜湖红旗新日,安徽省,,
四褐山街道,芜湖市,鸠江区,118.36025118827821,31.441878297017677,芜湖市四褐山新日,安徽省,,
仁和集镇,滁州市,天长市,119.11975353956224,32.62623540123471,天长市仁和镇新日,安徽省,,
瀂港街道,芜湖市,弋江区,118.3589395880699,31.276294004835666,芜湖市澛港新村新日,安徽省,,
洛河镇,淮南市,大通区,117.09349349141124,32.6754516236363,淮南洛河镇,安徽省,,
上窑镇,淮南市,大通区,117.15628802776338,32.72272835477544,淮南上窑镇,安徽省,,
永丰镇,滁州市,天长市,118.99895757436751,32.72919759966499,永丰新日,安徽省,,
杨村镇,滁州市,天长市,118.98088350892068,32.789307294250335,天长市杨村镇新日,安徽省,,
高皇镇,淮南市,潘集区,116.99280872941017,32.71238155161542,淮南高皇镇,安徽省,,
铜城镇,滁州市,天长市,118.93521353602411,32.8946464753746,天长市桐城新日,安徽省,,
夹沟镇,淮南市,潘集区,116.94996178150177,32.76340097448899,淮南夹沟镇,安徽省,,
天长街道,滁州市,天长市,119.00127097964288,32.69135138968717,天长市北门社区店,安徽省,,
天长街道,滁州市,天长市,118.99625256657603,32.66820740824717,天长市同心社区店,安徽省,,
天长街道,滁州市,天长市,119.00187313556673,32.67694058313225,天长市天康大道社区店,安徽省,,
三山街道,芜湖市,三山区,118.23316276073457,31.22532333066452,芜湖市三山区新日,安徽省,,
田集街道,淮南市,潘集区,116.81447133421898,32.78472307330639,淮南潘集区分销,安徽省,,
河口路附近,滁州市,天长市,119.154252,32.698043,天长市界牌镇新日店,安徽省,,
秦栏镇,滁州市,天长市,119.13185566663742,32.5334012051926,天长市官桥镇新日,安徽省,,
韦寨镇,阜阳市,临泉县,115.20777449011804,32.97094756791615,临泉韦寨,安徽省,,
金集镇,滁州市,天长市,119.09910723567009,32.499064543446316,天长市谕兴乡新日,安徽省,,
金集镇,滁州市,天长市,119.0701125562191,32.55717914028709,天长市金集镇新日,安徽省,,
冶山镇,滁州市,天长市,118.99955436587332,32.530447883665694,天长市长兴社区,安徽省,,
冶山镇,滁州市,天长市,119.01580452919008,32.60247577522411,天长市怡山镇关塘社区新日,安徽省,,
郑集镇,滁州市,天长市,118.95180433988571,32.595913740818425,天长市郑集镇新日,安徽省,,
清水街道,芜湖市,芜湖县,118.48702579736712,31.316883908880598,芜湖市清水镇新日,安徽省,,
新街镇,滁州市,天长市,118.85191619396208,32.62876993134225,天长市新街镇新日,安徽省,,
汊涧镇,滁州市,天长市,118.71926620602609,32.66467483586999,天长市釜山镇新日,安徽省,,
半塔镇,滁州市,来安县,118.59933793544769,32.6769563869665,来安县半塔镇新日,安徽省,,
新潭镇梅林村后村5号东成电脑店,黄山市,屯溪区,118.26561,29.747156,梅林新日专卖店,安徽省,,
徽州大道江南新城西区棕榈苑20幢102号(食汇点旁),黄山市,屯溪区,118.326149,29.698481,阳湖小杜车行,安徽省,,
女山湖镇,滁州市,明光市,118.22187468409538,32.94774689886473,明光市女山湖镇新日,安徽省,,
苏巷镇,滁州市,明光市,118.09690251946449,32.87158461063787,明光市苏巷镇新日,安徽省,,
古沛镇,滁州市,明光市,118.01591455936435,32.99729045817088,明光市古沛镇新日,安徽省,,
大渡口镇,池州市,东至县,117.05032736063004,30.47659055784966,东至县大渡口新日电动车,安徽省,,
尧渡镇,池州市,东至县,117.02086731791498,30.097217618733644,东至县风驰车业,安徽省,,
菱北街道,安庆市,宜秀区,117.07448065280913,30.540409780440726,安庆市金阳光车业有限责任公司,安徽省,,
王村镇王村,黄山市,屯溪区,118.406326,29.753298,王村新日专卖店,安徽省,,
大龙山镇,安庆市,宜秀区,117.00421482324602,30.607226301892577,大学新日电动车,安徽省,,
滨河花园2幢1003,黄山市,歙县,118.382271,29.854118,郑村新日专卖店,安徽省,,
孚玉镇,安庆市,宿松县,116.12163662910461,30.16240330369966,宿松县淮海车行,安徽省,,
324省道南50米,黄山市,歙县,118.796013,30.022367,三阳小猫车行,安徽省,,
千岭乡,安庆市,宿松县,116.22358337044716,30.092188789072498,宿松县向阳新日电动车,安徽省,,
013县道与324省道交叉口东北50米,黄山市,歙县,118.731918,29.989532,齐武新日专卖店,安徽省,,
霞坑中心学校附近,黄山市,歙县,118.67054,29.958321,霞坑绿源电动车,安徽省,,
北岸镇北岸,黄山市,歙县,118.570854,29.899775,大阜国辉车业,安徽省,,
复兴镇,安庆市,宿松县,116.42120987176898,29.90561581705324,复兴新日电动车,安徽省,,
长铺镇,安庆市,宿松县,116.18475437164305,30.180187657007366,马塘新日电动车,安徽省,,
邵岗乡,六安市,霍邱县,116.1480885744095,32.307215840739715,霍邱邵岗,安徽省,,
石店镇,六安市,霍邱县,116.10231533646584,32.34730319059224,霍邱五塔,安徽省,,
凉亭镇,安庆市,宿松县,116.18054866790771,30.32102943686283,凉亭新日电动车,安徽省,,
033县道,六安市,霍邱县,115.993652,32.34282,霍邱吴集,安徽省,,
晋熙镇,安庆市,太湖县,116.27640679478648,30.428988339891625,太湖县齐齐车业,安徽省,,
河口镇,六安市,霍邱县,116.11205443739892,32.132875880725024,霍邱河口,安徽省,,
乌龙镇,六安市,霍邱县,116.09129279851912,32.07538607018757,霍邱陡岗,安徽省,,
长集镇,六安市,霍邱县,116.17118239402771,32.065886533876046,霍邱长集,安徽省,,
梅城镇,安庆市,潜山市,116.56678006052974,30.634274889111577,潜山县志成车行,安徽省,,
岔路镇,六安市,霍邱县,116.22088238596916,32.13886293605478,霍邱岔路,安徽省,,
天堂镇,安庆市,岳西县,116.35065704584125,30.84691741428151,岳西县新日电动车,安徽省,,
天堂镇,安庆市,岳西县,116.36941641569136,30.850241426226464,城东新日电动车,安徽省,,
金山大道37,铜陵市,枞阳县,117.22533,30.711343,枞阳县新日电动车,安徽省,,
孔城镇,安庆市,桐城市,117.0769536495209,31.039664272484988,孔城新日电动车,安徽省,,
弋江镇光迪商业街,芜湖市,南陵县,118.487617,30.9112,张记车行,安徽省,,
205国道与355省道交叉口西北150米,芜湖市,南陵县,118.407066,31.058594,许镇新日专卖店,安徽省,,
205国道西50米,芜湖市,南陵县,118.413803,31.14978,奎湖和平车业,安徽省,,
汤池镇,合肥市,庐江县,117.0974685251713,31.33248493899807,汤池镇新日电动车,安徽省,,
庐城镇,合肥市,庐江县,117.28813871741293,31.25222861753826,庐江县恒博商贸,安徽省,,
淮河大道北段240号,铜陵市,铜官区,117.814331,30.933315,铜陵市中睿商贸有限责任公司,安徽省,,
018县道与020乡道交叉口西100米,宣城市,宣州区,119.038155,30.981363,建平车行,安徽省,,
广源步行街与214省道交叉口西南100米,宣城市,郎溪县,119.134163,30.980213,十字新日专卖店,安徽省,,
新安路与214省道交叉口北200米,宣城市,郎溪县,119.153107,31.03017,郎溪水鸣新日专卖店,安徽省,,
S214健民大药房西北50米,宣城市,郎溪县,119.125214,31.22624,新发新日专卖店,安徽省,,
池阳街道,池州市,贵池区,117.48045980930331,30.65380559895377,贵池区恒博车行,安徽省,,
018县道北50米,宣城市,广德县,119.231125,30.935959,誓节新日专卖店,安徽省,,
誓节花鼓街道,宣城市,广德县,119.301338,30.911753,花鼓新日专卖店,安徽省,,
桃州镇太极大道西路43号(原林业派出所旁),宣城市,广德县,119.401741,30.896605,开发区新日专卖店,安徽省,,
日月商城B区3-1-38,宣城市,广德县,119.398331,30.865179,小韩车行,安徽省,,
双桥镇,淮南市,寿县,116.699466,32.488381,寿县双桥镇,安徽省,,
020县道北50米,淮南市,寿县,116.66572,32.443694,寿县梨树镇,安徽省,,
001乡道附近,淮南市,寿县,116.64628,32.488153,寿县涧沟镇,安徽省,,
郑店玲丰庄镇,淮南市,寿县,116.60298,32.49377,寿县丰庄镇,安徽省,,
031乡道与032乡道交叉口东50米,淮南市,寿县,116.529745,32.480302,寿县正阳关镇,安徽省,,
310省道西50米,淮南市,寿县,116.52489,32.413998,寿县正阳镇,安徽省,,
灵城镇,宿州市,灵璧县,117.54477381706236,33.53963412713334,灵璧县新日电动车专卖店,安徽省,,
022县道与203省道交叉口西北50米,淮南市,寿县,116.754429,32.300253,寿县十字路,安徽省,,
大庙乡,宿州市,灵璧县,117.7004425227642,33.7619646067094,大庙新日电动车专卖店,安徽省,,
朝阳镇,宿州市,灵璧县,117.59485065937044,33.945082182617746,朝阳新日电动车专卖店,安徽省,,
冯庙镇,宿州市,灵璧县,117.64628604054452,33.71109189718271,冯庙新日电动车专卖店,安徽省,,
禅堂乡,宿州市,灵璧县,117.58796945214272,33.679529310831676,禅堂新日电动车专卖店,安徽省,,
尤集镇,宿州市,灵璧县,117.48798877000812,33.89704677630535,尤集新日电动车专卖店,安徽省,,
浍沟镇,宿州市,灵璧县,117.56133243441582,33.755750865279126,浍沟新日电动车专卖店,安徽省,,
渔沟镇,宿州市,灵璧县,117.57585123181343,33.85307295376287,渔沟新日电动车专卖店,安徽省,,
203省道,淮南市,寿县,116.786029,32.497373,寿县九龙街道,安徽省,,
马城镇,蚌埠市,禹会区,117.20988929271698,32.86136100442903,怀远县马城镇,安徽省,,
马城镇,蚌埠市,怀远县,117.16675937175754,32.78026039028836,怀远县马城镇洪集村,安徽省,,
渠沟镇,淮北市,相山区,116.74947872757912,33.97303805376176,土楼新日电动车专卖店,安徽省,,
百善镇,淮北市,濉溪县,116.66682377457619,33.78350795980292,百善新日电动车专卖店,安徽省,,
古饶镇,淮北市,烈山区,116.83235362172127,33.77091927294919,赵集新日电动车专卖店,安徽省,,
常坟镇,蚌埠市,怀远县,117.06890299916269,32.84662278974933,怀远县常坟镇南新集新日,安徽省,,
常坟镇,蚌埠市,怀远县,117.07159593701364,32.80900006967584,怀远县常坟镇,安徽省,,
常坟镇,蚌埠市,怀远县,117.02804893255234,32.82041534994468,怀远县常坟镇邹庙街道,安徽省,,
蓉城镇,池州市,青阳县,117.85462662577629,30.63628502547466,青阳县新日电动车,安徽省,,
唐集镇,蚌埠市,怀远县,116.99808061122894,32.816965448015935,怀远县唐集镇朱疃街道,安徽省,,
225省道北50米,蚌埠市,怀远县,117.003328,32.866087,怀远县白莲坡镇胡疃街道,安徽省,,
唐集镇,蚌埠市,怀远县,116.9231316447258,32.86359371712839,怀远县唐集镇,安徽省,,
烔炀镇,合肥市,巢湖市,117.6339116692543,31.683438279862102,巢湖市烔炀镇新日,安徽省,,
杨田镇,池州市,青阳县,117.91878774762155,30.59548100554205,杨田新日电动车,安徽省,,
龙城镇,宿州市,萧县,116.94446191191673,34.18066881028206,萧县新日电动车专卖店,安徽省,,
赵庄镇,宿州市,萧县,116.70485883951187,34.21944535735877,赵庄新日电动车专卖店,安徽省,,
朔里镇,淮北市,杜集区,116.85432359576224,34.0708789872297,纵楼新日电动车专卖店,安徽省,,
石台镇,淮北市,杜集区,116.92045211791992,34.036814248421614,石台新日电动车专卖店,安徽省,,
古饶镇,淮北市,烈山区,116.9135507941246,33.762069410256345,古饶新日电动车专卖店,安徽省,,
韩村镇,淮北市,濉溪县,116.63387283682825,33.68589810522156,祁集新日电动车专卖店,安徽省,,
陵阳镇,池州市,青阳县,117.89973333477975,30.419669805230857,陵阳镇新日电动车,安徽省,,
万福镇,蚌埠市,怀远县,116.81644409894945,32.94559846403125,怀远县万福镇刘圩街道,安徽省,,
烈山镇,淮北市,烈山区,116.86550572514534,33.912532928607675,新蔡新日电动车专卖店,安徽省,,
王寨镇,宿州市,萧县,116.76463186740874,34.12140751849064,王寨新日电动车,安徽省,,
杨楼镇,宿州市,萧县,116.85486674308778,34.33581410124746,杨楼新日电动车专卖店,安徽省,,
刘套镇,宿州市,萧县,116.92436143755913,34.34006534637901,刘套新日电动车专卖店,安徽省,,
徐圩乡,蚌埠市,怀远县,116.82815060019492,33.04112121626229,怀远县徐圩乡尚庙,安徽省,,
龙亢农场,蚌埠市,怀远县,116.87487870454788,33.10186998022689,怀远县龙亢农场,安徽省,,
龙亢镇,蚌埠市,怀远县,116.89716517925264,33.13662921426543,怀远县龙亢镇,安徽省,,
淝南乡,蚌埠市,怀远县,116.95645138621329,33.09343363104418,怀远县燕集,安徽省,,
黄口镇,宿州市,萧县,116.69659361243251,34.361061497749276,黄口新日电动车专卖店,安徽省,,
关帝庙镇,宿州市,砀山县,116.39096260070802,34.354060043401425,关帝庙新日电动车专卖店,安徽省,,
程庄镇,宿州市,砀山县,116.57372027635573,34.3385072828554,程庄新日电动车专卖店,安徽省,,
李庄镇,宿州市,砀山县,116.48666247725487,34.38958382999775,李庄新日电动车专卖店,安徽省,,
陡沟镇,芜湖市,无为县,118.01885962486267,31.356559614527747,无为县陡沟新日,安徽省,,
鹤毛乡,芜湖市,无为县,117.56737008690837,31.118516551425063,无为县鹤毛镇新日,安徽省,,
泗城镇,宿州市,泗县,117.88482561707498,33.480237602784875,泗县新日电动车专卖店,安徽省,,
十里墩乡,芜湖市,无为县,117.87488937377931,31.244302536593942,无为县虹桥村新日,安徽省,,
城关镇,蚌埠市,五河县,117.89135143160821,33.14231590155019,五河新日电动车专卖店,安徽省,,
濉溪镇,淮北市,濉溪县,116.77297353744508,33.9174454347096,濉溪县新日电动车旗舰店,安徽省,,
洪巷街道洪巷,芜湖市,无为县,117.646017,31.119121,无为县洪巷新日,安徽省,,
洪巷镇,芜湖市,无为县,117.699643,31.136272,无为县湖陇社区新日,安徽省,,
白茆镇,芜湖市,鸠江区,118.07129010558131,31.28440077682993,无为县江坝镇新日,安徽省,,
吉苏路与319省道交叉口东100米,芜湖市,无为县,117.831893,31.203401,无为县教子湾新日,安徽省,,
高沟镇,芜湖市,无为县,117.94440284371375,31.116370691419657,无为县高沟镇新日,安徽省,,
汤沟镇,芜湖市,鸠江区,118.18147256970406,31.32768163690213,无为县汤沟镇新日,安徽省,,
牛埠镇,芜湖市,无为县,117.73268669843675,31.043720411962738,无为县土桥新日,安徽省,,
襄安镇,芜湖市,无为县,117.78267234563829,31.19568241523385,无为县襄安镇新日,安徽省,,
红庙镇,芜湖市,无为县,117.77133733034137,31.367207362420867,无为县徐岗社区新日,安徽省,,
严桥镇,芜湖市,无为县,117.73058652877809,31.410050688139595,无为县严桥镇新日,安徽省,,
姚沟镇,芜湖市,无为县,117.90631547570229,31.145659958994138,无为县姚沟新日,安徽省,,
二坝镇,芜湖市,鸠江区,118.27080354094507,31.364560997808894,无为县雍南新日,安徽省,,
青阳路与蓉城路交汇处,池州市,贵池区,117.484483,30.667897,城北花园新日电动车,安徽省,,
临淮镇,滁州市,凤阳县,117.64413356781004,32.90694022956321,凤阳县临淮关,安徽省,,
安成镇,淮南市,田家庵区,116.96677252650265,32.63002474566277,淮南安成铺,安徽省,,
炉桥镇,滁州市,定远县,117.24065557122233,32.54838114522246,定远县炉桥镇新日,安徽省,,
城关镇,蚌埠市,固镇县,117.32456713914873,33.320407191914555,固镇县新日电动车旗舰店,安徽省,,
烈山镇,淮北市,烈山区,116.91265627741815,33.9222986770033,蔡里新日电动车专卖店,安徽省,,
临涣镇,淮北市,濉溪县,116.559180021286,33.694679951141026,临涣新日电动车专卖店,安徽省,,
渠沟镇,淮北市,相山区,116.66622027754785,34.00622121522258,张集新日电动车专卖店,安徽省,,
墩集镇,宿州市,泗县,117.97575652599336,33.41193797854777,墩集新日电动车专卖店,安徽省,,
黄圩镇,宿州市,泗县,117.76390492916109,33.67890099873077,黄圩新日电动车专卖店,安徽省,,
谢家集街道,淮南市,谢家集区,116.86456426978113,32.599062628258224,淮南谢家集分销,安徽省,,
231省道西50米,黄山市,祁门县,117.355774,29.865149,闪里小熊车行,安徽省,,
027县道西50米,黄山市,祁门县,117.512939,29.898476,历口新日专卖店,安徽省,,
定城镇,滁州市,定远县,117.60488212108613,32.54230806998666,定远程桥社区店,安徽省,,
金字牌镇菜婆超市,黄山市,祁门县,117.812752,29.844065,金字牌新日专卖店,安徽省,,
白湖镇,合肥市,庐江县,117.40174904465674,31.220444608227744,裴岗街道新日电动车,安徽省,,
白湖镇,合肥市,庐江县,117.45882242918017,31.212417220057244,白湖新日电动车,安徽省,,
龙桥镇,合肥市,庐江县,117.44000136852266,31.144791077045628,庐江龙桥新日电动车,安徽省,,
矾山镇,合肥市,庐江县,117.45060414075851,31.04328952716314,庐江县刘屯新日电动车,安徽省,,
松萝路与萝宁街交叉口西南50米,黄山市,休宁县,118.180435,29.789379,休宁新日专卖店,安徽省,,
池河镇,滁州市,定远县,117.95210212469101,32.51697353572898,定远县池河,安徽省,,
盛桥镇,合肥市,庐江县,117.49733224511148,31.39271444967102,庐江县盛桥新日电动车,安徽省,,
藕塘镇,滁州市,定远县,117.93416485190393,32.38373855050799,定远县藕塘镇,安徽省,,
南坪镇,淮北市,濉溪县,116.74450054764748,33.48139421017404,任楼矿新日电动车专卖店,安徽省,,
刘桥镇,淮北市,濉溪县,116.70184269547461,33.915193997310595,刘桥镇新日电动车专卖店,安徽省,,
铁佛镇,淮北市,濉溪县,116.56301826238635,33.84353876048014,铁佛新日电动车专卖店,安徽省,,
三里湾街道,宿州市,埇桥区,116.98358595371248,33.626503937588275,宿州新日电动车专卖店,安徽省,,
仙踪镇,马鞍山市,含山县,118.00890058279037,31.799131304657273,含山县仙踪镇,安徽省,,
黑塔镇,宿州市,泗县,118.0590954422951,33.58795943065338,黑塔新日电动车专卖店,安徽省,,
刘圩镇,宿州市,泗县,118.08536767959595,33.64778320581362,刘圩新日电动车专卖店,安徽省,,
大新镇,蚌埠市,五河县,117.70374566316603,33.00632309929247,大新新日电动车专卖店,安徽省,,
小圩镇,蚌埠市,五河县,117.72536829113962,33.17702208092718,小圩新日电动车专卖店,安徽省,,
新集镇,蚌埠市,五河县,117.76553973555566,33.05607545017163,新集新日电动车专卖店,安徽省,,
王庄镇,蚌埠市,固镇县,117.46810019016266,33.09819736360926,王庄新日电动车专卖店,安徽省,,
周寨镇,宿州市,砀山县,116.45240262150764,34.55904476573137,周寨新日电动车专卖店,安徽省,,
唐寨镇,宿州市,砀山县,116.56590297818184,34.45977787462651,王集新日电动车专卖店,安徽省,,
龙眠街道,安庆市,桐城市,116.9590075314045,31.04562087791253,桐城市新日电动车,安徽省,,
西南门镇,宿州市,砀山县,116.432478,34.468406,西南门新日电动车专卖店,安徽省,,
朱楼镇,宿州市,砀山县,116.50302663445474,34.3129650904576,朱楼新日电动车专卖店,安徽省,,
芦岭镇,宿州市,埇桥区,117.18091875314714,33.520980241532364,芦岭新日电动车专卖店,安徽省,,
符离镇,宿州市,埇桥区,116.9800266623497,33.75279380019273,符离新日电动车专卖店,安徽省,,
宿州经济技术开发区北杨寨行政管理区,宿州市,埇桥区,117.01039865612982,33.53703516648192,北杨寨新日电动车专卖店,安徽省,,
马井镇,宿州市,萧县,116.81659430265428,34.26842432440938,马井新日电动车专卖店,安徽省,,
吕亭镇,安庆市,桐城市,117.0118671655655,31.108840853467733,桐城市吕亭新日电动车,安徽省,,
吕亭镇,安庆市,桐城市,117.08107620477678,31.14206156518059,桐城市新店新日电动车,安徽省,,
大关镇,安庆市,桐城市,117.03821316361427,31.179674386210714,桐城市卅铺新日电动车,安徽省,,
范岗镇,安庆市,桐城市,116.92237660288812,30.98466183335118,桐城市范港新日电动车,安徽省,,
青草镇,安庆市,桐城市,116.7658133804798,30.844017013268125,桐城市青草新日电动车,安徽省,,
桐城双新经济开发区,安庆市,桐城市,116.87799543142317,30.828729449545747,桐城市新渡新日电动车,安徽省,,
清溪镇,马鞍山市,含山县,117.99314126372339,31.654078914416733,含山县清溪镇,安徽省,,
高河镇,安庆市,怀宁县,116.8341614305973,30.72763976887693,怀宁县新日电动车,安徽省,,
桃花潭镇,宣城市,泾县,118.152679,30.482525,桃花潭斌斌车业,安徽省,,
林头镇,马鞍山市,含山县,117.96180903911593,31.54635085328359,含山市林头镇,安徽省,,
泾川镇幕桥路435号,宣城市,泾县,118.426582,30.696825,泾县小帅车行,安徽省,,
运漕镇,芜湖市,无为县,118.0831280350685,31.421519805532817,含山县运漕镇,安徽省,,
华阳镇,安庆市,望江县,116.75618961453439,30.093462845331015,望江县华阳新日电动车,安徽省,,
琴溪镇新元村洗桥组(泾川驾校旁-琴溪分校),宣城市,泾县,118.514061,30.725977,洗马桥新日专卖店,安徽省,,
华阳镇,安庆市,望江县,116.69402137398721,30.127647369037845,望江县新日电动车,安徽省,,
温泉镇,安庆市,岳西县,116.34625688195229,30.88359030471482,岳西县新日电动车,安徽省,,
莲云乡,安庆市,岳西县,116.29157736897469,30.877838825356957,连云乡新日电动车,安徽省,,
沈巷镇,芜湖市,鸠江区,118.23302730917933,31.45996390374311,和县沈巷新日,安徽省,,
城关镇,亳州市,利辛县,116.19864955544475,33.14224852589593,利辛新日2店,安徽省,,
城关镇,亳州市,利辛县,116.26789346337318,33.15282362448677,董集,安徽省,,
中疃镇,亳州市,利辛县,116.30817756056786,33.18184862405107,利辛中疃,安徽省,,
城关镇,亳州市,利辛县,116.21579021215439,33.134629128643475,城东,安徽省,,
巩店镇,亳州市,利辛县,115.88672742247583,33.21135322378056,利辛巩店新日专卖店,安徽省,,
巩店镇,亳州市,利辛县,115.84362834692001,33.243890903263626,利辛白鸡集,安徽省,,
王人镇,亳州市,利辛县,115.9765063226223,33.10901928983812,利辛王人镇,安徽省,,
十九里镇,亳州市,谯城区,115.83722323179246,33.800710880726854,十九里镇新日,安徽省,,
十八里铺镇,阜阳市,颍上县,116.18115484714507,32.67654322866659,十八里铺,安徽省,,
阜阳开发区京九街道,阜阳市,颍州区,115.84076777100564,32.87257243962064,医药集团,安徽省,,
行流镇,阜阳市,颍泉区,115.71964859962465,33.0482664710975,行流,安徽省,,
清河街道,阜阳市,颍州区,115.82427754998209,32.88234425735737,二里井,安徽省,,
宁老庄镇,阜阳市,颍泉区,115.6570914387703,32.996386130883565,姜唐镇,安徽省,,
口孜镇,阜阳市,颍东区,116.07370287179947,32.83796483442545,口孜镇,安徽省,,
庙岔镇,阜阳市,临泉县,114.9194061756134,32.98216087820319,庙岔镇,安徽省,,
艾亭镇,阜阳市,临泉县,115.24777561426163,32.66455403274732,艾亭镇,安徽省,,
单桥镇,阜阳市,临泉县,115.2950803935528,32.98811403057601,单桥,安徽省,,
王市镇,亳州市,利辛县,116.12144485116006,33.13781846310932,吴庙镇,安徽省,,
马集镇,亳州市,蒙城县,116.3863129913807,33.385748640287346,田桥镇,安徽省,,
陈集镇,阜阳市,临泉县,115.22253066301346,32.765916952514814,陈堡,安徽省,,
韦寨镇,阜阳市,临泉县,115.16624853014947,32.988256892300576,鱼同城,安徽省,,
土陂乡,阜阳市,临泉县,115.47553941607478,32.82634219631106,土坡,安徽省,,
土陂乡,阜阳市,临泉县,115.47553941607478,32.82634219631106,老集,安徽省,,
谭棚镇,阜阳市,临泉县,115.46976059675217,32.968226997706275,谭鹏镇,安徽省,,
谢桥镇,阜阳市,颍上县,116.38720750808716,32.74273817019941,谢桥,安徽省,,
王岗镇,阜阳市,颍上县,116.39893010258676,32.52132838191333,王岗,安徽省,,
江口镇,阜阳市,颍上县,116.20725810527802,32.78964777541117,江口,安徽省,,
半岗镇,阜阳市,颍上县,116.203650534153,32.501459024515356,半岗,安徽省,,
八里河镇,阜阳市,颍上县,116.2860681116581,32.575741063113746,城北,安徽省,,
慎城镇,阜阳市,颍上县,116.25563576817514,32.63296801246336,夏桥,安徽省,,
慎城镇,阜阳市,颍上县,116.2597945332527,32.63542668414884,十里井子,安徽省,,
"太丰乡072县道工山殿刘路段,路南侧太丰分院附近",芜湖市,南陵县,118.466187,31.047861,太丰小曹车行,安徽省,,
燕山路与龙池路交叉口东北50米,芜湖市,南陵县,118.316376,30.890348,南陵县西门新日专卖店,安徽省,,
会宫镇会宫街道附近,铜陵市,枞阳县,117.247921,30.82962,会宫新日电动车,安徽省,,
103省道西50米三口镇人民政府附近,黄山市,黄山区,118.218674,30.262266,黄山区三口小李车行,安徽省,,
汤口镇寨西兆成天地A5幢璞致文化精品酒店1层,黄山市,黄山区,118.168709,30.058058,黄山区汤口元宝车行,安徽省,,
001县道南50米,黄山市,歙县,118.529434,29.657063,长垓小徐车行,安徽省,,
046县道东50米,黄山市,徽州区,118.22718,29.999935,富溪小程车行,安徽省,,
田营镇,阜阳市,界首市,115.39851039648057,33.21121072422132,田营镇新日标杆店,安徽省,,
032县道流口镇,黄山市,休宁县,117.789658,29.703165,流口新日专卖店,安徽省,,
光武镇,阜阳市,界首市,115.37617966532706,33.37866000578204,界首光武镇,安徽省,,
040县道西50米,宣城市,广德县,119.526619,31.030996,广德县流洞新日专卖店,安徽省,,
白马湖路与043县道交叉口西南50米,宣城市,广德县,119.443062,31.003525,邱村新日专卖店,安徽省,,
040县道西50米,宣城市,广德县,119.4981,31.108852,新杭新日专卖店,安徽省,,
038县道与043县道交叉口东南50米,宣城市,广德县,119.385544,31.017296,赵村新日专卖店,安徽省,,
广德1路,宣城市,广德县,119.406075,30.877144,广德县华东店,安徽省,,
城北乡,六安市,金安区,116.54170542955399,31.79538354773567,六安寿春路分销（电机厂）,安徽省,,
新安镇,六安市,裕安区,116.49850040674211,31.86366847626868,六安兴安,安徽省,,
154乡道东50米,六安市,裕安区,116.458702,31.852829,六安西桥镇,安徽省,,
061乡道北50米,六安市,霍邱县,116.41936,32.191919,霍邱孟集,安徽省,,
光华西路北50米,六安市,叶集区,116.174914,31.822265,霍邱姚李,安徽省,,
013县道与017县道交叉口西北200米,六安市,霍邱县,116.46566,32.36841,霍邱左王,安徽省,,
潘集镇潘集乡,六安市,霍邱县,116.43801,32.290225,霍邱潘集,安徽省,,
花园镇,六安市,霍邱县,116.388037,32.041521,霍邱花园镇,安徽省,,
白庙街道中国联通西南侧80米,六安市,霍邱县,115.943869,32.375388,霍邱白庙,安徽省,,
151乡道与310省道交叉口西北150米,六安市,霍邱县,116.384535,32.418351,霍邱新店镇,安徽省,,
032县道北50米,六安市,霍邱县,116.043112,32.267474,霍邱石店,安徽省,,
木厂镇木厂街道,六安市,金安区,116.553366,31.925341,六安木厂镇,安徽省,,
三十铺镇和平路91号,六安市,金安区,116.631497,31.768686,六安东三十铺镇,安徽省,,
城南镇,六安市,裕安区,116.44336760044101,31.741448272391338,六安西十里桥,安徽省,,
小辛集乡,亳州市,蒙城县,116.49067506194115,33.173270663112845,蒙城吕望,安徽省,,
021县道,淮南市,寿县,116.989146,32.250263,寿县小甸,安徽省,,
026县道与169乡道交叉口西150米,淮南市,寿县,116.72445,32.170439,寿县安丰镇,安徽省,,
022乡道,淮南市,潘集区,116.907184,32.813767,淮南潘二镇,安徽省,,
定湖巷与西大街交叉口东150米,淮南市,寿县,116.778211,32.576711,寿县孔庙镇,安徽省,,
G206(粉色佳人东南侧),淮南市,田家庵区,116.985704,32.583564,淮南三和镇,安徽省,,
杨公镇,淮南市,谢家集区,116.976345,32.517818,淮南杨公镇,安徽省,,
孔店乡,淮南市,大通区,117.137879,32.544616,淮南孔店乡,安徽省,,
孔店乡,淮南市,大通区,117.06935092806816,32.549804392151415,淮南马厂镇,安徽省,,
祁集镇014县道附近,淮南市,潘集区,116.8663,32.692358,淮南祁集镇,安徽省,,
三十头镇,合肥市,瑶海区,117.338186,31.9897,合肥三十头镇,安徽省,,
长春街包河苑小区内,合肥市,包河区,117.321326,31.796537,合肥包河苑,安徽省,,
杨庙镇庙街61号,合肥市,长丰县,117.086601,32.198705,合肥长丰杨庙镇,安徽省,,
撮镇镇,合肥市,肥东县,117.46741890907288,31.82356778491974,合肥肥东撮镇,安徽省,,
石梁镇,滁州市,天长市,118.92688795924187,32.682354361615324,天长石梁镇十八集,安徽省,,
安徽省滁州市天长西路1号,滁州市,琅琊区,118.309417,32.302661,滁州市琅琊区芳萍电动车经营部,安徽省,,
吴小街镇,蚌埠市,淮上区,117.39745214581492,32.98176938699532,蚌埠市海吉星市场店,安徽省,,
燕山乡,蚌埠市,蚌山区,117.34996363520622,32.855066975455834,蚌埠市何巷子新日,安徽省,,
禹会虚镇,蚌埠市,禹会区,117.33334064483645,32.926690211570886,蚌埠市禺会区张公山新日店,安徽省,,
中垾镇,合肥市,巢湖市,117.77178660035133,31.660976151610026,巢湖市中垾镇新日,安徽省,,
柘皋镇,合肥市,巢湖市,117.74921044707297,31.775951590879774,巢湖市柘皋镇新日电动车,安徽省,,
夏阁镇,合肥市,巢湖市,117.82972633838652,31.70935656438744,巢湖市夏阁镇新日电动车,安徽省,,
龙湖街道,芜湖市,三山区,118.33168163895608,31.263310027399548,芜湖澛港大桥新日电动车,安徽省,,
渠沟镇,淮北市,相山区,116.69459536671637,33.996203805752415,钟楼新日电动车,安徽省,,
圣泉乡,宿州市,萧县,116.93200036883356,34.25724526294137,圣泉镇,安徽省,,
霍里街道,马鞍山市,花山区,118.55476364493373,31.703179463728002,马鞍山丰收佳苑新日电动车,安徽省,,
朔里镇,淮北市,杜集区,116.84969142079352,34.03228762378733,李洼新日电动车,安徽省,,
宋町镇,淮北市,烈山区,116.85767233371735,33.860100398588116,二电厂新日电动车,安徽省,,
烈山镇,淮北市,烈山区,116.82078391313554,33.891469603376194,烈山新日电动车,安徽省,,
秦栏镇,滁州市,天长市,119.18229326605795,32.599569919831026,天长市秦栏新日,安徽省,,
大黄镇,阜阳市,界首市,115.42482554912566,33.319694460243355,大黄镇新日,安徽省,,
十河镇,亳州市,谯城区,115.70449948310853,33.746952962489075,十河镇,安徽省,,
光武镇,阜阳市,界首市,115.3685608506203,33.376146929312874,光武镇,安徽省,,
韦集镇,宿州市,灵璧县,117.56121307611467,33.38981454563581,灵璧韦集镇,安徽省,,
王集镇,阜阳市,界首市,115.34757658839224,33.1326649350732,王集,安徽省,,
安徽省宣城市宣州区澄江南路111号,宣城市,宣州区,118.764122,30.947932,宣城市摩托之家车行,安徽省,,
安徽省无为县无城西大街107号,芜湖市,无为县,117.908118,31.298647,无为县新日电动车经营部,安徽省,,
韦寨镇,阜阳市,临泉县,115.160673558712,32.965475963720564,于庙新日电动车,安徽省,,
韦寨镇,阜阳市,临泉县,115.160673558712,32.965475963720564,瓦店新日,安徽省,,
姜寨镇,阜阳市,临泉县,114.98617842793465,32.97338903393972,姜寨新日,安徽省,,
禹会虚镇,蚌埠市,禹会区,117.34122365713122,32.938602465321594,蚌埠市胜利路社区店,安徽省,,
黄庄街道,蚌埠市,禹会区,117.35529318451883,32.93522469446886,蚌埠市蚌山区世纪联华店,安徽省,,
梅桥镇,蚌埠市,淮上区,117.29880183935165,33.02901140646567,蚌埠市梅桥镇,安徽省,,
魏庄镇,蚌埠市,怀远县,117.24080175161362,33.09871753858287,怀远县魏庄镇新日,安徽省,,
十八里镇,亳州市,谯城区,115.66694855690004,33.866619479271584,十八里镇,安徽省,,
古井镇,亳州市,谯城区,115.72565004229546,33.99303823663075,张集镇,安徽省,,
安徽省蚌埠市淮河东路,蚌埠市,五河县,117.898267,33.14394,蚌埠广源摩托车修理部,安徽省,,
峨桥镇,芜湖市,三山区,118.28331604599953,31.168137932576755,芜湖峨桥镇新日电动车,安徽省,,
官陡街道,芜湖市,鸠江区,118.40212851762773,31.37091970506329,芜湖鸠兹家苑新日,安徽省,,
江心乡,马鞍山市,当涂县,118.4546595811844,31.59493597176891,江心洲新日,安徽省,,
博望镇,马鞍山市,博望区,118.79880845546722,31.55670049333511,马鞍山新博新日,安徽省,,
丹阳镇,马鞍山市,博望区,118.72707679867747,31.62595042240371,马鞍山丹阳新日,安徽省,,
晋熙镇,安庆市,太湖县,116.27344161272052,30.43052977887556,北门新日,安徽省,,
徐桥镇,安庆市,太湖县,116.3881368935108,30.271575825062747,徐桥镇新日,安徽省,,
大石乡,安庆市,太湖县,116.45929589867592,30.24249392426116,大石新日电动车,安徽省,,
黄铺镇,安庆市,潜山市,116.50009632110599,30.572636223561084,黄铺新日电动车,安徽省,,
黄泥镇,安庆市,潜山市,116.49334654211998,30.47596294950156,黄泥绿源电动车,安徽省,,
王河镇,安庆市,潜山市,116.57577216625212,30.511004575949382,王河新日电动车,安徽省,,
黄铺镇,安庆市,潜山市,116.47861987352374,30.560725061763026,棋盘新日电动车,安徽省,,
痘姆乡,安庆市,潜山市,116.49351954460147,30.617686785340897,痘姆新日电动车,安徽省,,
梅城镇,安庆市,潜山市,116.57751694321631,30.6265685948199,潜山县南门速派奇电动车,安徽省,,
张铺镇,滁州市,天长市,118.78602907061575,32.82064977161139,天长市平安镇新日电动车专卖店,安徽省,,
张铺镇,滁州市,天长市,118.79065588116647,32.75845339123361,天长市张铺镇,安徽省,,
龙狮桥乡,池州市,东至县,117.13242173194885,30.35768435925207,余桥新日电动车,安徽省,,
洛河镇,淮南市,大通区,117.09358066320421,32.675231494842336,淮南洛河镇,安徽省,,
九龙岗镇,淮南市,大通区,117.10254997015001,32.61057258183036,淮南九龙岗镇,安徽省,,
孙町镇,淮北市,濉溪县,116.77030876278877,33.621859494521345,杨柳新日电动车专卖店,安徽省,,
五沟镇,淮北市,濉溪县,116.68021336197855,33.59888486056715,童亭镇工人村新日电动车,安徽省,,
朱集乡,宿州市,灵璧县,117.48897582292557,33.84949998355654,朱集新日电动车,安徽省,,
时村镇,宿州市,埇桥区,117.33433842658997,33.7830297728823,时村镇新日电动车,安徽省,,
大通街道,淮南市,大通区,117.05327242612842,32.63153027373813,淮南大通区分销,安徽省,,
梅溪路256号,宣城市,宣州区,118.752911,30.939448,新日电动车,安徽省,,
阜南县鹿城镇地城南路五叉路口北路西（新日专卖）,阜阳市,阜南县,115.585438,32.617207,阜南县高峰电动车销售部,安徽省,,
宁国市宁阳中路290号,宣城市,宁国市,118.97971,30.618276,宁国市三和车行,安徽省,,
新淮街道,淮南市,田家庵区,117.02018469572067,32.65665179906091,淮南公园东门店,安徽省,,
公园街道,淮南市,田家庵区,117.01929554343225,32.648262179603115,淮南云景店,安徽省,,
安徽省芜湖市弋江区澛港大桥华波工贸公司厂内,芜湖市,弋江区,118.372655,31.311757,芜湖浚茂商贸有限公司,安徽省,,
寿春镇明珠大道南桥商厦小区,淮南市,寿县,116.784447,32.560585,寿县店,安徽省,,
城关镇,六安市,霍邱县,116.27789139747618,32.332882446892086,霍邱店,安徽省,,
安徽省泗县国防中段68号,宿州市,泗县,117.910629,33.482982,唐为民,安徽省,,
雨山街道,马鞍山市,雨山区,118.48829582333568,31.681980917370495,马鞍山售后,安徽省,,
弋矶山公共服务中心,芜湖市,镜湖区,118.37484642863274,31.351857181529496,芜湖银湖路店,安徽省,,
官陡街道,芜湖市,鸠江区,118.43314155936244,31.357000527141295,芜湖东方红郡新日,安徽省,,
向山镇,马鞍山市,雨山区,118.58857691287994,31.65589973431374,马鞍山向山镇新日,安徽省,,
桃源路街道,马鞍山市,雨山区,118.53167116642,31.669239148414256,马鞍山三姚新日,安徽省,,
佳山乡,马鞍山市,雨山区,118.46555739641192,31.6586063542585,马鞍山采石新日,安徽省,,
解放路街道,马鞍山市,花山区,118.52852761745454,31.691846483629632,马鞍山冯桥新日,安徽省,,
石桥镇,马鞍山市,当涂县,118.608937561512,31.40315091687933,马鞍山马桥新日,安徽省,,
湾里街道,芜湖市,鸠江区,118.38548541069032,31.404453533643917,芜湖信德华府新日,安徽省,,
白马街道,芜湖市,弋江区,118.37483033537866,31.19021821430472,芜湖石跪新日,安徽省,,
官陡街道,芜湖市,鸠江区,118.42102870345117,31.355633118688626,芜湖城市之光新日,安徽省,,
太白镇,马鞍山市,当涂县,118.48294615745544,31.511526678935937,马鞍山当涂太白新日,安徽省,,
弋江桥街道,芜湖市,弋江区,118.3841899037361,31.312932261058087,芜湖利民路新日,安徽省,,
水口镇,滁州市,来安县,118.47574442625049,32.322603984373735,天长（来安县水口）新日电动车,安徽省,,
西市街道,六安市,裕安区,116.4872793853283,31.742181621610502,六安磨子谭店,安徽省,,
范岗镇,安庆市,桐城市,116.86704263091087,30.97624424633269,五洋本田,安徽省,,
011县道东50米,安庆市,桐城市,116.939424,30.883652,台铃电动车,安徽省,,
同祥路东50米,安庆市,桐城市,116.987221,31.037658,开发区新日电动车,安徽省,,
新渡镇,安庆市,桐城市,116.80756598711014,30.864045147970018,新渡新日电动车,安徽省,,
双港镇,安庆市,桐城市,116.94422453641893,30.81154933873355,双港新日电动车,安徽省,,
府城镇,滁州市,凤阳县,117.55790591239929,32.86314875616574,凤阳县新日电动车专卖店,安徽省,,
雪华乡,蚌埠市,禹会区,117.35564053058629,32.9187797149828,蚌埠市光彩大市场新日店,安徽省,,
石梁镇,滁州市,天长市,118.87974545359614,32.68360955279904,天长市石梁雅迪,安徽省,,
薛阁街道,亳州市,谯城区,115.77801749110225,33.864471378014436,亳州新日店,安徽省,,
安徽省宣城市宣州区水东镇104省道,宣城市,宣州区,118.963533,30.794627,水东新日专卖店,安徽省,,
安徽省宣城市宣州区孙埠镇孙埠地方税务分局,宣城市,宣州区,118.889072,30.899743,孙铺新日专卖店,安徽省,,
安徽省宣城市宣州区鳌峰街道宛溪南路,宣城市,宣州区,118.760993,30.935782,宣港路口新日社区店,安徽省,,
周集镇,六安市,霍邱县,115.99838107824327,32.50757218369658,霍邱周集镇,安徽省,,
槐林镇,合肥市,巢湖市,117.54001960158348,31.369001717844057,巢湖沐集新日,安徽省,,
解放街道,蚌埠市,蚌山区,117.39043548703194,32.94266664971052,蚌埠广源电动车经营部,安徽省,,
新安镇,滁州市,来安县,118.42241540551188,32.462856793450676,来安复兴,安徽省,,
吴小街镇,蚌埠市,淮上区,117.44830146431923,32.987352472441906,蚌埠姚宋新日店,安徽省,,
铜城镇,滁州市,天长市,118.96266058087349,32.82717163023851,乔田新日,安徽省,,
安徽省宣城市宣州区水阳镇朝阳路,宣城市,宣州区,118.791214,31.229188,宣城市水阳镇新日,安徽省,,
安徽省宣城市宣州区水阳镇012县道,芜湖市,芜湖县,118.698645,31.186764,裘公新日,安徽省,,
塘西街道,马鞍山市,花山区,118.50752994418143,31.72070451680096,马鞍山南庙新日,安徽省,,
大关镇,安庆市,桐城市,117.03274682164194,31.180981242153585,桐城市州铺新日电动车,安徽省,,
安徽省宣城市宣州区文昌镇周慧娟口腔珍所,芜湖市,南陵县,118.497923,30.903586,文昌新日,安徽省,,
安徽省宣城市宣州区澄江街道陶然路徽商领尚花城南区,宣城市,宣州区,118.752954,30.95627,新日社区店,安徽省,,
方庙街道,合肥市,瑶海区,117.32618987560274,31.88323684969102,合肥摩配店,安徽省,,
三里庵街道,合肥市,蜀山区,117.25146889686587,31.844837597112523,合肥安大西门店,安徽省,,
小路口镇,黄山市,祁门县,117.611001,29.856724,小路口新日,安徽省,,
安徽省黄山市祁门县金字牌镇326省道,黄山市,祁门县,117.876612,29.845762,横联新日专卖店,安徽省,,
安徽省黄山市黄山区焦村镇黄山区国土资源局焦村国土资源所,黄山市,黄山区,118.071078,30.187297,焦村新日,安徽省,,
安徽省黄山市黄山区仙源镇103省道,黄山市,黄山区,118.204908,30.295511,仙源新日专卖店,安徽省,,
安徽省黄山市黄山区三口镇三口镇野生动物保护管理站,黄山市,黄山区,118.219288,30.26372,三口镇新日电动车专卖店,安徽省,,
048县道东50米,安庆市,潜山市,116.637425,30.756157,余井镇岭头街新日电动车,安徽省,,
源潭镇,安庆市,潜山市,116.73983752727509,30.810476991545812,潜山县源谭镇棋盘新日电动车,安徽省,,
053县道西50米,安庆市,潜山市,116.699661,30.847695,源谭镇双峰新日电动车,安徽省,,
048县道西50米,安庆市,潜山市,116.614008,30.723563,余井镇北街路新日电动车,安徽省,,
瀂港街道,芜湖市,弋江区,118.36848959326744,31.295063564868478,芜湖中央城新日,安徽省,,
刘府镇,滁州市,凤阳县,117.33913019299507,32.790342262744815,凤阳刘府新日,安徽省,,
安徽省宣城市宣州区沈村镇新河桥,宣城市,宣州区,118.867121,30.962579,新河桥新日专卖店,安徽省,,
安徽省黄山市休宁县齐云山镇326省道,黄山市,休宁县,118.057972,29.819481,齐云山新日专卖店,安徽省,,
博望镇,马鞍山市,博望区,118.83906304836275,31.562150278490144,马鞍山博望新日,安徽省,,
安民街道,马鞍山市,雨山区,118.50996404886247,31.672476116002038,马鞍山宝龙华庭新日,安徽省,,
江东大道与九华路口,马鞍山市,雨山区,118.525566,31.655809,马鞍山阳湖新日,安徽省,,
板桥集镇,亳州市,蒙城县,116.70803457498555,33.32503868512485,蒙城板桥新日,安徽省,,
坛城镇,亳州市,蒙城县,116.55909284949306,33.44227128341881,蒙城县坛城新日,安徽省,,
城关镇,亳州市,利辛县,116.20003491640091,33.16611199156403,城关新日,安徽省,,
人民大道中段与建设西路交叉口东北100米,铜陵市,铜官区,117.791994,30.952319,铜陵县新日电动车,安徽省,,
程家集镇,亳州市,利辛县,116.25695809721945,33.084861632901905,程集新日,安徽省,,
镜湖新城公共服务中心,芜湖市,弋江区,118.40954616665842,31.323238965696643,芜湖棠梅园新日,安徽省,,
黄圩镇,宿州市,泗县,117.76390492916109,33.67890099873077,黄圩新日专卖店,安徽省,,
上派镇,合肥市,肥西县,117.16845452785492,31.723043069660974,合肥肥西分销,安徽省,,
店埠镇,合肥市,肥东县,117.46296912431717,31.88211287975367,合肥肥东分销,安徽省,,
莲花社区,合肥市,蜀山区,117.23133355379105,31.761879512112888,合肥莲花路分销,安徽省,,
水湖镇,合肥市,长丰县,117.16941341757773,32.4802650305708,合肥长丰分销,安徽省,,
桃花镇,合肥市,蜀山区,117.20060616731642,31.789060573217064,合肥芙蓉路分销,安徽省,,
常青街道,合肥市,蜀山区,117.24935263395311,31.810117238058524,合肥金寨路分销,安徽省,,
夹沟镇,宿州市,埇桥区,117.05973789095881,33.89143286629752,宿州夹沟镇新日专卖店,安徽省,,
双沟镇,亳州市,谯城区,115.78639537096025,33.675873206597025,三官集,安徽省,,
古城镇,亳州市,谯城区,115.79428911209108,33.53538073362245,古城新日,安徽省,,
十九里镇,亳州市,谯城区,115.87564319372177,33.768207998672516,马寨新日,安徽省,,
谯东镇,亳州市,谯城区,115.87442681193355,33.86675422099119,谯东镇新日,安徽省,,
五马镇,亳州市,谯城区,115.8604846894741,33.8975098545041,五马镇新日,安徽省,,
华佗镇,亳州市,谯城区,115.78077882528305,33.94481405901291,华佗镇新日,安徽省,,
天长街道,滁州市,天长市,118.99310633540155,32.67428662816575,同心路菜场社区店（广喜）,安徽省,,
天长街道,滁州市,天长市,118.99294540286066,32.67201868158683,同心路（刁）速修店,安徽省,,
城东新区,滁州市,天长市,119.01786178350447,32.677515163594464,聚宝路社区店,安徽省,,
仁和集镇,滁州市,天长市,119.07957941293718,32.65108515424191,天长芦龙新日,安徽省,,
万寿镇,滁州市,天长市,119.07697230577469,32.69668077848776,天长河坝新日,安徽省,,
永丰镇,滁州市,天长市,118.99892270565034,32.7292427270354,天长永丰镇分销,安徽省,,
大通镇,滁州市,天长市,118.88585552573205,32.75614134219442,天长便益分销,安徽省,,
汊涧镇,滁州市,天长市,118.71900066733362,32.66473580186988,天长釜山分销,安徽省,,
半塔镇,滁州市,来安县,118.6515699326992,32.71851869344391,来安邵集分销（天长）,安徽省,,
半塔镇,滁州市,来安县,118.61393049359323,32.62315524062793,来安王集分销（天长）,安徽省,,
鹿城镇,阜阳市,阜南县,115.58951184153557,32.636637360308704,阜南新日专卖店,安徽省,,
符离镇,宿州市,埇桥区,116.979268938303,33.75316734156882,符离新日专卖店,安徽省,,
百善镇,淮北市,濉溪县,116.77709743380548,33.81847301553955,濉溪新日专卖店,安徽省,,
杨郢乡,滁州市,来安县,118.46172854304317,32.64811989932232,来安杨郢,安徽省,,
赵集镇,阜阳市,阜南县,115.53226143121718,32.700944511853926,赵集新日,安徽省,,
王店孜乡,阜阳市,阜南县,115.55398732423785,32.80675809324824,王店孜新日,安徽省,,
佳山乡,马鞍山市,雨山区,118.52991431951521,31.663208911152864,马鞍山大孔车业新日,安徽省,,
固镇镇,六安市,裕安区,116.3196386396885,32.0111884801612,六安固镇乡镇,安徽省,,
安徽省宣城市宣州区杨柳镇322省道,宣城市,宣州区,118.623745,30.829304,杨柳镇新日电动车专卖店,安徽省,,
安徽省宣城市宣州区养贤乡养贤派出所,宣城市,宣州区,118.721144,31.084957,养贤新日电动车专卖店,安徽省,,
永安镇,宿州市,埇桥区,117.1810045838356,33.79160886527472,宿州永安新日专卖店,安徽省,,
尧渡镇,池州市,东至县,117.02993050217628,30.10730467507568,东至县东流路新日电动车专卖店,安徽省,,
城关镇,亳州市,利辛县,116.17877572774887,33.145339892230126,园景天下新日社区店,安徽省,,
城父镇,亳州市,谯城区,116.01264372467998,33.630768474974126,城父镇新日专卖店,安徽省,,
合安路312号附近,合肥市,蜀山区,117.210201,31.765382,合肥照山新村分销,安徽省,,
大营镇,宿州市,埇桥区,116.98306962847712,33.3368521923096,宿州大营新日专卖店,安徽省,,
大龙山镇,安庆市,宜秀区,117.00788542628291,30.608386325141918,铜陵市顺安镇新日电动车,安徽省,,
大龙山镇,安庆市,宜秀区,117.00788542628291,30.608386325141918,铜陵市开发区新日电动车,安徽省,,
天堂镇,安庆市,岳西县,116.36405870318416,30.8471638119146,岳西县城东分销商新日电动车,安徽省,,
天长街道,滁州市,天长市,119.01439368724822,32.66770840841069,天长仁和南路分销店,安徽省,,
城关镇,亳州市,蒙城县,116.56496688723567,33.25977616346033,蒙城新日,安徽省,,
文峰街道,阜阳市,颍州区,115.82795083522797,32.898444682168915,阜阳新日,安徽省,,
城关镇,亳州市,利辛县,116.20613694190978,33.13831482093867,利辛新日,安徽省,,
亚父街道,合肥市,巢湖市,117.87155002355577,31.597935647740314,巢湖二店,安徽省,,
四里河路88号,合肥市,庐阳区,117.234438,31.898407,明发广场新日旗舰店,安徽省,,
经开区芙蓉路与繁华大道交汇处西北角,合肥市,蜀山区,117.190209,31.785676,一里洋房新日专卖店,安徽省,,
滨湖世纪社区,合肥市,包河区,117.29709863662721,31.737178080109327,万国农贸市场新日专卖店,安徽省,,
紫云路,合肥市,包河区,117.299577,31.742497,福州路新日专卖店,安徽省,,
东马路口,合肥市,包河区,117.306488,31.82069,珠光南苑新日专卖店,安徽省,,
半汤街道,合肥市,巢湖市,117.91647568345071,31.641583360450777,巢湖半汤新日,安徽省,,
建设东路与建设中路交叉口东南100米,阜阳市,太和县,115.622734,33.175654,新日电动车,安徽省,,
城关镇,阜阳市,太和县,115.62304750084876,33.17554151360464,新日电动车,安徽省,,
东城街道,阜阳市,界首市,115.36480441689491,33.25937357215953,界首新日电动车,安徽省,,
大圩镇,合肥市,包河区,117.37442672252655,31.77779738050547,大圩新日专卖店,安徽省,,
北京路和梁园路交叉口,合肥市,包河区,117.3196,31.81805,安佰苑新日专卖店,安徽省,,
上派镇新华街,合肥市,肥西县,117.172247,31.719357,新华街新日专卖店,安徽省,,
方集镇,阜阳市,阜南县,115.39957389235498,32.58431941288371,阜南县方集镇鸿达电动车门市部,安徽省,,
鹿城镇,阜阳市,阜南县,115.60088843107226,32.633270691356586,阜南县晓峰电动车销售部,安徽省,,
王店孜乡,阜阳市,阜南县,115.53486183285715,32.79321485728938,阜南县王店孜乡方坡车业,安徽省,,
王堰镇,阜阳市,阜南县,115.33525854349135,32.67983715347116,阜南堰沟李帅车业,安徽省,,
许堂乡,阜阳市,颍州区,115.70276141166691,32.74307093345862,阜南县许堂乡新集新日专卖,安徽省,,
段郢乡,阜阳市,阜南县,115.39812684059143,32.604287932811296,阜南县段郢新日专卖店,安徽省,,
孙庙乡,淮南市,谢家集区,116.95798292756079,32.43857739953525,淮南孙庙,安徽省,,
孙庙乡,淮南市,谢家集区,116.95798292756079,32.43857739953525,淮南孙庙镇,安徽省,,
大兴镇,合肥市,瑶海区,117.37271815538408,31.841639690703374,大兴新居新日专卖店,安徽省,,
城东街道,合肥市,包河区,117.34367653727531,31.846119234933187,裕溪路新日专卖店,安徽省,,
七里站街道,合肥市,瑶海区,117.34143555164337,31.867781345691125,东七新日专卖店,安徽省,,
合肥龙岗综合经济开发区,合肥市,瑶海区,117.36756563186647,31.868140116790922,长江批发市场新日专卖店,安徽省,,
合肥龙岗综合经济开发区,合肥市,瑶海区,117.38582074642181,31.875409771233308,皇马花园新日专卖店,安徽省,,
桃花镇,合肥市,肥西县,117.16282725334169,31.807315886440602,昌河厂新日专卖店,安徽省,,
桃花镇,合肥市,肥西县,117.16861411929132,31.77829444911832,繁华新园新日专卖店,安徽省,,
银杏路9号,合肥市,蜀山区,117.204011,31.819513,兴园小区新日专卖店,安徽省,,
井岗镇,合肥市,蜀山区,117.22494050860405,31.854635693094377,长江西路新日专卖店,安徽省,,
双岗街道,合肥市,庐阳区,117.27622702717781,31.883899609730577,义井路新日店,安徽省,,
五里墩街道,合肥市,蜀山区,117.24792435765268,31.87203867269348,清溪路新日专卖店,安徽省,,
西园街道,合肥市,蜀山区,117.22536966204645,31.844158606660304,岳西路新日专卖店,安徽省,,
七里塘街道,合肥市,瑶海区,117.32020720839502,31.899954709977152,五里山新日店,安徽省,,
双墩镇,合肥市,长丰县,117.26420536637305,32.00122394704748,双凤里新日专卖店,安徽省,,
双墩镇,合肥市,长丰县,117.24196985363962,32.01310006371334,北城二期泽徽苑新日店,安徽省,,
世纪西路与滁河路交叉口南150米,合肥市,长丰县,117.238871,31.997457,北城一期帝徽苑新日店,安徽省,,
庐阳工业区,合肥市,庐阳区,117.25939750671388,31.95208258400406,阿奎利亚新日店,安徽省,,
连水路,合肥市,庐阳区,117.270655,31.923767,荣成苑新日店,安徽省,,
亳州路街道,合肥市,蜀山区,117.25554987788202,31.876035005342743,肥西路新日店,安徽省,,
长淮街道,合肥市,庐阳区,117.29089200496675,31.89255718638399,元一名城新日店,安徽省,,
安徽省六安市金安区清水河街道刘园路,六安市,金安区,116.507708,31.782778,六安清水河学校,安徽省,,
安徽省六安市裕安区鼓楼街道解放中路水木清华,六安市,裕安区,116.500896,31.768327,新日电动车,安徽省,,
莲花社区,合肥市,蜀山区,117.21848443150522,31.785525583231273,宝塔路新日店,安徽省,,
芙蓉社区,合肥市,蜀山区,117.2067926824093,31.795047290825774,报业园店,安徽省,,
桃花工业园,合肥市,蜀山区,117.2052262723446,31.757864552461456,翡翠商场店,安徽省,,
淝河镇,合肥市,包河区,117.32765570282938,31.830948058167802,淝河小学店,安徽省,,
常青街道,合肥市,包河区,117.2570411860943,31.81640800286128,南二环与金寨路店,安徽省,,
清潭路与紫蓬路交叉口东150米,合肥市,蜀山区,117.268249,31.746862,滨湖前程店,安徽省,,
肥东新城开发区,合肥市,肥东县,117.44448602199557,31.880078994528564,御景花园店,安徽省,,
烟墩街道,合肥市,包河区,117.31102064251901,31.71182546404438,临湖苑店,安徽省,,
磨店乡,合肥市,瑶海区,117.3781442642212,31.936593116344905,磨店新日店,安徽省,,
双墩镇,合肥市,长丰县,117.2652205824852,32.003973911575514,双墩旗舰店,安徽省,,
七里塘街道,合肥市,瑶海区,117.30974256992339,31.892724568047544,新蚌埠路店,安徽省,,
七里塘街道,合肥市,瑶海区,117.324528247118,31.920177873208043,金辉悦府店,安徽省,,
南七街道,合肥市,蜀山区,117.25073397159578,31.830405695970672,望江路与合作化路店,安徽省,,
望湖街道,合肥市,包河区,117.28548467159273,31.828147338441813,望江路与徽州大道店,安徽省,,
清流街道,滁州市,南谯区,118.31577748060228,32.28801921715635,新日电动车辉煌车业,安徽省,,
荷叶地街道,合肥市,蜀山区,117.23811954259871,31.820308745580046,绿怡居店,安徽省,,
井岗镇,合肥市,蜀山区,117.20930054783823,31.86421064291653,金色池塘店,安徽省,,
高新技术产业开发区,合肥市,蜀山区,117.16422602534297,31.82846752266391,蜀南庭院店,安徽省,,
高新技术产业开发区,合肥市,肥西县,117.19360962510112,31.813927076679647,香御公馆店,安徽省,,
城关镇,阜阳市,临泉县,115.25423437356952,33.06184153255984,临泉新日电动车,安徽省,,
海棠街道,合肥市,庐阳区,117.2651454806328,31.890109052453607,茨河路店,安徽省,,
五里墩街道,合肥市,蜀山区,117.23073944449428,31.86221964554647,紫荆广场店,安徽省,,
方庙街道,合肥市,瑶海区,117.346857637167,31.876218360989213,瑶海万达店,安徽省,,
临淮岗乡,六安市,霍邱县,116.30692362785342,32.44742348859884,霍邱临淮,安徽省,,
龙蟠街道,滁州市,南谯区,118.34184587001802,32.26110944400785,新日电动车蒋氏车业,安徽省,,
凤凰街道,滁州市,南谯区,118.32841873168945,32.26856905394463,滁州金箭车行,安徽省,,
望湖街道,合肥市,包河区,117.30299815535547,31.84592898404439,海达小区店,安徽省,,
双凤开发区,合肥市,长丰县,117.25802555680275,31.975844865892693,金梅路店,安徽省,,
平山路,马鞍山市,雨山区,118.512351,31.642062,马鞍山晨光花园新日,安徽省,,
安徽省合肥市瑶海区七里塘街道新蚌埠路,合肥市,瑶海区,117.311316,31.897099,七里塘店,安徽省,,
原墙镇,阜阳市,太和县,115.73781654238702,33.300693978817456,太和县原墙新日电动车,安徽省,,
光武镇,阜阳市,界首市,115.37311524152756,33.37625892178883,界首光武新日电动车,安徽省,,
陶庙镇,阜阳市,界首市,115.37653774023059,33.17839486664139,界首陶庙蒋桥新日电动车,安徽省,,
大黄镇,阜阳市,界首市,115.42479738593103,33.31960480804815,界首大黄新日电动车,安徽省,,
王集镇,阜阳市,界首市,115.3647802770138,33.13853492441708,界首王集新日电动车,安徽省,,
安徽省合肥市肥西县严店乡043县道好又多购物中心,合肥市,肥西县,117.207064,31.632672,肥西严店新日店,安徽省,,
安徽省黄山市屯溪区昱东街道安东路安东新村,黄山市,屯溪区,118.334246,29.716454,新日世纪广场社区店,安徽省,,
安徽省黄山市屯溪区昱东街道安东路45号安东新村,黄山市,屯溪区,118.334308,29.716579,世纪广场新日社区店,安徽省,,
安徽省合肥市蜀山区南岗镇石莲北路合肥市琥珀中学教育集团南岗校区,合肥市,蜀山区,117.126819,31.857585,南岗惠民店,安徽省,,
安徽省合肥市蜀山区蜀山新产业园区稻香路109号公交蜀山园,合肥市,蜀山区,117.18038,31.859788,稻香路新日店,安徽省,,
安徽省宣城市宣州区向阳镇泥河路,宣城市,宣州区,118.780461,30.9301,新日中锐社区店,安徽省,,
安徽省合肥市肥东县撮镇镇和平路圣联东方早城,合肥市,肥东县,117.418338,31.836399,东方早晨店,安徽省,,
渔沟镇,宿州市,灵璧县,117.58236631751063,33.86103252176039,渔沟新日专卖店,安徽省,,
杨疃镇,宿州市,灵璧县,117.51103028655052,33.61008478224123,杨疃镇新日电动车,安徽省,,
052乡道与052县道交叉口东北200米,阜阳市,阜南县,115.632823,32.725248,阜南县田集庞友友车行,安徽省,,
宁老庄镇,阜阳市,颍泉区,115.728896856308,33.00714859899937,宁老庄新日电动车,安徽省,,
袁集镇,阜阳市,颍州区,115.8884882926941,32.79490251968249,袁集新日电动车,安徽省,,
富陂大道与淮河东路交叉口西北100米,阜阳市,阜南县,115.600889,32.633273,阜南新日骆寨店,安徽省,,
安徽省合肥市肥西县上派镇天海路,合肥市,肥西县,117.178036,31.742147,肥西社区店,安徽省,,
安徽省合肥市长丰县岗集镇合淮路,合肥市,庐阳区,117.185452,31.951753,岗集店,安徽省,,
武集乡017县道,滁州市,来安县,118.557315,32.381355,来安武集新日转卖,安徽省,,
新安镇,滁州市,来安县,118.43574866652492,32.45216986780705,来安新日专卖店,安徽省,,
新街镇石庙村石庙大队,滁州市,天长市,118.887779,32.635273,天长二站隆鑫车业,安徽省,,
铜城镇,滁州市,天长市,119.00221243500711,32.92728569350696,天长高庙专卖店,安徽省,,
于洼九年制学校(101县道东),滁州市,天长市,118.786772,32.609812,天长于洼新日专卖店,安徽省,,
万寿镇,滁州市,天长市,119.08176138997078,32.725486923472424,天长万寿新日专卖店,安徽省,,
汊河镇相官乡姚楼组,滁州市,来安县,118.530667,32.253333,来安相官爱玛电动车专卖,安徽省,,
新安镇,滁州市,来安县,118.37018743157385,32.47016286997229,来安陈桥专卖店,安徽省,,
312省道西100米,滁州市,来安县,118.557431,32.632273,来安大余郢新日专卖店,安徽省,,
独山镇,滁州市,来安县,118.6538015305996,32.409815954201235,来安独山爱玛专卖店,安徽省,,
安徽省大圹圩农场,滁州市,天长市,119.07437726855278,32.7477249767933,天长大圹圩新日专卖店,安徽省,,
雷官镇,滁州市,来安县,118.62094447016715,32.34553457212554,来安雷官雅迪专卖店,安徽省,,
汊河镇,滁州市,来安县,118.5957196354866,32.20658965166393,来安汊河雅迪专卖店,安徽省,,
姑孰镇,马鞍山市,当涂县,118.48783850669861,31.57431258426479,当涂襄河湾社区店,安徽省,,
雷官镇烟陈村,滁州市,来安县,118.67602,32.341772,来安烟陈新日专卖店,安徽省,,
大通镇元通西街144号,滁州市,天长市,118.83989,32.826323,天长大通新日专卖店,安徽省,,
施官镇,滁州市,来安县,118.58077034354208,32.45554220276911,来安施官新日专卖店,安徽省,,
大通镇,滁州市,天长市,118.9003823697567,32.8296936928805,天长市王伟车行,安徽省,,
临淮岗乡032县道,六安市,霍邱县,116.309583,32.445442,霍邱莫店,安徽省,,
城关镇,六安市,霍邱县,116.27722755074502,32.340866431649054,霍邱旗舰店,安徽省,,
张庄寨镇,宿州市,萧县,116.60698235034943,34.13971885236083,萧县张庄寨新日电动车,安徽省,,
清河街道,阜阳市,颍州区,115.87581217288974,32.8748217651216,新日电动车,安徽省,,
新乌江镇,阜阳市,颍东区,116.16036102175711,32.86347318361972,乌江家电城新日电动车,安徽省,,
安徽省合肥市包河区望湖街道巢湖南路,合肥市,包河区,117.324836,31.840348,五里庙店,安徽省,,
向阳街道,阜阳市,颍东区,115.85621193051338,32.89824762534193,和谐佳苑新日电动车,安徽省,,
飞彩街道,宣城市,宣州区,118.73301386833194,30.951070991434097,石板桥新日速修店,安徽省,,
双桥街道,宣城市,宣州区,118.81231740117073,30.9557001942543,双桥新日电动车,安徽省,,
洪林镇,宣城市,宣州区,118.98435026407243,30.977560800864016,洪林桥新日电动车,安徽省,,
元宝街与叠嶂中路交叉口东南200米,宣城市,宣州区,118.758184,30.942922,元宝街速修店,安徽省,,
市府巷与高桥路交叉口东150米,宣城市,宁国市,119.0132,30.640687,百合家园新日电动车,安徽省,,
凤行路101号,宣城市,宁国市,118.963927,30.608779,三津中学社区店,安徽省,,
祁山镇,黄山市,祁门县,117.69197881221771,29.858944281302236,祁门新日专卖店分店,安徽省,,
汤沟镇,铜陵市,枞阳县,117.49472647905353,30.800746995970155,汤沟镇新日,安徽省,,
枞阳镇,铜陵市,枞阳县,117.22892761230467,30.711136872116974,枞阳县城渡江路新日,安徽省,,
老洲镇,铜陵市,郊区,117.71681204438212,30.85097368355262,老洲镇新日,安徽省,,
雨坛镇,铜陵市,枞阳县,117.15432733297347,30.809404632388787,雨坛镇新日,安徽省,,
欧山镇,铜陵市,枞阳县,117.4174265563488,30.754848274397578,白荡镇新日,安徽省,,
周潭镇,铜陵市,郊区,117.56656005978589,30.910307077181034,周潭镇新日,安徽省,,
会宫镇,铜陵市,枞阳县,117.25683733820917,30.827888770188604,会宫镇新日,安徽省,,
横埠镇,铜陵市,枞阳县,117.504271119833,30.896926606993514,横埠镇新日,安徽省,,
麒麟镇,铜陵市,枞阳县,117.14010894298555,30.996828711384904,麒麟镇新日,安徽省,,
钱桥镇,铜陵市,枞阳县,117.23821073770523,30.979393598504526,钱桥镇新日,安徽省,,
与儿街镇,六安市,霍山县,116.44961178302768,31.385092130755964,六安霍山与儿街,安徽省,,
桃溪镇,六安市,舒城县,116.99590668082239,31.52736286277903,舒城桃溪,安徽省,,
096乡道,六安市,舒城县,117.008759,31.456066,舒城孔集,安徽省,,
杭埠镇,六安市,舒城县,117.15883210301399,31.51256825457222,舒城杭埠,安徽省,,
百神庙镇,六安市,舒城县,117.09070533514024,31.41212120732024,舒城百神庙,安徽省,,
白马宕初级中学南110米,六安市,舒城县,117.03113,31.43619,舒城白马宕,安徽省,,
伏虎路1号,六安市,舒城县,116.936101,31.438149,舒城中学,安徽省,,
城关镇龙舒西路,六安市,舒城县,116.936279,31.458174,舒城龙舒西路,安徽省,,
天长街道,滁州市,天长市,118.98483574390411,32.67001371919578,新日丽阳兰庭社区店,安徽省,,
水口镇,滁州市,来安县,118.5516093671322,32.37976326207301,来安武集新日专卖店,安徽省,,
新安镇,滁州市,来安县,118.43808487057687,32.453207609829235,来安县新日专卖店,安徽省,,
永丰镇,滁州市,天长市,119.05688121914865,32.74932665141942,天长桥湾新日专卖店,安徽省,,
新街镇,滁州市,天长市,118.88777866959572,32.63527534847691,天长二站爱玛专卖店,安徽省,,
铜城镇高庙街道,滁州市,天长市,119.003647,32.927033,天长高庙新日专卖店,安徽省,,
汊涧镇,滁州市,天长市,118.78970906138423,32.59440083447971,天长于洼新日专卖店,安徽省,,
汊河镇,滁州市,来安县,118.55198889970781,32.254326314245645,来安相官爱玛专卖店,安徽省,,
舜山镇,滁州市,来安县,118.3764825761318,32.505155245181,来安陈桥新日专卖店,安徽省,,
独山镇,滁州市,来安县,118.68345335125922,32.44195816580149,来安独山爱玛专卖店,安徽省,,
安徽省大圹圩农场,滁州市,天长市,119.1118088364601,32.78950346567434,天长大圹新日专卖店,安徽省,,
雷官镇,滁州市,来安县,118.62094447016715,32.34553457212554,来安雷官新日专卖店,安徽省,,
大英镇,滁州市,来安县,118.5975006222725,32.295719213396765,来安大英新日专卖店,安徽省,,
雷官镇,滁州市,来安县,118.65820035338403,32.343576701753506,来安烟陈新日专卖店,安徽省,,
大通镇,滁州市,天长市,118.84718343615533,32.82620583482887,天长大通新日专卖店,安徽省,,
大通镇,滁州市,天长市,118.8994999229908,32.83186747760361,天长坝田新日专卖店,安徽省,,
新安镇,六安市,裕安区,116.49747446179389,31.861219574578936,六安新安老街,安徽省,,
徐集镇,六安市,裕安区,116.35705277323723,31.827551405420017,六安徐集,安徽省,,
湖心路313号附近,滁州市,南谯区,118.334672,32.285862,爱德森电动车湖心路专卖店,安徽省,,
扬子西路,滁州市,琅琊区,118.33961,32.319546,滁州扬子路新日专卖店,安徽省,,
阜阳开发区京九街道,阜阳市,颍州区,115.83011940121649,32.86911780605616,天瑞名城新日电动车,安徽省,,
扬子街道,滁州市,琅琊区,118.34670335054398,32.337611054273445,滁州扬子加气站飞野专卖店,安徽省,,
阜阳开发区京九街道,阜阳市,颍州区,115.86186200380325,32.83454716594049,十八里铺新日电动车,安徽省,,
王店镇,阜阳市,颍州区,115.80351054668428,32.81951034126406,王店楠楠车行,安徽省,,
三合镇,阜阳市,颍州区,115.7194246351719,32.833143100471965,十二里庙,安徽省,,
袁寨镇,阜阳市,颍东区,115.94051241874698,32.85146069105352,袁寨新日电动车,安徽省,,
新华街道,阜阳市,颍东区,115.89569136500359,32.963448357454695,辛桥新日电动车,安徽省,,
中山南路街道,芜湖市,弋江区,118.36849629878998,31.31958546191726,芜湖金域蓝湾新日,安徽省,,
汀棠公共服务中心,芜湖市,镜湖区,118.37492555379869,31.368288331117924,芜湖泰苑新村新日,安徽省,,
马塘街道,芜湖市,弋江区,118.39076533913615,31.29014260425571,芜湖弋江嘉园兔子车行,安徽省,,
官陡街道,芜湖市,鸠江区,118.41394230723382,31.363157054529832,芜湖旭日天都新日,安徽省,,
雨山街道,马鞍山市,雨山区,118.48488137125968,31.673316156852742,马鞍山雨山西路新日,安徽省,,
会峰西路555号,滁州市,南谯区,118.327211,32.276172,中都大道新日专卖店,安徽省,,
芦村镇,阜阳市,界首市,115.3631427884102,33.45924036944916,芦村新日,安徽省,,
扬子街道,滁州市,琅琊区,118.35638076066971,32.31761618646231,滁州扬子高桥新日专卖店,安徽省,,
龙蟠大道,滁州市,南谯区,118.315061,32.250239,滁州龙蟠南苑雅迪专卖店,安徽省,,
璜田乡,黄山市,歙县,118.64836737513544,29.715860147716523,璜田新日电动车,安徽省,,
富溪乡,黄山市,徽州区,118.2235859334469,29.998307931669935,富溪新日电动车,安徽省,,
十字镇,滁州市,全椒县,118.29248249530792,32.14935182728992,全椒县十字镇新日专卖店,安徽省,,
毛坦厂镇,六安市,金安区,116.57426074147226,31.350806947005438,六安毛坦厂,安徽省,,
万佛湖镇,六安市,舒城县,116.7669962346554,31.329553499016637,舒城万佛湖,安徽省,,
二郎口镇,滁州市,全椒县,118.13559740781784,31.964810420142772,全椒二郎口镇王记车行,安徽省,,
千人桥镇,六安市,舒城县,117.05879241228104,31.47688167559387,舒城千人桥,安徽省,,
杨滩乡,宣城市,广德县,119.17881846427917,30.70483426629109,杨滩新日电动车,安徽省,,
桃州镇,宣城市,广德县,119.42199558019638,30.896286764695873,桃州新日电动车,安徽省,,
柏垫镇,宣城市,广德县,119.25217285752296,30.771522291796014,柏垫新日电动车,安徽省,,
广溧路,宣城市,广德县,119.416837,30.918496,四里棚社区店,安徽省,,
誓节镇,宣城市,广德县,119.25436690449716,30.98429161770658,杨杆新日电动车,安徽省,,
南港镇,六安市,舒城县,117.00157016515732,31.370336870102346,舒城南岗店,安徽省,,
干汊河镇,六安市,舒城县,116.89118117094041,31.413753325668072,舒城干叉河,安徽省,,
安徽省合肥市长丰县双凤开发区蒙城北路雷克泰酒店(北城店),合肥市,长丰县,117.254368,31.98147,瑞龙花园店,安徽省,,
安徽省合肥市长丰县双墩镇泉河路北城中环城1期,合肥市,长丰县,117.252179,32.030407,中环城新日店,安徽省,,
005县道与068乡道交叉口东北150米,宿州市,砀山县,116.209651,34.479219,谢集新日电动车,安徽省,,
薛楼板材加工园,宿州市,砀山县,116.39351874589921,34.3301993368767,周庄新日电动车,安徽省,,
唐寨镇,宿州市,砀山县,116.59860312938692,34.390673923539524,文庄新日电动车,安徽省,,
唐寨镇004县道惠隆大厦,宿州市,砀山县,116.599357,34.429792,唐寨新日电动车,安徽省,,
砀城镇,宿州市,砀山县,116.41097992658618,34.43777563614701,曹阁新日电动车,安徽省,,
田桥街道,阜阳市,临泉县,115.23341238498688,33.02161270914864,临泉县田桥乡王伟车业,安徽省,,
黄岭镇,阜阳市,临泉县,115.124831199646,33.02789152195844,临泉黄岭记伟车业,安徽省,,
006乡道北100米,阜阳市,临泉县,115.210102,32.727702,临泉县闫楼李大强车业,安徽省,,
迎仙镇,阜阳市,临泉县,115.15990242362025,32.91785431967474,临泉县迎仙任有付车业,安徽省,,
韦寨镇,阜阳市,临泉县,115.21320462226869,32.97480212813789,临泉县韦寨亮亮车业,安徽省,,
单桥镇,阜阳市,临泉县,115.2531708776951,32.99185310694156,临泉县梁塘吴彪家电城,安徽省,,
江店孜镇,阜阳市,颍上县,116.45366191864015,32.65721070266912,颖上县江店孜镇小虎车业,安徽省,,
夏桥镇,阜阳市,颍上县,116.32756724953651,32.6412212925705,颖上县夏桥新日专卖店,安徽省,,
楚店镇,亳州市,涡阳县,116.10634267330171,33.38789415411089,楚店三伟车行,安徽省,,
石弓镇,亳州市,涡阳县,116.42384916543962,33.70695629305565,石弓三槐车行,安徽省,,
城关街道,亳州市,涡阳县,116.1959083378315,33.5056715699191,大江摩托车,安徽省,,
运漕镇,马鞍山市,含山县,118.07955533266068,31.42951451073256,运漕新日,安徽省,,
城关街道,亳州市,涡阳县,116.22451141476631,33.510781843277655,老一中新日,安徽省,,
栏杆集镇,合肥市,巢湖市,117.82117411494256,31.97549447806821,栏杆集新日,安徽省,,
龙山镇,亳州市,涡阳县,116.3118173182011,33.57813318188992,龙山爱玛,安徽省,,
星园街道,亳州市,涡阳县,116.16632759571077,33.514718896201735,天能电池,安徽省,,
林头镇,马鞍山市,含山县,117.95336410403252,31.554009194516105,林头新日,安徽省,,
许堂乡,阜阳市,阜南县,115.72436928749087,32.753144611755225,许堂新健车业,安徽省,,
曹市镇,亳州市,涡阳县,116.48530930280685,33.47392073272513,曹市超威,安徽省,,
清溪镇,马鞍山市,含山县,117.99526691436766,31.65439285142691,清溪镇新日,安徽省,,
天静宫街道,亳州市,涡阳县,116.21748670935632,33.52092098449553,薛想车行,安徽省,,
焦陂镇,阜阳市,阜南县,115.79130113124846,32.701360942865215,焦坡李锋车业,安徽省,,
会龙镇,阜阳市,阜南县,115.49828991293909,32.701682575243105,阜南会龙新日,安徽省,,
安徽阜南经济开发区,阜阳市,阜南县,115.61599999666217,32.65330507889706,阜南刘超车业,安徽省,,
太白镇,马鞍山市,当涂县,118.4726504981518,31.53909307785452,滨江小区新日,安徽省,,
薛阁街道,亳州市,谯城区,115.7975372672081,33.86493351944719,谯城区交通路明明车业,安徽省,,
赵桥乡,亳州市,谯城区,115.81279769539834,33.741487549613495,谯城区王楼新日,安徽省,,
亳州市经济技术开发区,亳州市,谯城区,115.76541379094125,33.8020816158956,谯城区南部新区新日,安徽省,,
三元乡,六安市,叶集区,116.0582010447979,31.940717523230198,六安叶集区三元镇,安徽省,,
嵆康路与紫苑路交叉口南200米,亳州市,谯城区,115.783055,33.823364,谯城区易阳电动车维修部,安徽省,,
观堂镇,亳州市,谯城区,115.99040821194652,33.799643252273015,谯城区观堂小吨车业,安徽省,,
