address,city,districd,lat,lon,name,province,street,town
文化路与凯旋路交叉口北150米路西新日专卖店,济南市,章丘区,117.455811,36.728695,商丘市梁园区恒发电动车经营部,山东省,,
潍坊市胜利西街229号,潍坊市,潍城区,119.107377,36.708136,奎文区东关百益欣电动车超市,山东省,,
山东省东营市河口区海盛路202号,东营市,河口区,118.542262,37.878153,河口区海盛路新日电动车专卖,山东省,,
邹城市铁山路中段271号,济宁市,邹城市,116.965322,35.402966,邹城市欣泰电动车行,山东省,,
济宁市兖州区龙桥南路,济宁市,兖州区,116.816197,35.538727,济宁市兖州区王雷阳光车行,山东省,,
曲阜市静轩西路49号,济宁市,曲阜市,116.986828,35.589349,曲阜市欣泰车行,山东省,,
山东省鄄城县汽车站东50米路南,菏泽市,鄄城县,115.514118,35.554629,鄄城鲁西车行,山东省,,
山东省东营市西三路光彩大厦,东营市,东营区,118.506113,37.459123,东营区奥斯电动车专卖店,山东省,,
山东省菏泽市巨野县前进路中段路东,菏泽市,巨野县,116.100458,35.404123,山东巨野尧舜车业有限公司,山东省,,
山东省滨州市惠民县东门大街,滨州市,惠民县,117.513881,37.487964,惠民县孙武镇奥斯电动车专卖店,山东省,,
山东省菏泽市牡丹区八一街新日专卖店,菏泽市,牡丹区,115.463607,35.249332,菏泽市牡丹区长久电器销售有限公司,山东省,,
山东省滨州市沾化县富电路,滨州市,沾化区,118.132059,37.695325,沾化县平安人家电动车行,山东省,,
广饶县大王镇大王南村156号,东营市,广饶县,118.516337,36.976273,广饶县大王镇翔鹰电动车销售中心,山东省,,
山东临朐沂山镇蒲沟村,潍坊市,临朐县,118.705119,36.219195,临朐县明磊摩托车销售部,山东省,,
高密市立新街华联东新日专卖,潍坊市,高密市,119.764067,36.378441,高密市宏伟电动车商行,山东省,,
诸城市市场街中段新日专卖,潍坊市,诸城市,119.40309,36.002032,诸城市远晖车行,山东省,,
潍坊滨海开发区华彤电动车经销店一店,潍坊市,寒亭区,119.150726,37.020399,滨海开发区华彤电动车经销店一店,山东省,,
山东省寿光市金光街全福元电动车城（百大家电城旁）,潍坊市,寿光市,118.739903,36.881555,山东全福元商业集团有限责任公司,山东省,,
山东省昌乐县新昌路242号,潍坊市,昌乐县,118.836553,36.699888,昌乐县心诚电动车销售中心,山东省,,
安丘市一马路新日专卖店,潍坊市,安丘市,119.197908,36.43394,安丘市利达电动车门市,山东省,,
青州市大润发商场专卖店,潍坊市,青州市,118.48716,36.685515,青州市永拓商贸有限公司,山东省,,
山东省汶上县中都大街258号,济宁市,汶上县,116.494195,35.720398,汶上县兴业车行,山东省,,
利津县凤凰街道新日电动车经销店,东营市,利津县,118.21783,37.490969,利津县凤凰街道新日电动车经销店,山东省,,
山东省滨州市现代电动车销售中心王强:13854365967,滨州市,滨城区,117.970703,37.38199,滨州市滨城区新世纪电动车销售中心,山东省,,
山东省无棣县新一路280号经贸委楼下,滨州市,无棣县,117.610072,37.744189,无棣县方圆车业销售中心,山东省,,
山东定陶县兴华路西段农机公司大门东侧,济南市,长清区,116.747759,36.559919,葛真芝,山东省,,
山东省济宁市琵琶山路37号 汇众商贸有限公司,济宁市,任城区,116.60577,35.409484,济宁市新众商贸有限公司,山东省,,
山东省淄博市临淄区大顺路北首曙光大酒店南邻,淄博市,临淄区,118.296009,36.817635,淄博市临淄金爵摩托商行,山东省,,
山东省淄博市张店区共青团西路11号（淄博饭店路口向西200米路南）,淄博市,张店区,118.057585,36.805265,淄博海陆贸易有限公司,山东省,,
山东省淄博市周村区站北路25-7号,淄博市,周村区,117.85016,36.794946,周村顺鑫车行,山东省,,
山东省淄博市高青县鲁中摩托城3号飞马车行,淄博市,高青县,117.826916,37.171063,高青晓燕商贸有限公司,山东省,,
山东省淄博市桓台县索镇商业街,淄博市,桓台县,118.111563,36.957522,桓台琪恒电动车销售有限公司,山东省,,
山东省曹县中兴路路西6号,菏泽市,曹县,115.537537,34.885737,山东省曹县燕博摩托车销售有限公司,山东省,,
莱芜市莱城区秀水佳苑3号沿街楼新日电动车专卖店,济南市,莱芜区,117.686486,36.19691,莱芜市宏轩商贸有限公司,山东省,,
山东济阳县老汽车站西68米路南（纬二路68号）,济南市,济阳区,117.194438,36.975626,济阳县爱鑫电动车销售中心,山东省,,
山东省淄博市博山区税务街1号光明摩托有限公司,淄博市,博山区,117.863264,36.499236,淄博博山光明摩托车有限公司,山东省,,
山东省淄博市淄川区松岭东路13号山东新星集团摩托车公司张化业,淄博市,淄川区,117.972647,36.648573,"山东新星集团有限公司（原注册名称）\n', '淄博新星商厦有限公司摩托车城（家电下乡注册名称）",山东省,,
山东省沂源县居家城中心街新日专卖店,淄博市,沂源县,118.16422,36.183362,淄博运合车业有限公司,山东省,,
山东省新泰市东周路南段,泰安市,新泰市,117.768287,35.900333,新泰市中邦达电动车经营部,山东省,,
山东省济南市长清区中川街黄河商场北门西50米路北,济南市,长清区,116.737564,36.561051,济南飞达摩托车销售有限公司摩托车超市,山东省,,
山东章丘明水102省道与利民大道相交处明水查旧村向北800米,济南市,章丘区,117.553227,36.73249,济南绣江电动车有限公司,山东省,,
平阴县南门路豪爵专卖店（国棉厂家属院对过）,济南市,平阴县,116.447113,36.278166,平阴县鑫利达商贸有限公司,山东省,,
宁阳县万达中心商场（娄芳）,泰安市,宁阳县,116.797007,35.761059,宁阳县娄芳电动车销售中心,山东省,,
山东省泰安市青年路28号-5,泰安市,泰山区,117.129723,36.186545,泰安市万里车业有限公司,山东省,,
山东省肥城市新城农机公司沿街开发楼,泰安市,泰山区,117.144716,36.201634,肥城市兴达电动车总汇,山东省,,
山东省济南市中区十六里河街道办事处大涧沟西村村西望岳路388-10号,济南市,市中区,116.987062,36.567954,济南鲁轻电动车有限公司,山东省,,
平度市李园办事处高平路西侧,青岛市,平度市,119.953628,36.795681,平度市鑫东升电动三轮车厂,山东省,,
青岛市李沧区九水路39号,青岛市,李沧区,120.427354,36.15665,李沧区金东升摩托车商城,山东省,,
山东省德州夏津县新工街,德州市,夏津县,116.00706,36.969315,夏津县诚发电动车经营店,山东省,,
聊城高唐县东兴路中段路东,聊城市,高唐县,116.252443,36.856402,高唐县海新车行,山东省,,
山东省聊城市阳谷县狮子楼办事处狮子楼路,聊城市,阳谷县,115.784459,36.121415,阳谷县狮子楼办事处狮子楼路铭宇电动车行,山东省,,
山东省日照市凌云大厦电动车卖场及海曲东路电动车一条街,日照市,东港区,119.481177,35.414873,日照凌云工贸有限公司,山东省,,
山东德州禹城市开拓路市立医院旁,德州市,禹城市,116.637527,36.937509,禹城市君睿电动车销售部,山东省,,
山东省青岛市莱西市豪帝商城A1区18号网点,青岛市,莱西市,120.528158,36.864123,莱西市金秋电动车销售部,山东省,,
山东省德州市陵县陵州路公路局对面,德州市,陵城区,116.58368,37.328302,陵县远方电动车维修部,山东省,,
山东省聊城市东昌府区利民东路与育新街交叉口新日电动车专卖店,聊城市,东昌府区,115.992104,36.454284,聊城市东昌府区东山车业商行,山东省,,
山东省济南市商河县中心大街,济南市,商河县,117.416331,37.258085,济南龙创科贸有限公司(直营),山东省,,
山东省泰安市新泰市青云街道东周路南段西侧1幢15号,泰安市,新泰市,117.768287,35.900333,山东宝柔国际贸易有限公司,山东省,,
日照市岚山区安东卫街道办事处南门外,日照市,岚山区,119.278587,35.130532,日照市岚山区扬子电动车超市,山东省,,
山东省日照市莒县青年中路新日电动车专卖店,日照市,莒县,118.755446,35.773606,莒县万顺电动车经销处,山东省,,
山东省即墨市岙兰路630号（个体车站西行88米路北）,青岛市,即墨区,120.457867,36.392839,青岛东瑞车业有限公司,山东省,,
山东省平原县十号路北京新日专卖,德州市,平原县,116.434056,37.165314,平原县新日电动车专卖店,山东省,,
山东省临清市红星路中段军辉电动车大世界,聊城市,临清市,115.718346,36.84341,临清市红星路新日电动车专卖店,山东省,,
山东省枣庄市峄城区承水中路新日专卖店,枣庄市,峄城区,117.588238,34.763328,峄城区名禄车行,山东省,,
山东省招远市医药公司对面三金摩托车销售公司,烟台市,招远市,120.400002,37.362871,招远市三金摩托有限公司,山东省,,
山东省莱州市府前西街638号,烟台市,莱州市,119.937541,37.176687,莱州市府前西街启迪电动经销处,山东省,,
山东省栖霞市桃村镇北京路农信分社对面,烟台市,栖霞市,121.153301,37.188372,栖霞新日电动车商行,山东省,,
山东省莱阳市七星街,烟台市,莱阳市,120.708761,36.975795,莱阳市仁中交电有限责任公司,山东省,,
山东省临沂市临西一路与银雀山路交汇处西50米路北,临沂市,兰山区,118.32789,35.060153,临沂永吉商贸有限公司,山东省,,
山东省兰陵县中兴路中段东侧（新日电动车）,临沂市,兰陵县,118.049495,34.849683,苍山县御驾电动车销售有限公司,山东省,,
山东蒙阴新城路中段（新城花园对过）,临沂市,蒙阴县,117.955335,35.705451,蒙阴县汇金电动车销售中心,山东省,,
沂水县城牛岭埠桥北头向西50米天隆摩托车商城,临沂市,沂水县,118.641854,35.804123,沂水天隆摩托车商场,山东省,,
山东省龙口市东莱街南段劳动局南100路东,烟台市,龙口市,120.52891,37.640492,龙口市黄城方通电动车店,山东省,,
山东省乳山市市区青山路79号,威海市,乳山市,121.523154,36.911631,乳山市宗申摩托车经销部,山东省,,
山东省威海市荣成市石岛区黄海中路141号,威海市,荣成市,122.409224,36.914162,荣成市威隆摩托销售中心,山东省,,
山东省威海市世昌大道古山伍巷9-10,威海市,环翠区,122.10115,37.501394,威海高技术产业开发区新日车行,山东省,,
山东省枣庄市君山路三江大厦对过,枣庄市,市中区,117.569869,34.865462,枣庄新瑞商贸有限公司,山东省,,
山东省滕州市南环路大同天下斜对面,枣庄市,滕州市,117.16473,35.064583,滕州市新华兴车城,山东省,,
威海文登市昆嵛路37号,威海市,文登区,122.05558,37.1927,文登市百大摩托车总汇,山东省,,
山东省烟台市福山区摩托车市场,烟台市,福山区,121.258934,37.494041,烟台市福山区城区红利摩托车配件商店,山东省,,
山东省烟台市蓬莱市东关路102号,烟台市,蓬莱市,120.764623,37.807683,蓬莱市登州联众电动车行,山东省,,
山东省平邑县武台镇新日电动车专卖店,临沂市,平邑县,117.700413,35.649194,平邑县明宇电动车销售中心,山东省,,
山东省枣庄市台儿庄区兴中路中段（妇幼保健院对过）,枣庄市,台儿庄区,117.735655,34.56552,台儿庄区兴中路邦妮电动车经销处,山东省,,
山东沂南县花山路中段新日电动车专卖店,临沂市,沂南县,118.462415,35.553498,沂南县天隆汽贸有限公司,山东省,,
郯城县建设路138号（红旗机械厂楼下）,临沂市,郯城县,118.34583,34.60713,郯城县保强车辆经营部,山东省,,
金塔县泰安家园楼下,泰安市,岱岳区,117.074739,36.189751,金塔县新日电动车经销店,山东省,,
山东省烟台市牟平区工商大街新日电动车专卖店,烟台市,牟平区,121.60297,37.378902,烟台市牟平区悦华自行车商行,山东省,,
荣成市成山镇学洪摩托家电家具商场,威海市,荣成市,122.552273,37.363389,荣成市成山镇学洪商场,山东省,,
烟台市莱山区迎春大街425号钱江摩托,烟台市,莱山区,121.427469,37.447939,莱山区正大机电经销中心,山东省,,
烟台市芝罘区芝罘屯路65号新日电动车,烟台市,芝罘区,121.360393,37.558247,芝罘区舜强电动车行,山东省,,
山东省莒南县老汽车站东临,临沂市,莒南县,118.836861,35.170152,山东莒南县新日,山东省,,
山东省枣庄市台儿庄区兴中路建设银行北侧,枣庄市,台儿庄区,117.73525,34.565807,枣庄市台儿庄区泰和商行(直营),山东省,,
山东台儿庄区兴中路,枣庄市,台儿庄区,117.735072,34.570255,台儿庄新日电动车专卖店(直营),山东省,,
费县建设路中段医药公司一楼,临沂市,费县,117.97175,35.270286,费县浩达摩托车销售中心,山东省,,
栖霞市迎宾路铆焊场门市房汽车站向南1000米路西,烟台市,栖霞市,120.824099,37.293916,栖霞市海龙电动车专卖店(直营),山东省,,
临沭县城中山路（交通大楼沿街楼）金狮专卖店,临沂市,临沭县,118.644751,34.916473,临沭新日专卖店,山东省,,
依安县泰安大街158号,泰安市,岱岳区,117.093329,36.135421,齐齐哈尔依安县长城摩托车销售有限公司,山东省,,
山东省台儿庄区购物中心北侧,枣庄市,台儿庄区,117.733832,34.562528,台儿庄区金兴车行,山东省,,
威海市张村镇沈阳中路631号5,威海市,环翠区,122.032297,37.477818,威海市环翠区迅驰电动车行(直营),山东省,,
山东莒南县文化广场东侧45号成武摩托车销售有限公司,临沂市,莒南县,118.838908,35.180103,莒南县成武摩托车销售有限公司(直营),山东省,,
费县费城建设中路南侧,临沂市,费县,117.977325,35.265961,费县新日电动车专卖店(直营),山东省,,
山东省沂南县振兴路1号对过,临沂市,沂南县,118.454476,35.543564,山东沂南县盛隆电动车销售中心,山东省,,
山东省郯城县建设路10号家和超市西邻新日专卖店,临沂市,郯城县,118.362447,34.607772,山东省郯城县新日专卖店,山东省,,
山东海阳市阳光城B45号,烟台市,海阳市,121.172107,36.787102,海阳市东海电动车车行(直营),山东省,,
烟台市芝罘区黄务镇黄务市场,烟台市,芝罘区,121.364083,37.463204,烟台市福山区清洋小松电动车销售部(直营),山东省,,
山东省烟台市牟平区工商大街北京新日专卖店昌盛,烟台市,牟平区,121.580144,37.37815,烟台市牟平区新日电动车(直营),山东省,,
山东省青岛平度市郑州路88号(成车地址)。,青岛市,平度市,119.94981,36.782339,山东省平度市万顺电动车商行(直营),山东省,,
牡丹江路568-572号,菏泽市,曹县,115.57112,34.912867,上海健茂贸易有限公司(直营),山东省,,
山东省聊城市东昌府区胜达电动车经销处利民东路8号,聊城市,东昌府区,115.994586,36.450601,聊城市新口电动车专卖店(直营),山东省,,
山东省冠县北顺摩托车销售中心,聊城市,冠县,115.44274,36.484009,冠县北顺摩托车销售部(直营),山东省,,
山东莘县朝城镇武阳商城东首,聊城市,莘县,115.59569,36.053356,山东莘县朝城志忠摩托城(直营),山东省,,
山东省聊城市东阿县环球商场西外环,聊城市,东阿县,116.234849,36.329261,东阿鲁西昭印摩托车销售有限公司(直营),山东省,,
山东省聊城市阳谷县柴庄商业街华英商贸有限公司,聊城市,阳谷县,115.802677,36.102922,阳谷华英贸易有限公司(直营),山东省,,
高唐中心大街金城路蓝山宾馆西临,聊城市,高唐县,116.252682,36.862927,高唐县宝岛电动自行车商行(直营),山东省,,
山东省宁津县中亚车业有限公司,德州市,宁津县,116.769708,37.656222,宁津县中亚车业有限公司(直营),山东省,,
山东省乐陵市兴隆南大街兄弟摩托车有限公司,德州市,乐陵市,117.214478,37.708599,乐陵市兄弟摩托车有限公司,山东省,,
山东省陵县中兴路县政府东60米路北,济南市,历城区,117.049228,36.518608,山东省陵县（宋长杰）(直营),山东省,,
山东省武城县三八路中段,德州市,武城县,116.081302,37.210992,武城万事达海尔专卖店(直营),山东省,,
山东省齐河县晏婴路南首97号,德州市,齐河县,116.748722,36.803369,齐河县豪爵铃木摩托车销售中心(直营),山东省,,
山东省莱西市威海中路29号青岛鲁驰商贸有限公司,青岛市,莱西市,120.5151,36.860891,青岛鲁驰商贸有限公司(直营),山东省,,
山东省青岛市李沧区京口路1号,青岛市,李沧区,120.426413,36.157984,青岛市李沧区金东升摩托车商城(直营),山东省,,
山东省胶南市商业街17号/19号,济南市,市中区,117.020359,36.66853,青岛东城商贸有限公司胶南新日专卖店(直营),山东省,,
莱西市姜山镇驻地杭州路22-2号,青岛市,莱西市,120.527696,36.668959,青岛利客来集团莱西购物有限公司江山商场(直营),山东省,,
禹城市开拓路建辉车业新日电动车专卖店,德州市,禹城市,116.637527,36.937509,禹城市建辉车业销售部(直营),山东省,,
庆云县机车市场宏达摩托城,德州市,庆云县,117.393857,37.796965,庆云县学静电动车门市部(直营),山东省,,
德州市夏津县中山北街119号,德州市,夏津县,116.005238,36.953281,夏津县正大国美家电有限公司(直营),山东省,,
青岛市城阳区华城路泽惠贸易中心B栋3号,青岛市,城阳区,120.383456,36.300527,青岛泽惠爱玛电动车有限公司(直营),山东省,,
山东夏津县西关小学对面,德州市,夏津县,116.001469,36.951792,夏津县九龙摩托配件(直营),山东省,,
莘县新华路81号,聊城市,莘县,115.66748,36.24636,莘县新日电动车专卖店(直营),山东省,,
山东武城县新汽车站北路西,德州市,武城县,116.069302,37.213311,武城县城区新日电动车专卖店(直营),山东省,,
山东省临邑县商贸城,德州市,临邑县,116.836902,37.191014,山东临邑县金龙车业销售有限公司(直营),山东省,,
山东茌平县博平镇,聊城市,茌平县,116.1176,36.587894,茌平县宽河商贸有限公司(直营),山东省,,
山东省日照北路69号,日照市,东港区,119.456759,35.430575,日照市永和福利大阳摩托车维修经销有限公司,山东省,,
德州市经济开发区电动车市场，体育馆对面,德州市,德城区,116.37691,37.429811,德州市德城区泰丰小鸟电动车商行(直营),山东省,,
山东省聊城市东阿县广播局旁,聊城市,东阿县,116.23397,36.330589,东阿县环球商场华阳电动车经销处(直营),山东省,,
山东省聊城市莘县新华路90号路东,聊城市,莘县,115.698084,36.244787,莘县张涛车行(直营),山东省,,
山东省临邑县德平镇富平路22号,德州市,临邑县,116.953737,37.465336,临邑县德平镇三联家电商场(直营),山东省,,
山东省青岛市黄岛区（原胶南市）辛河商业街11号,青岛市,黄岛区,119.997074,35.87471,黄岛区金源电动自行车专卖店(直营),山东省,,
茌平县泰和路中段路北,聊城市,茌平县,116.255796,36.593631,茌平新日专卖店(直营),山东省,,
莱西市威海市中路禽蛋大厦路北,威海市,环翠区,122.120419,37.513068,莱西新日专卖店(直营),山东省,,
临邑县城区东岳路路西,德州市,临邑县,116.883459,37.196593,临邑县文华电动车店(直营),山东省,,
胶南市人民路565号,青岛市,黄岛区,120.015701,35.880932,胶南市鑫峰电动车维修部(直营),山东省,,
青岛经济技术开发区富春江路36号,青岛市,黄岛区,120.168634,35.953568,青岛经济技术开发区华澳源电动车商店(直营),山东省,,
山东省东平县城105国道中段荷花洲对过,泰安市,东平县,116.459896,35.949145,东平新日电动车专卖店(直营),山东省,,
山东肥城市泰临路065号老农机公司沿街楼,泰安市,肥城市,116.772329,36.188951,肥城市久久商贸有限公司(直营),山东省,,
山东省泰安市东平县105国道中段,泰安市,东平县,116.459896,35.949145,东平县源林电动车销售中心(直营),山东省,,
山东省东平县城105国道东侧,泰安市,东平县,116.459896,35.949145,东平县澳源车辆销售中心(直营),山东省,,
济南市无影山中路121号天福苑小区富华居C座2单元901室,济南市,槐荫区,116.963161,36.683928,济南天极信经贸有限公司(直营),山东省,,
山东济南市天桥区北外环198号龙宇物流院内,济南市,历城区,117.034512,36.720661,济南舜日经贸有限公司(直营),山东省,,
山东省泰安市老汽车对面泰安春升大厦,泰安市,泰山区,117.109754,36.182872,泰安市春升商贸有限公司(直营),山东省,,
山东省商河县商中路,济南市,商河县,117.158957,37.298564,商河县新日通讯器材经营部,山东省,,
山东东平县斑鸠店镇政府驻地,泰安市,东平县,116.175679,36.108502,东平顺达摩托车销售有限公司(直营),山东省,,
山东省菏泽市单县西关街中段路南焦点电动车行13853074809,菏泽市,单县,116.107428,34.778808,单县焦点车行,山东省,,
山东省东明王邦商贸有限公司新日专卖,菏泽市,东明县,115.089905,35.289368,东明县中亚电动车商行(直营),山东省,,
山东省鄄城新日电动车专卖店,菏泽市,鄄城县,115.6462,35.445225,鄄城鲁西车行(直营),山东省,,
山东省兖州市建设路18号正大摩托车销售有限公司,济南市,市中区,116.990964,36.642178,兖州正大摩托车销售有限公司(直营),山东省,,
山东省邹城市铁山路3号,济宁市,邹城市,116.96565,35.400864,邹城市鑫鸿发车业(直营),山东省,,
广饶县大王镇,东营市,广饶县,118.529687,36.985943,广饶县大王镇路顺名牌车大世界(直营),山东省,,
山东省东营市东营区西三路三路光彩大厦一楼中厅,东营市,东营区,118.506113,37.459123,昊明灯饰经营部(直营),山东省,,
山东惠民县车站路水利局对过,滨州市,惠民县,117.53209,37.478609,惠民县福隆县摩托车销售中心(直营),山东省,,
山东省邹平县东升摩托车城,滨州市,邹平市,117.468879,37.091456,邹平新日电动车销售部,山东省,,
山东省东营市商业大厦供销商场北京新日专卖店,东营市,东营区,118.49693,37.461823,山东省东营市西城区（栾学山）(直营),山东省,,
山东省梁山县水泊中路13号,济宁市,梁山县,116.095016,35.804824,山东东平县顺达摩托车销售有限公司(直营),山东省,,
菏泽市解放大街与八一路交叉口北80米路西新日售后,菏泽市,牡丹区,115.453079,35.249892,菏泽市牡丹区长久电器销售有限公司(直营),山东省,,
巨野县前进路中段路西新日电动车专卖店,菏泽市,巨野县,116.177449,35.391711,巨野县新日电动车专卖店(直营),山东省,,
山东省郓城县西门街十八中南150米路东,菏泽市,郓城县,115.93425,35.592814,郓城新日专卖店,山东省,,
山东省寿光市南魏摩托车商城6号,潍坊市,寿光市,118.790652,36.85548,山东寿光市宗庆摩托车销售中心(直营),山东省,,
山东省成武县永昌路中段供电局对过路东,菏泽市,成武县,115.907628,34.948204,山东成武和平车业有限公司,山东省,,
济宁市泗水县高裕镇新日专卖,济宁市,泗水县,117.301374,35.710309,泗水县高峪镇洪俊电动车行,山东省,,
邹城市石墙镇,济宁市,邹城市,116.91297,35.261588,邹城市杨福伟电动车经销部,山东省,,
兖州市西御桥南路334-1兖州长城家电售后服务中心,济宁市,兖州区,116.822421,35.546276,兖州市长城家电有限责任公司(直营),山东省,,
东营垦利县黄河口镇建林马场一分场,东营市,垦利区,118.840266,37.687351,垦利县建林乡君厚摩托维修部(直营),山东省,,
东明县五四路东段北侧,菏泽市,东明县,115.113045,35.294276,东明县正大电动车商行,山东省,,
山东省巨野县前进路汽车站南200米路西,菏泽市,巨野县,116.098394,35.389425,山东巨野县锐诚车行(直营),山东省,,
昌邑市新兴街中段老汽车站,潍坊市,昌邑市,119.398157,36.849511,昌邑市新兴街昌城电动自行车经销处,山东省,,
山东省昌邑市新兴街215号,潍坊市,昌邑市,119.4073,36.85027,昌邑市新世纪贸易有限公司(直营),山东省,,
山东省临朐县朐山路中段新日专卖店,潍坊市,临朐县,118.513946,36.506724,临朐县运隆摩托车销售部,山东省,,
山东省青州市云门路昌盛,潍坊市,青州市,118.479636,36.6846,青州市新日电动车销售部(直营),山东省,,
山东省高密市立新街中段北京新日专卖店昌盛,潍坊市,高密市,119.764067,36.378441,山东高密市新日电动车专卖店(直营),山东省,,
山东省安丘市沂新安路231号,潍坊市,安丘市,119.20716,36.522592,安丘市凯隆电动车销售处(直营),山东省,,
山东省潍坊昌乐县城新昌路中段（保险公司对面）,潍坊市,昌乐县,118.833749,36.688417,昌乐新日电动车专卖店(直营),山东省,,
山东省寿光市广场街298号,潍坊市,寿光市,118.73963,36.88002,山东全福元商业集团有限责任公司(直营),山东省,,
山东诸城市市场街中段,潍坊市,诸城市,119.40309,36.002032,诸城正信电动车商行,山东省,,
潍坊市寒亭区摩托车市场北首西侧2号,潍坊市,寒亭区,119.199078,36.762894,潍坊市寒亭区寒城顺昌车行(直营),山东省,,
龙门街道,德州市,平原县,116.42798110842706,37.16090224204206,平原新日电动车,山东省,,
山口镇,泰安市,岱岳区,117.2726395726204,36.22876033775752,泰安市山口镇分销门店,山东省,,
凤城街道,济南市,莱芜区,117.66315177083017,36.20841730573724,莱芜市鹏泉路店,山东省,,
临齐街道,德州市,陵城区,116.58465296030045,37.32847429323986,陵县新日,山东省,,
青年路28号,泰安市,泰山区,117.130111,36.187419,泰安直营青年路店,山东省,,
青云街道,泰安市,新泰市,117.76588708162308,35.90125923349049,新泰市直营东周路门店,山东省,,
新城街道,泰安市,肥城市,116.77251890301704,36.18519087504137,肥城市直营泰临路店,山东省,,
泉沟镇,泰安市,新泰市,117.68225446343423,35.97885594962136,新泰康乐庄店,山东省,,
羊流镇,泰安市,新泰市,117.54892989993095,35.99521031613433,新泰羊柳镇店,山东省,,
谷里镇,泰安市,新泰市,117.53340393304825,35.92264950196105,新泰谷里镇,山东省,,
谷里镇,泰安市,新泰市,117.54153504967691,35.92048716766665,新泰谷里镇华荣村,山东省,,
石莱镇,泰安市,新泰市,117.5084137916565,35.76203644241487,新泰市石莱镇,山东省,,
禹村镇,泰安市,新泰市,117.37354025244714,35.840979570757995,新泰市禹村镇！,山东省,,
宫里镇,泰安市,新泰市,117.41738364100458,35.90351551541017,新泰市宫里镇,山东省,,
东风街道,济南市,历城区,117.08391264081001,36.69193672318994,济南祝甸新日专卖店,山东省,,
粥店街道,泰安市,岱岳区,117.05565154552461,36.18481419100158,泰安光彩店,山东省,,
满庄镇泰星大街,泰安市,岱岳区,117.076428,36.067349,泰安满庄店,山东省,,
马庄镇,泰安市,岱岳区,117.00130462646484,35.987775256381006,泰安马庄镇,山东省,,
大汶口镇,泰安市,岱岳区,117.08183526992798,35.954811450097516,泰安大汶口镇,山东省,,
舜华路街道,济南市,历下区,117.12119534611703,36.689653662413264,济南高新店,山东省,,
龙洞街道,济南市,历下区,117.09593698382379,36.64968536157351,济南银座花园新日,山东省,,
天桥东街街道,济南市,天桥区,116.99486732482912,36.675735526957645,济南天桥北新日店,山东省,,
历山街道,淄博市,沂源县,118.16788047552109,36.18361052181246,沂源县直营门店,山东省,,
福源路与黄海中路交叉口南50米,威海市,荣成市,122.409171,36.914297,荣成市威隆摩托销售中心,山东省,,
范镇,泰安市,岱岳区,117.34392732381824,36.18850410115078,泰安市范镇大勾村分销店,山东省,,
新华路街道,聊城市,临清市,115.71733653545378,36.843545260967204,临清新日,山东省,,
张汪镇,枣庄市,滕州市,117.15484634041789,34.85303693820771,张汪新日,山东省,,
荷花路街道,济南市,历城区,117.12295353412628,36.76075479905032,济南孟家,山东省,,
西岗镇,枣庄市,滕州市,117.03753188252449,34.96776491405002,滕州西岗新日,山东省,,
梁水镇,聊城市,东昌府区,115.89438244700433,36.58281720909176,聊城市东昌府梁水镇新日,山东省,,
老城街道,泰安市,肥城市,116.77576839923859,36.22608711388795,肥城老城分销店,山东省,,
潮泉镇,泰安市,肥城市,116.83658346533775,36.19994399048467,肥城潮泉镇,山东省,,
王瓜店街道,泰安市,肥城市,116.6792356967926,36.20095152978405,肥城王瓜店镇分销店,山东省,,
王瓜店街道,泰安市,肥城市,116.64414301514627,36.2020748504704,肥城兴隆村店,山东省,,
湖屯镇,泰安市,肥城市,116.60543337464331,36.19270902294796,肥城胡屯镇分销,山东省,,
石横镇,泰安市,肥城市,116.50728195905687,36.20231401396868,肥城石横镇分销,山东省,,
博济桥街道,聊城市,阳谷县,115.78255847096443,36.113204861987256,阳谷县新日电动车,山东省,,
山东省临沂市莒南县新建路南段西侧,临沂市,莒南县,118.830318,35.176142,吴敬尧,山东省,,
山东德州市乐陵兴隆南大街西侧,德州市,乐陵市,117.214478,37.708599,乐陵市宏昇电动车销售处分店,山东省,,
店子路南50米,青岛市,平度市,119.865517,36.89706,平度店子镇新日,山东省,,
税郭镇,枣庄市,市中区,117.72138655185701,34.84245018276422,税郭新日电动车,山东省,,
218省道北50米,烟台市,莱州市,119.926102,37.003345,平度大泽山,山东省,,
新兴路与新泰路交叉口东南100米,青岛市,平度市,119.607445,36.931496,平度新河新日专卖店,山东省,,
于幸路68号,青岛市,平度市,119.742073,36.795383,平度田庄新日专卖店,山东省,,
新建路与金世界商业步行街交叉口东100米,临沂市,莒南县,118.840795,35.172625,莒县爱玛（新日）电动车,山东省,,
鹏泉街道,济南市,莱芜区,117.6946556568146,36.19895050724327,莱芜汇源大街店,山东省,,
遥墙街道,济南市,历城区,117.19635754823685,36.8215285882836,济南遥墙,山东省,,
唐王镇,济南市,历城区,117.29620546102525,36.7999888203761,济南唐王,山东省,,
驿道镇幸福水暖东北侧60米,烟台市,莱州市,120.157983,37.23226,驿道新日专卖店,山东省,,
白塔镇,淄博市,博山区,117.89495766162874,36.56612342539422,博山白塔镇分销店,山东省,,
鱼邱湖街道,聊城市,高唐县,116.25196650624277,36.85448629840696,高唐县新日,山东省,,
市中街道,德州市,禹城市,116.63408741354941,36.933433147867326,禹城新日,山东省,,
兰山街道,临沂市,兰山区,118.30098778009415,35.08109669753235,临沂七路市场店,山东省,,
口镇,济南市,莱芜区,117.5860583782196,36.29428468194567,莱芜陶镇分销店里,山东省,,
杨庄镇,济南市,莱芜区,117.44729697704317,36.25347386343296,莱芜杨庄镇分销门店,山东省,,
市中街道,德州市,乐陵市,117.22138658165933,37.728319777948954,乐陵新日,山东省,,
山东省德州市德城区解放中路495号,德州市,德城区,116.296517,37.458467,德州运河经济开发区路坤车行,山东省,,
邱家店镇,泰安市,泰山区,117.2612763941288,36.13614069408561,泰安邱家店镇分销门店,山东省,,
安临站镇,泰安市,肥城市,116.78217753767969,36.053441462505845,肥城大辛庄分销门店,山东省,,
北城街道,德州市,夏津县,116.00605487823486,36.963241520123496,夏津新日,山东省,,
华龙路646号,济南市,历城区,117.088171,36.681174,济南华龙店,山东省,,
枣沟头镇,临沂市,兰山区,118.29788044095041,35.19095373894605,枣沟头新日,山东省,,
半程镇,临沂市,兰山区,118.30993160605432,35.24275931770098,半程新日,山东省,,
鼓楼街道,济宁市,兖州区,116.82518944144252,35.535117230078825,兖州王磊车行,山东省,,
金桥路与206国道交叉口东南50米,枣庄市,市中区,117.723474,34.842438,税郭新日,山东省,,
皇城镇,淄博市,临淄区,118.43298733234407,36.925706919677104,临淄区皇城镇新日,山东省,,
光明东路北50米,枣庄市,市中区,117.619001,34.841858,枣庄郭里集新日,山东省,,
敬仲镇,淄博市,临淄区,118.36992859840394,36.93650648310359,临淄区敬仲镇新日,山东省,,
愚公路西50米,枣庄市,市中区,117.602774,34.885931,枣庄孟庄新日,山东省,,
文昌街道,济南市,长清区,116.73809006810188,36.561426975271154,长清新日专卖店,山东省,,
030县道(孟庄镇苗庄村支部委员会附近)附近,枣庄市,市中区,117.696617,34.929776,枣庄周村新日,山东省,,
赵戈镇,潍坊市,坊子区,119.39866036176682,36.38966767825717,王庄子镇普全车业,山东省,,
金岭镇,淄博市,临淄区,118.19135382771493,36.800333530139405,临淄区金岭镇新日,山东省,,
景芝镇,潍坊市,安丘市,119.34429332613948,36.3304123225405,文玉车业,山东省,,
凌河镇,潍坊市,安丘市,119.0254604816437,36.40462072330043,中华龙电动车超市,山东省,,
新安街道,潍坊市,安丘市,119.29517939686777,36.4748869394799,富贵车行,山东省,,
吾山镇,潍坊市,安丘市,118.84377837181093,36.24943984482491,唔山新日电动车专卖店,山东省,,
新安街道,潍坊市,安丘市,119.23828303813937,36.45208609236827,贾戈新日电动车专卖店,山东省,,
石埠子镇,潍坊市,安丘市,119.10855263471605,36.11886442707096,石埠子镇张欣车行,山东省,,
长生路81号,青岛市,平度市,119.9972,36.594818,平度兰底新日专卖店,山东省,,
云山镇,青岛市,平度市,120.206779,36.827229,平度云山新日专卖店,山东省,,
赵戈镇,潍坊市,安丘市,119.37623172998431,36.475053013764445,赵戈镇敬涛车业,山东省,,
胜利路48附近,青岛市,平度市,119.88385,36.675068,平度蓼兰新日专卖店,山东省,,
常州路17之10-11,青岛市,平度市,119.955849,36.779053,平度唐田新日专卖店,山东省,,
太保庄镇,潍坊市,坊子区,119.41833436489108,36.524265408229844,甘棠镇新日电动车专卖店,山东省,,
山东省青岛市即墨区大信镇218省道远见创业园,青岛市,城阳区,120.323192,36.348942,即墨大信新日专卖店,山东省,,
流丰路与603省道交叉口东150米,青岛市,即墨区,120.846779,36.514874,即墨王村新日专卖店,山东省,,
兴安街道,潍坊市,安丘市,119.16216462850572,36.332865900634076,白芬子镇新日电动车专卖店,山东省,,
汤头街道,临沂市,河东区,118.50614055991173,35.266850135779734,汤头玉超车行,山东省,,
市场街西150米,青岛市,即墨区,120.289154,36.602398,即墨刘家庄新日专卖店,山东省,,
新安街道,潍坊市,安丘市,119.12626057863235,36.448465814240585,关王鑫源商城,山东省,,
阳安路,青岛市,莱西市,120.526695,36.671722,莱西姜山新日专卖店,山东省,,
大盛镇,潍坊市,安丘市,118.86266246438028,36.31978033849454,大盛镇新日电动车专卖店,山东省,,
209省道东150米,青岛市,莱西市,120.439346,36.695515,莱西夏格庄新日专卖店,山东省,,
新安街道,潍坊市,安丘市,119.21048060059549,36.50747273788221,西上排新日电动车专卖店,山东省,,
王打卦镇,德州市,平原县,116.33958488702774,37.17088935850769,平原王大卦新日,山东省,,
335省道附近,日照市,东港区,119.177841,35.503033,日照三庄新日专卖店,山东省,,
北京北路东100米,日照市,东港区,119.523773,35.461407,日照秦楼新日专卖店,山东省,,
黄海二路南50米,日照市,东港区,119.53933,35.399124,日照巨峰新日专卖店,山东省,,
后村镇,日照市,东港区,119.295036,35.385136,日照后村新日专卖店,山东省,,
景芝镇宋官疃街,潍坊市,安丘市,119.323509,36.285431,宋格疃新日电动车专卖店,山东省,,
恩城镇,德州市,平原县,116.27208843827248,37.15789569592031,平原恩城新日,山东省,,
南定镇,淄博市,张店区,118.04546982049943,36.746237011587084,张店区南定镇新日,山东省,,
西王庄乡,枣庄市,市中区,117.61901,34.817476,枣庄西王庄新日,山东省,,
王杲铺镇,德州市,平原县,116.29577636718749,37.230477879528,平原王皋铺镇新日,山东省,,
黄旗堡街道,潍坊市,坊子区,119.35423359274866,36.5724222523702,黄旗堡镇新日电动车专卖店,山东省,,
傅家镇,淄博市,张店区,118.0233684182167,36.777881201739376,张店区付家镇新日,山东省,,
朱刘街道,潍坊市,昌乐县,118.93454968929292,36.72459008247535,朱刘镇新日电动车专卖店,山东省,,
尧沟镇政府东邻附近,潍坊市,昌乐县,118.763736,36.707754,尧沟新日电动车专卖店,山东省,,
唐吾镇,潍坊市,昌乐县,118.87380972504614,36.35681528854607,包庄新日电动车专卖店,山东省,,
营丘镇,潍坊市,昌乐县,119.11663413047789,36.481849891622026,王俊新日电动车专卖店,山东省,,
港沟街道,济南市,历城区,117.17918738722804,36.646463844989384,济南港沟新日店,山东省,,
乔官镇,潍坊市,昌乐县,118.88947784900665,36.518150193952536,北展新日电动车专卖店,山东省,,
鲍山街道,济南市,历城区,117.18431040644647,36.717986559795804,济南济钢新日店,山东省,,
孙村街道,济南市,历城区,117.30681091547014,36.6913829016736,济南孙村新日店,山东省,,
永安乡衡山路永安家园北行120米路东,枣庄市,市中区,117.524648,34.824931,枣庄永安新日,山东省,,
八湖镇,临沂市,河东区,118.53871732950213,35.18770074954442,八胡新日,山东省,,
弥河镇,潍坊市,青州市,118.5294046998024,36.62108942410351,弥河新日专卖店,山东省,,
谭坊镇,潍坊市,青州市,118.67065116763116,36.7001478689091,谭坊新日专卖店,山东省,,
益都街道,潍坊市,青州市,118.48056301474574,36.759919974469994,北阳河新日专卖店,山东省,,
上口镇,潍坊市,寿光市,118.88525605201724,36.96255249668547,上口镇新日电动车专卖店,山东省,,
稻田镇,潍坊市,寿光市,118.91515865921974,36.77667919104703,赵庙镇新日电动车专卖店,山东省,,
稻田镇,潍坊市,寿光市,118.85581746697429,36.784219643376744,田马新日电动车专卖店,山东省,,
洛城街道,潍坊市,寿光市,118.94292354583742,36.88599889254455,留吕镇新日电动车专卖店,山东省,,
相公街道,临沂市,河东区,118.50624784827234,35.113832303691424,相公镇平安车行,山东省,,
圣城街道,潍坊市,寿光市,118.76945972442628,36.86577018501694,志亮新日电动车专卖店,山东省,,
果里镇,淄博市,桓台县,118.07290345430373,36.90467050206291,桓台果里镇新日,山东省,,
古城街道,潍坊市,寿光市,118.7096129357815,36.957642354421615,桥子新日专卖店,山东省,,
西昌北路与长乐路交界处(齐村商贸园路北),枣庄市,市中区,117.53011,34.870167,枣庄齐村新日,山东省,,
起凤镇,淄博市,桓台县,118.08707758784294,37.06374204151926,桓台起凤镇新日,山东省,,
荆家镇,淄博市,桓台县,117.99075677990916,37.04912445488806,桓台荆家镇新日,山东省,,
唐山镇,淄博市,桓台县,118.04954811930658,36.96325545054859,桓台唐山新日,山东省,,
唐山镇,淄博市,桓台县,118.0666244029999,37.005376893436285,桓台邢家新日,山东省,,
长山镇,滨州市,邹平市,117.87219375371934,36.87750511856165,邹平长山新日,山东省,,
八岔路镇,聊城市,临清市,115.62558352947235,36.69651231920407,临清八岔路新日,山东省,,
王奉镇,聊城市,莘县,115.4590840637684,36.310402675716865,聊城莘县王奉新日,山东省,,
魏庄镇,聊城市,莘县,115.58732718229295,36.353445471375345,聊城莘县魏庄新日,山东省,,
焦桥镇,滨州市,邹平市,117.81878024339679,36.99950877885949,邹平焦桥新日,山东省,,
芝罘屯路与西炮台东路交叉口北100米,烟台市,芝罘区,121.360393,37.558247,芝罘区舜强电动车行,山东省,,
山东省烟台市莱州市永安路街道府前西街,烟台市,莱州市,119.93731,37.176528,莱州市府前西街启迪电动经销处,山东省,,
立交桥北大华写字楼,烟台市,莱阳市,120.70792,36.969018,莱阳市仁中交电有限责任公司,山东省,,
东莱街358附近,烟台市,龙口市,120.529408,37.639675,龙口市黄城方通电动车店,山东省,,
桃村镇北京路与重庆路交叉口东南侧,烟台市,栖霞市,121.146448,37.186312,栖霞新日电动车商行,山东省,,
昆嵛路37-11号附近,威海市,文登区,122.0556,37.192627,文登市百大摩托车总汇,山东省,,
新华路街道,聊城市,临清市,115.79671651124956,36.84885768166593,临清作西店新日,山东省,,
兴安街道,潍坊市,安丘市,119.19909194111825,36.42519426753446,金浩电动车专卖店,山东省,,
兴安街道,潍坊市,安丘市,119.19909194111825,36.42519426753446,宗金电动车专卖店,山东省,,
昌城镇,潍坊市,诸城市,119.46819528937341,36.05978184619896,小玄车行,山东省,,
清平镇,聊城市,高唐县,116.17064595222475,36.84711803868414,高唐清平镇新日,山东省,,
诸城经济开发区,潍坊市,诸城市,119.38169270753862,36.024407736069186,陈家新日电动车专卖店,山东省,,
寿张镇,濮阳市,台前县,115.84720373153687,36.013256843469264,聊城阳谷寿张新日,河南省,,
龙口6路;龙口304路,烟台市,龙口市,120.672745,37.626957,黄城集新日专卖店,山东省,,
兰高镇兰兴路6号,烟台市,龙口市,120.581994,37.644693,兰高小林车行,山东省,,
朱桥镇梁郭大街52号,烟台市,莱州市,120.148733,37.295162,梁郭卫亮车行,山东省,,
西由府前街馨味饭店东北侧135米,烟台市,莱州市,119.999601,37.359417,建波车业,山东省,,
沙河镇,烟台市,莱州市,119.691033,37.055445,土山新日车行,山东省,,
魏桥镇,滨州市,邹平市,117.57081538438798,36.974567185802734,邹平里八田新日,山东省,,
沙河镇沙河镇湾头村,烟台市,莱州市,119.789898,37.077407,珍珠乡景欣车业,山东省,,
新城镇,淄博市,桓台县,117.9502634704113,36.95609916269869,桓台新城新日,山东省,,
平里店镇平京路301号,烟台市,莱州市,120.025441,37.292554,平里店新日车行,山东省,,
索镇街道,淄博市,桓台县,118.12105983495712,36.99556288922206,桓台耿桥新日,山东省,,
环翠区,威海市,环翠区,122.04184,37.50159,威海高技术产业开发区新日车行,山东省,,
马山子镇,滨州市,无棣县,117.73592412471771,38.024450423101406,无棣胡道口新日,山东省,,
206国道与302省道交叉口南100米,烟台市,龙口市,120.328612,37.613003,光庆车行,山东省,,
莱州市,烟台市,莱州市,119.715204,37.038551,方杨镇新日车行,山东省,,
碣石山镇,滨州市,无棣县,117.6912546157837,38.00500172466145,无棣碣石山新日,山东省,,
沙河镇张家村腾达塑料厂对面,烟台市,莱州市,119.823032,37.040508,路旺大刚车行,山东省,,
车王镇,滨州市,无棣县,117.64420598745345,37.87773592042055,无棣车王新日,山东省,,
莱州市,烟台市,莱州市,119.817165,37.016791,国家新日电动车,山东省,,
曹王镇,滨州市,博兴县,118.21519061923027,37.05726197553748,滨州贾杨新日,山东省,,
双杨镇,淄博市,淄川区,117.98788413405418,36.737095768225565,淄川杨寨镇,山东省,,
中村,烟台市,龙口市,120.40764,37.65448,龙港新日车行,山东省,,
皇华镇,潍坊市,诸城市,119.4622555375099,35.887913591406694,皇华新日专卖店,山东省,,
温店镇,滨州市,阳信县,117.38216489553452,37.59655516569025,滨州温店新日,山东省,,
密州街道,潍坊市,诸城市,119.42372158169748,36.007216479503676,密州新日电动车专卖店,山东省,,
县府街与福海路交叉口西北50米,烟台市,福山区,121.2589,37.49713,烟台市福山区城区红利摩托车配件商店,山东省,,
相州镇,潍坊市,诸城市,119.420390278101,36.160491506170054,新日电动车专卖店,山东省,,
舜王街道,潍坊市,诸城市,119.29798632860184,36.10088869839455,程戈新日电动车专卖店,山东省,,
林家村镇,潍坊市,诸城市,119.65417966246605,35.99481101958266,新日电动车专卖店,山东省,,
新华路街道,聊城市,临清市,115.79571738839151,36.84526352065238,临清街道新日,山东省,,
西董街道,滨州市,邹平市,117.74726718664171,36.809440393367986,邹平西董新日,山东省,,
贾悦镇,潍坊市,诸城市,119.05610874295233,36.04611273904069,新日电动车专卖店,山东省,,
石桥子镇,潍坊市,诸城市,119.2724731564522,36.15682951271671,新日电动车专卖店,山东省,,
诸城经济开发区,潍坊市,诸城市,119.36263293027879,36.01958310771048,常伟车行,山东省,,
马桥镇,淄博市,桓台县,117.91629061102869,37.03984706660539,桓台马桥新日,山东省,,
田庄镇,淄博市,桓台县,117.98762261867526,36.99579960552996,桓台田庄新日,山东省,,
密州街道,潍坊市,诸城市,119.50142651796342,35.96970336097826,小蒙车行,山东省,,
马桥镇,淄博市,桓台县,117.89292857050899,37.00262978539649,桓台木佛新日,山东省,,
密州街道,潍坊市,诸城市,119.42111179232596,36.01830422795983,五里车行,山东省,,
齐陵街道,淄博市,临淄区,118.3357036113739,36.78221215096788,临淄区齐陵新日,山东省,,
枳沟镇,潍坊市,诸城市,119.22769233584405,35.91685201039128,枳沟新日电动车专卖店,山东省,,
佘家镇,滨州市,无棣县,117.85845011472703,37.813225258966675,无棣佘家巷新日,山东省,,
水湾镇,滨州市,无棣县,117.70954862236977,37.82169857919864,无棣水湾新日,山东省,,
柳堡镇,滨州市,无棣县,117.75284886360168,37.97310682551596,无棣柳堡新日,山东省,,
信阳镇,滨州市,无棣县,117.61909246444702,37.80257237116374,无棣信阳新日,山东省,,
水湾镇,滨州市,无棣县,117.7241760492325,37.85602792110043,无棣逯家庙新日,山东省,,
寨里镇,淄博市,淄川区,118.02706584334375,36.65092594307486,淄川寨里镇分销门店,山东省,,
朱台镇,淄博市,临淄区,118.25567588210109,36.94457674791244,临淄区朱台新日,山东省,,
水落坡镇,滨州市,阳信县,117.74263501167299,37.54703570906482,滨州雷家新日,山东省,,
洪山镇,淄博市,淄川区,117.99129992723465,36.62847941078721,淄川洪山镇分销门店,山东省,,
348省道南50米,枣庄市,薛城区,117.459136,34.853234,枣庄甘霖新日,山东省,,
小泊头镇,滨州市,无棣县,117.60517984628679,38.05164690811391,无棣小泊头新日,山东省,,
洋湖乡,滨州市,阳信县,117.37476602196696,37.535988275544675,滨州洋湖新日,山东省,,
吕艺镇,滨州市,博兴县,118.27596947550775,37.16127524635838,滨州龙河新日,山东省,,
山官路北50米,枣庄市,薛城区,117.363475,34.867842,枣庄陶庄新日,山东省,,
昆仑镇,淄博市,淄川区,117.91662186384202,36.58321458486391,淄川昆仑镇分销门店,山东省,,
秦皇台乡,滨州市,滨城区,118.08617234230044,37.49099048982463,滨州秦皇台新日,山东省,,
青田街道,滨州市,滨城区,118.00684735178946,37.25557230331132,滨州旧镇新日,山东省,,
李官镇,临沂市,兰山区,118.40786442160608,35.27531274775827,临沂市李官镇,山东省,,
小营街道,滨州市,滨城区,118.08100104331972,37.28271568684611,滨州小营新日,山东省,,
人民医院北50米,枣庄市,薛城区,117.268644,34.803897,枣庄薛城新日,山东省,,
陈户镇,滨州市,博兴县,118.21908652782442,37.25527555359493,滨州纯梁新日,山东省,,
信城街道,滨州市,阳信县,117.58824035525325,37.64273809029856,滨州阳信宋强,山东省,,
滨北街道,滨州市,滨城区,117.98986092209816,37.468086524215806,滨州滨北新日,山东省,,
杜店街道,滨州市,滨城区,117.9517896473408,37.37314141271722,滨州杜店新日,山东省,,
芝麻墩街道,临沂市,河东区,118.43507677316667,35.026260324168,临沂河东芝麻墩新日,山东省,,
劳店镇,滨州市,阳信县,117.68058076500893,37.6574571407668,滨州劳店新日,山东省,,
乔庄镇,滨州市,博兴县,118.21287050843237,37.34210922834088,滨州乔庄新日,山东省,,
高城镇,淄博市,高青县,117.91061639785768,37.099187994394136,高青高城新日,山东省,,
常家镇,淄博市,高青县,117.83117875456813,37.215342454106526,高青常家新日,山东省,,
城后东路101号,济宁市,微山县,117.136463,34.812378,济宁微山新日专卖店,山东省,,
104国道东50米,枣庄市,滕州市,117.155,34.853443,滕州蒋庄新日,山东省,,
104国道西50米,枣庄市,滕州市,117.169632,34.909472,滕州夏楼新日,山东省,,
东关路102号,烟台市,蓬莱市,120.764663,37.80788,蓬莱市登州联众电动车行,山东省,,
民兴路与301省道交叉口东北100米,威海市,荣成市,122.552273,37.363389,荣成市成山镇学洪商场,山东省,,
龙口4路,烟台市,龙口市,120.587433,37.687908,诸由新日车行,山东省,,
206国道东50米,烟台市,莱州市,119.890326,37.138711,神堂新日车行,山东省,,
北马镇花园路1号,烟台市,龙口市,120.395988,37.617937,北马新日车行,山东省,,
龙口7路,烟台市,龙口市,120.478073,37.678036,徐福新日车行,山东省,,
北沟大街与张家街交叉口西100米,烟台市,蓬莱市,120.62102,37.734499,北沟新日车行,山东省,,
蓬莱市,烟台市,蓬莱市,120.701516,37.645729,于家庄新日车行,山东省,,
大辛店镇,烟台市,蓬莱市,120.846204,37.619096,大辛店新日车行,山东省,,
50路,烟台市,莱山区,121.461789,37.437222,三十里堡新日电动车,山东省,,
芝罘区,烟台市,芝罘区,121.370666,37.471742,黄务新日车行,山东省,,
308路;310路;310路巨甲区间,烟台市,福山区,121.300331,37.455051,斗余新日车行,山东省,,
山东省临沂市兰山区通达路与银雀山路交汇出,临沂市,兰山区,118.329579,35.060278,临沂市美达经贸有限公司,山东省,,
罗西街道,临沂市,罗庄区,118.23206841945647,35.02534770172339,临沂岑石新日,山东省,,
罗西街道,临沂市,罗庄区,118.22957262396812,34.97109921552534,黄土堰,山东省,,
胡集镇,滨州市,惠民县,117.73144751787189,37.33134607793793,惠民胡集新日,山东省,,
里口山路106号(里口山路口),威海市,环翠区,122.03216,37.47719,张村镇新日电动车,山东省,,
南村镇西北街,青岛市,平度市,120.134071,36.536694,平度南村新日专卖店,山东省,,
大泽山镇泽山路11号,青岛市,平度市,119.933678,36.99403,平度大泽山新日专卖店,山东省,,
长辛路6号,青岛市,平度市,119.847214,36.978695,平度长乐新日专卖店,山东省,,
振兴路12-1号,青岛市,平度市,120.091316,36.62471,平度郭庄新日专卖店,山东省,,
山东省青岛市即墨区蓝村镇新日电动车(蓝村旗舰店),青岛市,即墨区,120.185727,36.405137,即墨蓝村新日专卖店,山东省,,
山东省青岛市即墨区龙山街道蓝鳌路,青岛市,即墨区,120.518462,36.388242,即墨留村新日专卖店,山东省,,
山东省青岛市城阳区棘洪滩街道岙东北路619号锦绣源宾馆,青岛市,城阳区,120.271351,36.336716,即墨棘洪滩新日专卖店,山东省,,
府前街63号附近,青岛市,即墨区,120.222008,36.483158,即墨七级新日专卖店,山东省,,
山东省青岛市即墨区金口镇212省道,青岛市,即墨区,120.686518,36.541666,即墨店集新日专卖店,山东省,,
龙口1路,烟台市,龙口市,120.414551,37.656208,中村新日小周车行,山东省,,
335省道龙山镇人民政府附近,日照市,莒县,118.997215,35.510075,莒县龙山新日专卖店,山东省,,
南山工业园南山中路3号,烟台市,龙口市,120.483321,37.597803,龙口南山小庄车行,山东省,,
阎庄镇文化路,日照市,莒县,118.82811,35.664677,莒县闫庄新日专卖店,山东省,,
023乡道与060县道交叉口东北50米,烟台市,龙口市,120.569907,37.59333,文基成跃车行,山东省,,
银杏大道北50米,日照市,莒县,118.793823,35.590771,莒县浮来山新日专卖店,山东省,,
平安路东100米,日照市,莒县,118.700401,35.418915,莒县夏庄新日专卖店,山东省,,
刘官庄镇塑料工业园区刘官庄镇人民政府附近,日照市,莒县,118.79464,35.515743,莒县刘官庄新日专卖店,山东省,,
马铁路西200米,青岛市,黄岛区,119.912086,35.912231,胶南铁山新日专卖店,山东省,,
大珠山镇204国道医院对面,青岛市,黄岛区,119.976761,35.821842,胶南大珠山新日专卖店,山东省,,
琅琊台路138号,青岛市,黄岛区,119.996002,35.87582,胶南辛河街新日专卖店,山东省,,
临港路与朝阳山路交叉口西50米路南,青岛市,黄岛区,120.031525,35.905476,胶南隐珠新日专卖店,山东省,,
巨洋路(王台中心中学附近),青岛市,黄岛区,120.00312,36.069382,胶南王台新日专卖店,山东省,,
黄岛区,青岛市,黄岛区,119.909119,35.886715,胶南袁家庄新日专卖店,山东省,,
辛安街道办事处黄河路,青岛市,黄岛区,120.122925,36.016228,胶南辛安新日专卖店,山东省,,
洋湖乡,滨州市,阳信县,117.3105324804783,37.531586498234134,滨州勃李新日,山东省,,
杨集镇,临沂市,郯城县,118.2439908385277,34.43581345620166,郯城杨集新日,山东省,,
马头镇,临沂市,郯城县,118.25116038322447,34.64418450786423,郯城马头镇,山东省,,
花园乡,临沂市,郯城县,118.18586468696596,34.5118291370229,郯城花园镇新日,山东省,,
郯城街道,临沂市,郯城县,118.28315243124965,34.67345715177877,郯城港口新日,山东省,,
苏村镇,临沂市,沂南县,118.58013868331908,35.604996682132615,沂南苏村新日,山东省,,
地方镇,临沂市,平邑县,117.8723680973053,35.33734561150411,平邑地方镇新日,山东省,,
武台镇,临沂市,平邑县,117.69557297229765,35.64702978975125,平邑武台新日,山东省,,
龙阳镇龙阳村,枣庄市,滕州市,117.169875,35.162023,滕州龙阳新日,山东省,,
迎宾大道北路与长安东路交叉口西南100米,枣庄市,山亭区,117.312919,35.143214,滕州城头新日,山东省,,
邾国路583号附近(山东省培训管理中心山亭区工作站东南),枣庄市,山亭区,117.466176,35.093303,滕州山亭新日,山东省,,
荆河东路北50米,枣庄市,滕州市,117.21422,35.091059,滕州东沙河新日,山东省,,
节用路与903省道交汇处东北100米,枣庄市,滕州市,117.284856,34.977616,滕州木石新日,山东省,,
344省道西50米,枣庄市,滕州市,117.212001,34.925222,滕州官桥新日,山东省,,
柴胡店镇,枣庄市,滕州市,117.242547,34.883612,滕州柴胡店新日,山东省,,
新港南路西50米,枣庄市,滕州市,117.037184,34.968036,滕州西岗新日,山东省,,
丹阳街道,菏泽市,牡丹区,115.51445156335832,35.22602251032403,菏泽花城新日电动车,山东省,,
皇镇乡,菏泽市,牡丹区,115.64872026443481,35.2776896530989,菏泽皇镇新日电动车,山东省,,
胡集镇,菏泽市,牡丹区,115.67698940634729,35.40322908085982,菏泽胡集新日分销店,山东省,,
万福街道,菏泽市,牡丹区,115.3829683363438,35.262455885988345,菏泽杜庄新日电动车分销,山东省,,
鱼沃街道,菏泽市,东明县,115.115647315979,35.25479138495793,东明渔沃新日分销店,山东省,,
沙窝镇,菏泽市,东明县,115.02001851797102,35.21818583813327,东明沙沃新日分销店,山东省,,
东明集卢胡同007号3,菏泽市,东明县,115.135458,35.164218,东明县东明集新日分销店,山东省,,
小井村,菏泽市,东明县,115.0471,35.089123,东明小井新日分销店,山东省,,
刘楼镇,菏泽市,东明县,115.05596950650217,35.15133688394506,东明半坡杨新日分销店,山东省,,
刘楼镇,菏泽市,东明县,114.968517,35.150207,东明刘楼新日分销店,山东省,,
菜园集镇,菏泽市,东明县,115.131703,35.374903,东明菜园集新日分销店,山东省,,
武胜桥镇海头村南街,菏泽市,东明县,115.197216,35.35333,东明海头新日分销店,山东省,,
长兴集乡,菏泽市,东明县,114.91278782486917,35.10322874089107,东明王店新日分销店,山东省,,
半堤镇大徐村,菏泽市,定陶区,115.683899,35.179549,定陶陈集新日分销店,山东省,,
黄店镇,菏泽市,定陶区,115.722133,35.078877,定陶黄店新日分销店,山东省,,
万福大街北50米,菏泽市,定陶区,115.769679,35.173712,定陶孟海新日分销店,山东省,,
346省道南150米,菏泽市,定陶区,115.74277,35.08069,定陶姑奄新日分销店,山东省,,
半堤镇大徐村,菏泽市,定陶区,115.683899,35.179549,定陶半堤新日分销店,山东省,,
定邓线附近,菏泽市,定陶区,115.523439,35.094349,定陶邓集新日分销店,山东省,,
张湾客运站旁,菏泽市,定陶区,115.413987,35.063648,定陶张湾新日分销店,山东省,,
冉子街南50米,菏泽市,定陶区,115.731763,35.002985,定陶冉固新日分销店,山东省,,
定陈线附近,菏泽市,定陶区,115.628305,35.1258,定陶杜堂新日分销店,山东省,,
铜石镇,临沂市,平邑县,117.77187243103981,35.4027677796185,铜石新日,山东省,,
马岭岗镇,菏泽市,牡丹区,115.33344134688376,35.19850701118306,菏泽马岭岗新日分销店,山东省,,
迎宾路附近,菏泽市,牡丹区,115.439556,35.358629,菏泽小留新日分销店,山东省,,
沙土镇新兴行政村新兴集,菏泽市,牡丹区,115.769749,35.332613,菏泽新兴新日分销店,山东省,,
陈菏线,菏泽市,定陶区,115.569824,35.174419,定陶保宁新日分销店,山东省,,
资邱乡,临沂市,平邑县,117.889245,35.428006,平邑资邱新日,山东省,,
大屯镇,菏泽市,东明县,115.215126,35.133705,东明大屯新日分销店,山东省,,
吴店镇老计生委院内,菏泽市,牡丹区,115.395747,35.324355,菏泽吴店新日分销店,山东省,,
346省道北150米,菏泽市,牡丹区,115.289558,35.266121,菏泽吕陵新日分销店,山东省,,
纬五路南50米,菏泽市,牡丹区,115.323521,35.126449,菏泽王浩屯新日分销店,山东省,,
卞桥镇,临沂市,平邑县,117.84692332148552,35.461821278386466,卞桥新日,山东省,,
黄河西路南,菏泽市,牡丹区,115.430803,35.261899,菏泽义乌直营店,山东省,,
马村集,菏泽市,牡丹区,115.43595,35.406565,菏泽马村新日分销店,山东省,,
黄堽镇,菏泽市,牡丹区,115.4997664690018,35.34463145915815,菏泽黄罡新日分销店,山东省,,
261省道与G1511日兰高速交叉口南150米,菏泽市,牡丹区,115.423962,35.127982,菏泽金堤新日分销店,山东省,,
岳程街道开发区,菏泽市,牡丹区,115.583062,35.271728,菏泽辛集新日分销店,山东省,,
万丰镇,菏泽市,巨野县,115.96709981560706,35.16103952492685,巨野万丰新日分销店,山东省,,
田庄镇(宝贝家族旁),菏泽市,巨野县,116.128842,35.456074,巨野田庄新日分销店,山东省,,
太平镇,菏泽市,巨野县,115.854337,35.355284,巨野太平新日分销店,山东省,,
兴麟路西50米,菏泽市,巨野县,116.179175,35.393999,巨野麒麟新日分销店,山东省,,
核桃园镇,菏泽市,巨野县,116.26012042164803,35.20741835546409,巨野沤山新日分销店,山东省,,
龙麟购物广场附近,菏泽市,巨野县,115.879031,35.280809,巨野龙固新日分销店,山东省,,
大义镇,菏泽市,巨野县,116.104538,35.242205,巨野葛店新日分销店,山东省,,
驻地田庄镇白果树村,菏泽市,巨野县,116.065539,35.435007,巨野丁官屯新日分销店,山东省,,
青龙线南50米,菏泽市,巨野县,116.059043,35.275898,巨野大义新日分销店,山东省,,
万丰镇白楼村,菏泽市,巨野县,115.902239,35.158022,巨野白楼新日分销店,山东省,,
核桃园镇驻地,菏泽市,巨野县,116.235306,35.244755,巨野核桃园新日分销店,山东省,,
柳林镇X059柳林移动合作营业厅西北侧40米,菏泽市,巨野县,115.852909,35.166592,巨野柳林新日分销店,山东省,,
黄岗镇,菏泽市,单县,116.044221,34.64847,单县黄冈新日分销店,山东省,,
张集村南北大街,菏泽市,单县,116.344922,34.808975,单县张集新日分销店,山东省,,
营里镇,菏泽市,巨野县,116.049906,35.148341,巨野营里新日分销店,山东省,,
随官屯镇,菏泽市,巨野县,115.9821,35.267922,巨野董官屯新日分销店,山东省,,
太李线西50米,菏泽市,巨野县,115.819711,35.283051,巨野观集新日分销店,山东省,,
田太路与田苏线交叉口东北150米,菏泽市,巨野县,115.9798,35.33978,巨野田桥新日分销店,山东省,,
章缝镇肖楼村,菏泽市,巨野县,115.97516,35.215386,巨野肖楼新日分销店,山东省,,
大谢集镇,菏泽市,巨野县,116.136759,35.178594,巨野谢集新日分销店,山东省,,
大田集镇,菏泽市,成武县,116.067287,35.088976,成武田集新日分销店,山东省,,
鲁成路东50米,菏泽市,成武县,115.935052,35.081198,成武南鲁集新日分销店,山东省,,
临濮镇临卜镇西街,菏泽市,鄄城县,115.374562,35.472145,鄄城临浦新日分销店,山东省,,
引马镇引马乡,菏泽市,鄄城县,115.635604,35.518589,鄄城引马新日分销店,山东省,,
S338(南环路),菏泽市,鄄城县,115.50691,35.529727,鄄城富春新日分销店,山东省,,
董口镇,菏泽市,鄄城县,115.41056826710701,35.51487256778765,鄄城双庙新日分销店,山东省,,
旧城镇邮局错对过,菏泽市,鄄城县,115.511278,35.665231,鄄城旧城新日分销店,山东省,,
堤口路街道,济南市,槐荫区,116.96263253688812,36.671909507492146,济南八里桥新日店,山东省,,
罗村镇,淄博市,淄川区,118.01858335733415,36.69525634252482,淄川罗村分销门店,山东省,,
钟楼街道,淄博市,淄川区,117.89301574230196,36.65305199291027,淄川商家分销门店,山东省,,
大王庄镇,济南市,莱芜区,117.49199867248534,36.36141182955861,莱芜大王庄镇分销门店,山东省,,
寨里镇,济南市,莱芜区,117.51936793327333,36.29591792476123,莱芜寨里镇分销,山东省,,
里辛街道,济南市,钢城区,117.86207243800166,36.16719352898459,莱芜潘西分销门店,山东省,,
高庄街道,济南市,莱芜区,117.6795266568661,36.16640750556684,莱芜高新区分销门店,山东省,,
省庄镇,泰安市,泰山区,117.2051753103733,36.19774380857226,泰安省庄分销门店,山东省,,
济宁高新区柳行办事处,济宁市,任城区,116.644695,35.430165,济宁柳行新日分销店,山东省,,
黄屯街道,济宁市,兖州区,116.71767309308053,35.453202311796545,济宁黄屯新日分销店,山东省,,
金沙路北100米,烟台市,莱州市,119.762198,37.03033,沙河子文车行,山东省,,
217省道,烟台市,莱州市,120.102664,37.358275,朱桥新日电动车,山东省,,
三山岛街道,烟台市,莱州市,120.002889,37.35952,西由于江车行,山东省,,
唐园镇,聊城市,临清市,115.5858801305294,36.74989707251639,临清唐元镇新日,山东省,,
芦头镇,烟台市,龙口市,120.465273,37.606707,芦头心悦车行,山东省,,
龙口市,烟台市,龙口市,120.520829,37.626766,东江鸿德车店,山东省,,
龙口市,烟台市,龙口市,120.489773,37.639802,邢家小慕车行,山东省,,
郑家镇,聊城市,东昌府区,115.72395488619807,36.40830025116486,聊城东昌府区郑家新日,山东省,,
龙口7路,烟台市,龙口市,120.439812,37.6791,官曲新日车行,山东省,,
沙镇镇,聊城市,东昌府区,115.8112943172455,36.31847068890509,聊城东昌府沙镇新日,山东省,,
王凤楼镇,德州市,平原县,116.58971831202508,37.20436034830165,平原王凤楼新日,山东省,,
运河街道,德州市,德城区,116.26308023929596,37.461492124769315,德城区新开发新日,山东省,,
龙口3路/龙口K3路,烟台市,龙口市,120.530785,37.695984,羊岚小王车行,山东省,,
014县道与330省道交叉口北150米,泰安市,岱岳区,116.93095,36.205578,泰安道朗镇分销门店,山东省,,
良庄镇,泰安市,岱岳区,117.21414327621461,35.95440434990756,泰安良庄镇分销门店,山东省,,
祝阳镇,泰安市,岱岳区,117.3457807302475,36.24533206979624,泰安祝阳镇分销门店,山东省,,
嘉祥经济开发区,济宁市,嘉祥县,116.41751646995543,35.42466574471141,济宁疃里新日分销店,山东省,,
青云街道,泰安市,新泰市,117.82096222043039,35.985173036951885,新泰北师镇分销门店,山东省,,
汶南镇,泰安市,新泰市,117.80567497015001,35.8739832266763,新泰沈家庄村,山东省,,
嘉祥镇街道,济宁市,嘉祥县,116.34399175643921,35.395152648326864,济宁嘉祥新日分销店,山东省,,
万张镇,济宁市,嘉祥县,116.32275804877284,35.45190665600121,济宁万张新日分销店,山东省,,
龙廷镇,临沂市,蒙阴县,117.86731481552125,35.839042228022805,新泰岙阴分销门店,山东省,,
马村镇,济宁市,嘉祥县,116.28078013658524,35.497088242287134,济宁马村新日分销店,山东省,,
大张楼镇,济宁市,嘉祥县,116.26709148287776,35.534225603235186,济宁大张楼新日分销店,山东省,,
学府西路北150米,烟台市,莱山区,121.510668,37.437578,东泊新日车行,山东省,,
莱山区,烟台市,莱山区,121.504186,37.40433,曲家洼新日专卖店,山东省,,
莱山区,烟台市,莱山区,121.351816,37.361135,解村新日专卖店,山东省,,
308省道夏邱镇附近,烟台市,莱州市,119.900852,37.012742,夏邱松山雅马哈车行,山东省,,
黄垓乡,济宁市,嘉祥县,116.15271136164665,35.60052379781736,济宁黄垓新日分销店,山东省,,
伏山镇,泰安市,宁阳县,116.73005819320679,35.812319032809505,宁阳白马分销门店,山东省,,
华丰镇,泰安市,宁阳县,117.16734409332278,35.86032648390023,宁阳县华丰分销门店,山东省,,
蒋集镇,泰安市,宁阳县,116.99271887540817,35.91735488196103,宁阳蒋集镇,山东省,,
堽城镇,泰安市,宁阳县,116.85482248663904,35.881293170518305,宁阳堽城分销,山东省,,
葛石镇石集邮电支局东200米,泰安市,宁阳县,116.88674,35.80983,宁阳石集分销门店,山东省,,
边院镇,泰安市,肥城市,116.87475800514221,36.006977806192715,肥城边院镇分销门店,山东省,,
新城街道,泰安市,肥城市,116.77932500839235,36.276576232879826,肥城汶阳村分销门店,山东省,,
湖屯镇,泰安市,肥城市,116.60375833511353,36.19904249696193,肥城安庄分销门店,山东省,,
孙伯镇,泰安市,肥城市,116.69586539268495,35.962116099298484,肥城孙伯镇,山东省,,
王庄镇,泰安市,肥城市,116.6058933734894,36.0813134355362,肥城王庄镇分销门店,山东省,,
西河镇,淄博市,淄川区,118.12947392463687,36.638538598980944,淄川也头分销门店,山东省,,
岭子镇,淄博市,淄川区,117.77205884456635,36.629520151582675,淄川岭子镇分销门店,山东省,,
石桥镇,淄博市,沂源县,118.34513425827026,36.14909458656487,沂源县石桥镇分销门店,山东省,,
鲁村镇,淄博市,沂源县,118.05504798889162,36.19598080461141,沂源县南鲁村镇分销门店,山东省,,
海兴路80,青岛市,黄岛区,119.569878,35.659092,胶南海清新日专卖店,山东省,,
吉利河路131号附近,青岛市,黄岛区,119.635773,35.67371,胶南大场新日专卖店,山东省,,
辛安街道南关路1号,青岛市,黄岛区,119.628677,35.7724,胶南理务关新日专卖,山东省,,
黄岛区,青岛市,黄岛区,119.904953,35.750702,胶南崔家滩新日专卖店,山东省,,
泊里镇海泊二路1-3号,青岛市,黄岛区,119.773376,35.700455,胶南泊里新日专卖店,山东省,,
雪山路附近,日照市,莒县,118.757996,35.773701,莒县果庄新日专卖店,山东省,,
山峤线峤山镇峤山派出所旁,日照市,莒县,118.934113,35.637791,莒县乔山新日专卖店,山东省,,
银杏大道北50米,日照市,莒县,118.793823,35.590771,莒县弗莱新日专卖,山东省,,
利民路与206国道交叉口东北150米,日照市,莒县,118.881294,35.656235,莒县墩头新日专卖店,山东省,,
顺泰路,日照市,莒县,118.941292,35.726479,莒县招贤新日专卖店,山东省,,
人民路与金鑫路交叉口北100米,菏泽市,曹县,115.204616,35.008259,曹县庄寨新日分销店,山东省,,
文化路121号,青岛市,平度市,119.712479,36.985001,平度灰埠新日专卖店,山东省,,
392省道,青岛市,平度市,119.841034,36.929245,平度昌里新日专卖店,山东省,,
青固集镇,菏泽市,曹县,115.790359,34.692104,曹县青古集新日分销店,山东省,,
古营集镇安仁集中学旁,菏泽市,曹县,115.698463,34.890874,曹县安仁集新日分销店,山东省,,
古营集镇沈庄村,菏泽市,曹县,115.673686,34.943452,曹县古营集新日分销店,山东省,,
魏湾镇,菏泽市,曹县,115.36408290266992,34.91639469875572,曹县魏湾朱韩店新日分销店,山东省,,
仿山镇仿山乡,菏泽市,定陶区,115.542807,35.156049,定陶游集新日分销店,山东省,,
府前街南50米,菏泽市,定陶区,115.493209,35.032023,定陶马集新日分销店,山东省,,
南王店乡中心街5号,菏泽市,曹县,115.56638,35.004945,定陶张董集新日分销店,山东省,,
联城镇,临沂市,蒙阴县,117.86098480224611,35.69762244299899,联城镇新日,山东省,,
常路镇,临沂市,蒙阴县,117.86530449986458,35.80135139462763,常路镇新日,山东省,,
坦埠镇,临沂市,蒙阴县,118.19399714469911,35.796595815476394,坦埠镇新日,山东省,,
雪野镇,济南市,莱芜区,117.54228472709657,36.48064756808662,莱芜雪野镇分销门店,山东省,,
张家洼街道,济南市,莱芜区,117.63384729623796,36.23844743926532,莱芜张家洼镇分销门店,山东省,,
文化路2,临沂市,河东区,118.493124,35.350726,葛沟新日,山东省,,
颜庄镇,济南市,莱芜区,117.70951643586159,36.15753442185188,莱芜市南冶分销门店,山东省,,
高桥镇,临沂市,沂水县,118.73342156410217,35.94940933119228,沂水高桥新日,山东省,,
房村镇,泰安市,岱岳区,117.27936387062074,36.028108442319,泰安北集坡分销门店,山东省,,
角峪镇,泰安市,岱岳区,117.42858588695528,36.164630803755614,泰安角峪分销门店,山东省,,
安居街道,济宁市,任城区,116.52755945920944,35.35269872955975,济宁安居新日分销店,山东省,,
唐口街道,济宁市,任城区,116.49278461933137,35.31121070890873,济宁唐口新日分销店,山东省,,
卜集镇,济宁市,金乡县,116.45465567708017,35.162794845783864,济宁东邵新日分销店,山东省,,
鱼山镇,济宁市,金乡县,116.2835964560509,35.070318745524226,济宁金乡新日分销店,山东省,,
青驼镇,临沂市,沂南县,118.28255563974383,35.404664344852456,沂南青驼新日,山东省,,
鸡黍镇,济宁市,金乡县,116.20086640119554,34.94924795055491,济宁鸡黍新日分销店,山东省,,
马庙镇,济宁市,金乡县,116.17628931999208,35.07390679821392,济宁马庙新日分销店,山东省,,
羊山镇,济宁市,金乡县,116.22998714447023,35.1720324060366,济宁羊山新日分销店,山东省,,
山东省青岛市市北区沈阳路85号龙利车行,青岛市,市北区,120.355495,36.092742,青岛龙利新能源汽车销售有限公司,山东省,,
香城镇田王村,济宁市,邹城市,117.213342,35.283517,邹城王村新日分销店,山东省,,
北宿大街406,济宁市,邹城市,116.890352,35.357578,邹城北宿新日分销店,山东省,,
342省道,济宁市,邹城市,117.408097,35.335737,邹城城前新日分销店,山东省,,
新东外环与342省道交叉口西北200米,济宁市,邹城市,117.086249,35.405495,邹城大束新日分销店,山东省,,
国道104附近,济宁市,曲阜市,116.931558,35.533017,曲阜陵城新日分销店,山东省,,
息陬镇,济宁市,曲阜市,117.05451160669327,35.53040906643667,曲阜冷庄新日分销,山东省,,
长兴集乡,菏泽市,东明县,114.91836950182916,35.14189080140115,东明长兴新日分销店,山东省,,
高庄镇,菏泽市,牡丹区,115.32769605517387,35.380952432467005,菏泽李庄集新日分销店,山东省,,
高峰头镇,临沂市,郯城县,118.36128115653992,34.52468136019057,郯城高峰头新日,山东省,,
高峰头镇红花乡,临沂市,郯城县,118.401076,34.476238,红花乡大尚庄,山东省,,
归昌乡,临沂市,郯城县,118.26373994350435,34.509537164407696,郯城归昌新日,山东省,,
小码头村,临沂市,郯城县,118.276223,34.586252,小马头新日,山东省,,
港上镇,临沂市,郯城县,118.20994421839714,34.61326139125029,郯城港上,山东省,,
胜利镇,临沂市,郯城县,118.25375407934189,34.681790506670445,郯城胜利,山东省,,
胜利镇南新汪村,临沂市,郯城县,118.26393,34.712069,南新汪,山东省,,
104省道,济宁市,微山县,116.73929,35.232676,济宁马坡新日分销店,山东省,,
接庄街道,济宁市,任城区,116.69888019561769,35.38037400604649,济宁接庄新日分销店,山东省,,
高楼乡,济宁市,微山县,117.26196572184566,34.47970040846259,济宁西平新日分销店,山东省,,
富源路付村,济宁市,微山县,117.074641,34.850465,济宁付村新日分销店,山东省,,
欢城镇,济宁市,微山县,117.084361,34.894347,济宁欢城新日分销店,山东省,,
王鲁镇,济宁市,鱼台县,116.592795,35.034513,济宁王鲁新日分销店,山东省,,
南张街道,济宁市,任城区,116.53480544686317,35.45547020544713,济宁南张新日分销店,山东省,,
纸坊镇镇中路,济宁市,嘉祥县,116.318041,35.289324,济宁纸坊新日分销店,山东省,,
商贸大街西50米,济宁市,任城区,116.450112,35.50055,济宁长沟新日分销店,山东省,,
石桥镇,济宁市,任城区,116.705032,35.313882,济宁石桥新日分销店,山东省,,
105国道附近,济宁市,任城区,116.539566,35.499661,济宁二十里铺新日分销店,山东省,,
李营街道济阳线,济宁市,任城区,116.613144,35.480356,济宁李营新日分销店,山东省,,
胡集镇,济宁市,金乡县,116.384723,35.192581,济宁胡集新日分销店,山东省,,
中心街南100米,济宁市,嘉祥县,116.266434,35.335406,济宁仲山新日分销店,山东省,,
留庄镇,济宁市,微山县,116.93986728787421,35.00177523155904,济宁留庄新日分销店,山东省,,
337省道西150米,济宁市,梁山县,116.20964,35.688105,济宁徐集新日分销店,山东省,,
大黄集镇,菏泽市,牡丹区,115.33541947603227,35.05790038507366,菏泽安陵新日分销店,山东省,,
327国道,菏泽市,牡丹区,115.749013,35.278181,菏泽沙土新日分销店,山东省,,
广源街与福庆街交叉口东南150米,菏泽市,牡丹区,115.267516,35.074745,菏泽大黄集新日分销店,山东省,,
西门街与金河路交叉口北200米,菏泽市,郓城县,115.93408,35.593582,菏泽郓城分销店,山东省,,
羊流镇,泰安市,新泰市,117.52109661698341,35.99895362299906,新泰坦里分销门店,山东省,,
神山镇,临沂市,兰陵县,118.17204862833024,34.891155138927935,神山新日,山东省,,
磨山镇,临沂市,兰陵县,118.1576290726662,34.77856068391496,磨山,山东省,,
梁堤头镇,菏泽市,曹县,115.5881,34.631996,曹县夏庄新日分销店,山东省,,
大集乡万桑路,菏泽市,曹县,115.629026,34.714144,曹县大集新日分销店,山东省,,
350省道北100米,菏泽市,曹县,115.35698,34.993469,曹县韩集新日分销店,山东省,,
青岗集镇,菏泽市,曹县,115.50159,34.9752,曹县青岗集新日分销店,山东省,,
103县道,菏泽市,鄄城县,115.625147,35.689566,鄄城左营新日分销店,山东省,,
彭楼镇彭楼村,菏泽市,鄄城县,115.601365,35.421372,鄄城彭楼新日分销店,山东省,,
警民路南150米,菏泽市,鄄城县,115.558099,35.697434,鄄城李进士新日分销店,山东省,,
彭楼镇259省道,菏泽市,牡丹区,115.528226,35.379728,鄄城舜城新日分销店,山东省,,
巨龙街北50米,菏泽市,巨野县,115.852285,35.279464,巨野李集新日分销店,山东省,,
太平镇大张庄村,菏泽市,巨野县,115.81336,35.324497,巨野大张庄新日分销店,山东省,,
西单村济微东路与104省道交叉口东150米,济宁市,微山县,116.73916,35.148039,济宁两城新日分销店,山东省,,
348省道南50米,济宁市,鱼台县,116.763291,34.937948,济宁老寨新日分销店,山东省,,
经济开发路,济宁市,嘉祥县,116.168952,35.533911,济宁老僧堂新日分销店,山东省,,
南沙河镇,枣庄市,滕州市,117.185760140419,35.00958880663241,滕州南沙河,山东省,,
级索镇,枣庄市,滕州市,117.02771499753,35.02906951197777,滕州级索,山东省,,
屯里村附近,枣庄市,滕州市,117.218804,35.15386,滕州巴庄新日,山东省,,
104省道西50米,枣庄市,滕州市,116.944435,35.081153,滕州望庄新日,山东省,,
东郭镇,枣庄市,滕州市,117.25916147232056,35.19885550563377,滕州东郭,山东省,,
洪绪镇政府,枣庄市,滕州市,117.13222,35.048334,滕州洪绪,山东省,,
鲍沟镇,枣庄市,滕州市,117.160808891058,35.00403051267334,滕州鲍沟,山东省,,
山东省临沂市兰山区通达路与银雀山路交汇处,临沂市,兰山区,118.329579,35.060278,临沂市兰山区达美户外用品生活馆,山东省,,
岳杨路与260省道交叉口西150米,聊城市,冠县,115.504227,36.566542,冠县清水镇新日,山东省,,
斜店乡,聊城市,冠县,115.38082793354991,36.43614416804578,冠县斜店新日,山东省,,
梁堂乡,聊城市,冠县,115.46881645917894,36.40691221858781,冠县梁堂镇新日,山东省,,
燕店镇,聊城市,莘县,115.60451611876489,36.31550984882627,聊城莘县燕店新日新网点,山东省,,
山东省枣庄市市中区永安乡永安村衡山路,枣庄市,市中区,117.523742,34.821859,李淑慧,山东省,,
朝城镇,聊城市,莘县,115.59509754180908,36.05140848510238,莘县朝城宏达电动卖场,山东省,,
260省道西50米,聊城市,莘县,115.511059,36.110386,莘县牛庄新日,山东省,,
西常庄村,聊城市,莘县,115.530891,36.137338,莘县妹宗大常庄新日,山东省,,
山东省淄博市博山区沿河东路24号新日电动车门店,淄博市,博山区,117.864715,36.498115,博山城东鑫明摩托车销售部,山东省,,
山东省济宁市火炬南路龙城国际北300米磁砖家具市场院内,济宁市,任城区,116.62103,35.384281,济宁市任城区汇久电动车经营部,山东省,,
营丘镇,潍坊市,昌乐县,119.06012132763865,36.493196103229465,马庄乡京全电动车专卖店,山东省,,
营丘镇,潍坊市,昌乐县,118.96622255444527,36.52978743877675,营丘镇爱玛电动车专卖店,山东省,,
山东省泰安市泰山区泰山商贸城百货批发市场中排6号,泰安市,岱岳区,117.107981,36.257439,泰安市泰山区赛亿车行,山东省,,
朱刘街道,潍坊市,昌乐县,118.90880584716795,36.72407841844399,昌乐县朱刘镇赛鸽专卖店,山东省,,
马桥镇,淄博市,桓台县,117.92101532220842,37.01511145949957,桓台马桥镇陈庄,山东省,,
褚墩镇,临沂市,罗庄区,118.25195699930191,34.81525560572753,褚墩风行车行,山东省,,
新安街道,潍坊市,安丘市,119.125604,36.449129,关王镇北关爱玛专卖店,山东省,,
凌河镇慈埠镇,潍坊市,安丘市,119.058312,36.407162,慈埠镇新日专卖店,山东省,,
凌河镇,潍坊市,安丘市,119.07191365957262,36.356656521588725,安丘市凌河镇新日专卖店,山东省,,
景芝镇,潍坊市,安丘市,119.26730856299403,36.23060914694777,安丘市景芝镇新日专卖店,山东省,,
新城街道,泰安市,肥城市,116.78794294595718,36.18930180894522,肥城城区巧山社区店,山东省,,
九曲街道,临沂市,河东区,118.41740638017654,35.119049649718214,临沂河东九曲新日电动车,山东省,,
莱州市,烟台市,莱州市,120.151827,37.434963,新城二双车业,山东省,,
308省道夏邱镇附近,烟台市,莱州市,119.900831,37.013429,夏邱小刀电动车,山东省,,
莱州市,烟台市,莱州市,120.008368,37.222321,程郭,山东省,,
虎头崖镇东宋村,烟台市,莱州市,119.823864,37.153717,东宋阿升维修,山东省,,
郭家店镇钟家村,烟台市,莱州市,120.114342,37.041117,仲院阿明车行,山东省,,
板泉镇,临沂市,莒南县,118.69253799319267,35.12541291152704,莒南板泉新日,山东省,,
白沙埠镇,临沂市,兰山区,118.3939129114151,35.17701801601879,白沙埠新日,山东省,,
山东德州庆云县塑料杂品市场8-1号,德州市,庆云县,117.391307,37.778572,庆云县兴旺信誉车行,山东省,,
山东省济南市章丘区汇泉路新日电动车专卖店,济南市,章丘区,117.38357,36.776711,济南市章丘区明水兴鲁电动自行车经营部,山东省,,
山东省济南市市中区十六里河街道办事处大涧沟西村村西望岳楼,济南市,市中区,117.001664,36.557286,济南槐荫宏腾电动车销售中心,山东省,,
梁才街道,滨州市,滨城区,118.09124037623404,37.39944438312719,滨州梁才新日,山东省,,
高新街道,滨州市,邹平市,117.77439773082733,36.884798579436975,桓台邹平新日,山东省,,
起凤镇,淄博市,桓台县,118.11839237809183,37.02931269347848,桓台乌河新日,山东省,,
李庄镇,滨州市,惠民县,117.59883508086207,37.262971454220185,惠民李庄新日,山东省,,
翟镇,泰安市,新泰市,117.67493069171906,35.94304595168245,新泰翟镇分销门店,山东省,,
大埝镇103县道,菏泽市,鄄城县,115.590205,35.643881,鄄城新日大捻分销店（新开发）,山东省,,
成武县党集镇,菏泽市,成武县,115.95822438597679,35.00961846450025,成武县党集分销店（新开发）,山东省,,
S348(九女大街),菏泽市,成武县,115.798846,34.941183,成武县九女集新日分销店（新开发）,山东省,,
钟楼街道,淄博市,淄川区,117.92738556861879,36.67722630001267,淄川双沟镇分销门店,山东省,,
龙廷镇,泰安市,新泰市,117.92445659637451,35.93024815556614,新泰龙廷镇苗田村分销,山东省,,
西湖镇,聊城市,阳谷县,115.7067994773388,36.1030515075168,阳谷西湖镇新日,山东省,,
西湖镇,聊城市,阳谷县,115.70686921477318,36.10305800885727,阳谷西湖镇新日,山东省,,
西湖镇,聊城市,阳谷县,115.70674717426301,36.10306559375379,阳谷西湖镇新日,山东省,,
寿张镇,聊城市,阳谷县,115.84047675132751,36.02488063787969,阳谷寿张四朋新日,山东省,,
高庙王乡,聊城市,阳谷县,115.75740337371829,36.04191188775815,阳谷县高庙王新日,山东省,,
李台镇,聊城市,阳谷县,115.74009373784067,35.99835687583779,阳谷李台镇新日,山东省,,
底阁镇甘沟街十字路口东10米路南,枣庄市,峄城区,117.745752,34.729796,底阁镇甘沟乡新日电动车,山东省,,
石良镇政通街3号,烟台市,龙口市,120.665218,37.576279,石良新日电动车,山东省,,
龙口7路,烟台市,龙口市,120.43927,37.698551,四农新日电动车,山东省,,
徐福街道,烟台市,龙口市,120.466265,37.732829,港栾新日电动车,山东省,,
振兴中路与水产街交叉口南50米,烟台市,龙口市,120.332536,37.639552,西城区新日电动车,山东省,,
龙口市,烟台市,龙口市,120.598859,37.679183,田家新日电动车,山东省,,
黄夹镇,德州市,乐陵市,117.05341860651968,37.74306851373363,乐陵黄夹镇新日,山东省,,
龙都街道,潍坊市,诸城市,119.39169734716418,35.957437467304175,诸城相州金彭电动车,山东省,,
皇华镇,潍坊市,诸城市,119.4387151300907,35.830688934189304,新开发，诸城市郝戈庄乡,山东省,,
枳沟镇,潍坊市,诸城市,119.22437846660617,35.931698951664494,新开发，诸城市炽沟镇速派奇,山东省,,
舜王街道,潍坊市,诸城市,119.28479924798012,36.01648837830978,新开发，诸城市贾悦镇都市风,山东省,,
运河街道,德州市,德城区,116.28621831536294,37.42041493071061,德州铁骑南路新日,山东省,,
诸城经济开发区,潍坊市,诸城市,119.350870102644,36.07830459225033,新客户，诸城市解留金彭专卖店,山东省,,
密州东路,潍坊市,诸城市,119.454002,36.015206,新开发，诸城市黄疃乡欧派专卖店,山东省,,
洙边镇,临沂市,莒南县,118.86682927608491,35.07972922769498,洙边新日,山东省,,
仪阳镇,泰安市,肥城市,116.78525805473329,36.16803151221126,肥城仪阳分销,山东省,,
上口镇,潍坊市,寿光市,118.8570164144039,36.94332054822484,寿光市上口镇比德文专卖店,山东省,,
南坊镇小杏花村,临沂市,兰山区,118.351663,35.160192,临沂小杏花,山东省,,
韩店镇,滨州市,邹平市,117.7956958115101,36.92836353548179,邹平韩店大位家村新日,山东省,,
台子镇,滨州市,邹平市,117.50992655754088,37.091965340489594,邹平台子新日,山东省,,
魏桥镇,滨州市,邹平市,117.4989026784897,37.028430480476715,邹平魏桥新日,山东省,,
三河湖镇,滨州市,滨城区,117.87304937839508,37.503940505013354,滨州三河湖新日,山东省,,
沙河街道,滨州市,滨城区,117.90167793631554,37.30123326987421,滨州何集新日,山东省,,
邱家店镇,泰安市,泰山区,117.2728769481182,36.20401735639146,泰安邱家店分销,山东省,,
黄山镇,临沂市,罗庄区,118.32694351673128,34.839892163783375,郯城黄山镇,山东省,,
后村镇,日照市,东港区,119.295036,35.385136,鲁东B区新开发日照后村以确认合作进货,山东省,,
古岘镇古岘镇古岘中学对面,青岛市,平度市,120.221909,36.734585,"鲁东B区新开发平度古岘镇绿源以进货,",山东省,,
海滨四路文化路路口东100米,日照市,东港区,119.53891,35.385788,"鲁东B区新开发日照石臼镇确认合作,待",山东省,,
环岛路,青岛市,黄岛区,120.204109,35.918983,鲁东B区新开发黄岛银沙滩新开发计划装,山东省,,
牛泉镇,济南市,莱芜区,117.53876969218254,36.17043173241084,莱芜牛泉镇分销,山东省,,
苗山镇,济南市,莱芜区,117.7998720109463,36.30754636003791,莱芜苗山镇分销,山东省,,
山东省泰安市东平县县城105国道，东原路与汶河路交叉口往南150米路西,泰安市,东平县,116.459278,35.940437,东平县佳诺车行,山东省,,
山东省烟台市开发区古现上海大街路北古现胜利摩托车超市,烟台市,福山区,121.152317,37.578404,烟台市开发区古现相民摩托车经销维修部,山东省,,
山东省青岛市黄岛区滨海卫生院对面新日电动车专卖店,青岛市,黄岛区,119.975987,35.822059,黄岛区品质新日电动车超市,山东省,,
郯城街道,临沂市,郯城县,118.34602743387225,34.60708024177596,郯城县直营1店,山东省,,
山东省淄博市桓台县索镇大街1639号,淄博市,桓台县,118.106926,36.958524,桓台县索镇琪悦电动车商行,山东省,,
界湖街道,临沂市,沂南县,118.46083670854571,35.544780432352695,沂南新日直营店,山东省,,
菏泽市开发区丹阳办事处耿庄社区振兴路畅志园7号705,菏泽市,牡丹区,115.501689,35.251459,菏泽开发区龙华商贸服务中心,山东省,,
彭李街道,滨州市,滨城区,118.00966635346411,37.384990826086764,滨州市区店,山东省,,
杨柳雪镇,滨州市,滨城区,117.89100944995879,37.412580690394016,滨州尚集新日,山东省,,
山东省青岛市胶州市胶州东路新蕾专卖店,青岛市,胶州市,120.02753,36.294186,胶州市德良电动车超市,山东省,,
山东省青岛市即墨区蓝鳌路新日专卖店,青岛市,即墨区,120.455819,36.399733,即墨市新迪电动车商店,山东省,,
上高街道,泰安市,泰山区,117.16353535652163,36.18480553157707,泰安泰景城社区店,山东省,,
新湖镇,泰安市,东平县,116.31238460540774,35.830400798901984,东平新湖镇分销门店,山东省,,
新安街道,潍坊市,安丘市,119.24277439713481,36.47201185682313,安丘市利达电动车门市,山东省,,
皇华镇,潍坊市,诸城市,119.42179307341577,35.84369524988981,郝戈庄镇新日专卖店,山东省,,
林家村镇,潍坊市,诸城市,119.65207278728488,35.86813000407787,河头新日专卖店,山东省,,
莱州市,烟台市,莱州市,119.920736,37.257372,朱旺小于车行,山东省,,
山东省德州市禹城市开拓路中医院正对面,德州市,禹城市,116.632079,36.933015,禹城市建辉车业销售部,山东省,,
岱庙街道,泰安市,泰山区,117.12975293397905,36.18596696834327,泰安商家新日二店,山东省,,
运河路40号,济宁市,任城区,116.590003,35.402461,新日运河路店,山东省,,
琵琶山路与金宇路交汇处,济宁市,任城区,116.607505,35.42987,佳世客新日店,山东省,,
泥沟镇,枣庄市,台儿庄区,117.66259521245956,34.69455691185897,台儿庄泥沟新日,山东省,,
马兰屯镇,枣庄市,台儿庄区,117.65005588531496,34.61437615672409,台儿庄马兰镇新日,山东省,,
中丁乡,德州市,庆云县,117.48946666717531,37.69977274884563,庆云中丁新日,山东省,,
八湖镇,临沂市,河东区,118.57752352952956,35.24085895084283,临沂市刘店子分销店,山东省,,
涝坡镇涝坡,临沂市,莒南县,118.93335,35.284574,莒南新日满坡分销店,山东省,,
坪上镇,临沂市,莒南县,119.085208,35.176,莒南新日坪上分销店,山东省,,
解放路与君山路88号交汇处西南角,枣庄市,市中区,117.570629,34.863957,1,山东省,,
钢山街道,济宁市,邹城市,116.9652007520199,35.40373519743132,邹城新日直营店,山东省,,
山东省滨州市博兴县庞家镇振博大道,滨州市,博兴县,118.09686,37.220116,博兴庞家新日专卖店,山东省,,
山东省滨州市博兴县店子镇店子镇张侯学区中心小学,滨州市,博兴县,118.298505,37.045665,博兴店子镇新日专卖店,山东省,,
小协镇,泰安市,新泰市,117.62285962700844,35.90056832255211,新泰小协分销,山东省,,
东城街道,菏泽市,牡丹区,115.46672031283379,35.24936260936929,菏泽八一路二店,山东省,,
东城街道,菏泽市,牡丹区,115.46547442674635,35.24929689672581,菏泽八一路一店,山东省,,
山东省青岛市即墨区段泊岚镇中共即墨市段泊岚镇委员会,青岛市,即墨区,120.367393,36.538753,即墨段泊岚新日专卖店,山东省,,
山东省青岛市即墨区大信镇建设路,青岛市,即墨区,120.377123,36.479858,即墨长直新日专卖店,山东省,,
山东省青岛市即墨区灵山镇泰山路华山汽车站,青岛市,即墨区,120.547837,36.544799,即墨华山新日专卖店,山东省,,
山东省滨州市滨城区杜店街道滨州汽车总站,滨州市,滨城区,117.938261,37.368865,吕家新日电动车,山东省,,
严务乡,德州市,庆云县,117.47403457760811,37.8844881923397,德州庆云严务新日,山东省,,
市中街道,德州市,禹城市,116.63199663162233,36.93141992283314,德州禹城市新日自营店（建辉车业）,山东省,,
义渡口镇,德州市,陵城区,116.7437696456909,37.47943029770807,陵县义渡乡镇新日,山东省,,
黄堆集镇,菏泽市,郓城县,116.0886897146702,35.53978801414725,郓城黄泥岗新日店,山东省,,
双桥镇,菏泽市,郓城县,115.87435036897662,35.53716455115435,郓城双桥新日店,山东省,,
黄安镇,菏泽市,郓城县,115.73134437203409,35.45678000507698,郓城黄安新日电动车店,山东省,,
安临站镇,泰安市,肥城市,116.77141785621643,36.08887839011748,肥城安站镇分销门店,山东省,,
新城街道,泰安市,肥城市,116.73041358590127,36.17541706989159,肥城沙窝社区店,山东省,,
新安街道,潍坊市,安丘市,119.20221805572511,36.502353374528845,安丘市市北区新飞专卖店,山东省,,
新安街道,潍坊市,安丘市,119.21843200922015,36.48578669668794,安丘市南流电动车超市,山东省,,
舜王街道,潍坊市,诸城市,119.40956756472588,36.11220269511186,诸城市舜王速派奇专卖店,山东省,,
林家村镇,潍坊市,诸城市,119.65207278728488,35.86813000407787,诸城市石河速派奇专卖店,山东省,,
密州街道,潍坊市,诸城市,119.40145254135135,35.99298594819705,诸城市密州社区新光维修部,山东省,,
古泉街道,菏泽市,鄄城县,115.51063746213914,35.55319318146876,鄄城新日专卖店,山东省,,
山东省青岛市即墨区通济街道鹤山路966号,青岛市,即墨区,120.40856,36.399672,即墨南面镇新日专卖店,山东省,,
山东省青岛市莱西市南墅镇山青路9号,青岛市,莱西市,120.333965,37.023333,莱西3月新开发南墅新日专卖店,山东省,,
山东省青岛市黄岛区灵山卫街道灵山卫派出所,青岛市,黄岛区,120.151517,35.932566,黄岛区灵山卫3月新开发新日,山东省,,
山东省青岛市即墨区通济街道城马路133号,青岛市,即墨区,120.37084,36.359868,即墨楼子摊新日专卖店3月开,山东省,,
箕山镇,菏泽市,鄄城县,115.64748644828798,35.62579961331062,鄄城吉山新日电动车店,山东省,,
红船镇,菏泽市,鄄城县,115.6879596412182,35.549999495960684,鄄城红船新日专卖店,山东省,,
彭楼镇,菏泽市,鄄城县,115.60417547821999,35.42014236530502,鄄城彭楼新日电动车店,山东省,,
文泗线保太医院门诊部附近,临沂市,平邑县,117.714143,35.570557,平邑新日保太分销店,山东省,,
335省道东50米,临沂市,平邑县,117.646574,35.595104,平邑新日仲村分销店,山东省,,
342省道南50米,临沂市,平邑县,117.55925,35.245256,平邑新日白彦分销店,山东省,,
广州路与淮河路交界,菏泽市,鄄城县,115.541306,35.423599,鄄城庄寨新日电动车店,山东省,,
彭楼镇259省道,菏泽市,牡丹区,115.528226,35.379728,鄄城舜城新日电动车店,山东省,,
什集镇,菏泽市,鄄城县,115.4832574725151,35.426480926541075,鄄城什集新日电动车店,山东省,,
临濮镇,菏泽市,鄄城县,115.39708212018014,35.46395129892323,鄄城临濮新日电动车店,山东省,,
环城西路48号,济宁市,任城区,116.574813,35.416873,济宁环城路店,山东省,,
太平镇,济宁市,邹城市,116.84088841080666,35.339846503533195,邹城太平新日,山东省,,
郭里镇,济宁市,邹城市,116.82537853717803,35.223678051912195,邹城郭里镇新日,山东省,,
石墙镇,济宁市,邹城市,116.90817967057231,35.29193757919372,邹城石墙新日,山东省,,
汤头镇,临沂市,河东区,118.516294,35.267264,临沂新日汤头分销店,山东省,,
新华街道,德州市,德城区,116.3102924823761,37.43389046279917,德城区百万庄园新日,山东省,,
新湖南路与新河西路交汇处,德州市,德城区,116.301892,37.429784,德城建委小区新日,山东省,,
山东省日照市莒县寨里河镇寨里河镇,日照市,莒县,118.925189,35.463641,莒县寨里新日电动车专卖店,山东省,,
山东省青岛市胶州市中云街道胶州东路73号,青岛市,胶州市,120.012035,36.293898,胶州新日电动车(直营德良车业),山东省,,
龙王庙镇,菏泽市,单县,116.18458271026613,34.70283852866551,单县龙王庙新日电动车,山东省,,
蔡堂镇,菏泽市,单县,116.2489114701748,34.641639099649176,单县蔡堂镇新日电动车,山东省,,
李田楼镇,菏泽市,单县,116.22448325157166,34.753720676412506,单县李田楼新日电动车,山东省,,
羊里镇,济南市,莱芜区,117.5254699587822,36.27592753505677,莱芜辛兴分销门店,山东省,,
羊里镇,济南市,莱芜区,117.5653423368931,36.33244563228376,莱芜付家庄村,山东省,,
天衢街道,德州市,德城区,116.33750349283218,37.471670354968815,德州市德城区梅园社区店,山东省,,
山东省滨州市惠民县辛店镇府前街,滨州市,惠民县,117.585647,37.357986,惠民辛店新日,山东省,,
坊前镇,临沂市,莒南县,119.0046626329422,35.158461842695225,莒南新日坊前分销店,山东省,,
文疃镇,临沂市,莒南县,119.046155,35.327059,莒南新日文疃分销店,山东省,,
岭泉镇,临沂市,莒南县,118.768268,35.219002,莒南新日良店分销店,山东省,,
姚村镇,济宁市,曲阜市,116.9278322160244,35.66883939735891,曲阜姚村店,山东省,,
贾悦镇,潍坊市,诸城市,119.19077038764955,36.0253155748831,辛虎电动车专卖店,山东省,,
榴园镇棠阴乡,枣庄市,峄城区,117.47996,34.755016,峄城棠阴镇,山东省,,
龙都街道,潍坊市,诸城市,119.38126623630524,35.98451867052221,道扣电动车专卖店,山东省,,
峨山镇,枣庄市,峄城区,117.69533291459086,34.76590860490769,峄城峨山左庄,山东省,,
中心街凌云家电二楼,临沂市,沂水县,118.624651,35.786275,沂水刘南宅分销店,山东省,,
许家湖镇东环路254号,临沂市,沂水县,118.642553,35.759004,沂水新汽车站分销店,山东省,,
北二环路附近,临沂市,沂水县,118.612172,35.83053,沂水前石良新日分销店,山东省,,
富春乡,菏泽市,鄄城县,115.49618437886237,35.46447778761293,鄄城白集新日电动车,山东省,,
凤凰街道,潍坊市,坊子区,119.16648566722868,36.65444960199238,坊子区焦氏新日专卖店,山东省,,
寒亭街道,潍坊市,寒亭区,119.22412768006325,36.77407530699851,寒亭区新飞专卖店,山东省,,
圣城街道,潍坊市,寿光市,118.73826697468758,36.87304330970676,孙集镇新日专卖店,山东省,,
北庄镇,枣庄市,山亭区,117.6382005214691,34.95137606984973,滕州半湖新日店,山东省,,
北城街道,菏泽市,单县,116.08095958828926,34.795082027657116,单县新日电动车店,山东省,,
李田楼镇,菏泽市,单县,116.2208542227745,34.757520920555145,单县李田楼新日电动车,山东省,,
冉固镇冉子街,菏泽市,定陶区,115.724523,35.003195,定陶田集新日电动车店,山东省,,
郭村镇,菏泽市,单县,115.91910436749461,34.79426264701262,大李海新日电动车店,山东省,,
文亭街道,菏泽市,成武县,115.87988913059236,34.951214484217445,新日电动车成武直营店,山东省,,
陵边路附近,德州市,陵城区,116.568264,37.380623,陵县纪家社区新日,山东省,,
莒镇乡,德州市,禹城市,116.48409962654114,36.70394130267717,德州禹城莒镇新日（高科家电）,山东省,,
东山路与龙山大街交叉口东南150米,泰安市,东平县,116.470947,35.934867,东平城区东山路南首分销店,山东省,,
山东省烟台市莱州市土山镇土山镇人民政府(府前路),烟台市,莱州市,119.691033,37.055445,土山伟杰新日,山东省,,
将军路街道,淄博市,淄川区,117.95873254537584,36.6210033146358,淄川城南分销门店,山东省,,
224省道西50米,潍坊市,寿光市,118.858986,36.787595,寿光田马比德文专卖店,山东省,,
大安镇,济宁市,兖州区,116.82110711932185,35.634845853412415,兖州谷村（大安）新日,山东省,,
卧龙山镇马庄(嘉祥县卧龙山镇马庄村327国道路南),济宁市,嘉祥县,116.230052,35.397643,济宁马庄新日店,山东省,,
山东省青岛市即墨区朱家泊子村民委员会,青岛市,即墨区,120.370809,36.341924,即墨朱家坡子新日,山东省,,
山东省青岛市黄岛区黄岛街道凤鸣岛街,青岛市,黄岛区,120.218352,36.04869,黄岛区凤鸣岛新日,山东省,,
山东省日照市莒县城阳街道青年中路11号,日照市,莒县,118.831784,35.587738,莒县新日电动车,山东省,,
新城街道,泰安市,肥城市,116.75184443593024,36.18965033001725,肥城泰临路店,山东省,,
戴庙镇,泰安市,东平县,116.10476955771446,35.96322329879419,东平岱庙镇分销门店,山东省,,
彭集街道,泰安市,东平县,116.4361806213856,35.877081369078034,东平彭集镇梁庄分销门店,山东省,,
山东省滨州市博兴县纯化镇228省道,滨州市,博兴县,118.265299,37.261809,滨州纯化新日,山东省,,
斑鸠店镇,泰安市,东平县,116.16309151053427,36.10860345631689,东平斑鸠店镇分销门店,山东省,,
山东省威海市环翠区温泉镇温泉镇人民政府,威海市,环翠区,122.167544,37.37553,温泉镇新日电动车,山东省,,
商老庄乡,泰安市,东平县,116.13754749298096,35.9115026926995,东平商老庄乡分销门店,山东省,,
接山镇,泰安市,东平县,116.57363578677177,35.94855924548492,东平接山镇分销门店,山东省,,
大羊镇,泰安市,东平县,116.47635072469713,36.046745991966326,东平大羊镇分销门店,山东省,,
界河镇,枣庄市,滕州市,117.04156190156938,35.17042089679702,滕州界河彭庄（申请装修中）,山东省,,
山东省烟台市莱州市驿道镇驿道路,烟台市,莱州市,120.157862,37.232001,驿道镇新日电动车,山东省,,
山东省烟台市莱州市驿道镇306省道,烟台市,莱州市,120.156058,37.231875,小于家新日电动车,山东省,,
山东省烟台市莱州市朱桥镇鹿家村,烟台市,莱州市,120.146242,37.299894,梁郭镇新日电动车,山东省,,
山东省烟台市芝罘区黄务街道黄务立交桥,烟台市,芝罘区,121.359365,37.467977,黄务镇踏浪车行,山东省,,
山东省烟台市莱州市程郭镇程郭镇武官完小,烟台市,莱州市,119.927261,37.178339,程郭孟家新日,山东省,,
山东省烟台市芝罘区黄务街道姜家疃,烟台市,芝罘区,121.359987,37.457476,姜家疃天能电池,山东省,,
山东省烟台市牟平区武宁街道武宁镇南官庄东村卫生室紫金花园,烟台市,牟平区,121.563138,37.397769,武宁镇雅马哈车行,山东省,,
山东省青岛市黄岛区灵山卫街道灵海路3969号,青岛市,黄岛区,120.151283,35.934169,灵山卫新日,山东省,,
新城街道,泰安市,肥城市,116.78063392639162,36.232487120191664,番庄店新日速修门店,山东省,,
城西街道,淄博市,博山区,117.8622253239155,36.4985618737788,博山直营店,山东省,,
喻屯镇,济宁市,任城区,116.51558607816698,35.23215722113187,济宁喻屯新日电动车,山东省,,
山东省烟台市莱山区黄海路街道滨海中路,烟台市,莱山区,121.448105,37.510884,莱山区小刀绿源电动车商行,山东省,,
孙家集街道,潍坊市,寿光市,118.73897641897202,36.81994721435459,寿光市胡营镇电动车超市,山东省,,
侯镇,潍坊市,寿光市,118.96805852651597,36.99900644977791,候镇澳柯玛电动车专卖,山东省,,
新安街道,潍坊市,安丘市,119.21884238719939,36.47849088719731,市南区维修部,山东省,,
车站街道,淄博市,张店区,118.04097443819046,36.7924864348189,淄博张店新日速修门店,山东省,,
张黄镇,济宁市,鱼台县,116.58448532223703,35.1260249694582,济宁张黄真新日分销商,山东省,,
杏园街道,淄博市,张店区,118.0641782283783,36.78870489386194,淄博张店火车站分销门店,山东省,,
山东省青岛市李沧区浮山路街道京口路中海国际社区一里城,青岛市,李沧区,120.426957,36.156309,李仓新日,山东省,,
山东省青岛市城阳区城阳街道华城路6-67号泽惠贸易中心A座,青岛市,城阳区,120.381957,36.300774,城阳新门头,山东省,,
山东省青岛市即墨区212省道,青岛市,即墨区,120.66726,36.363491,鳌山新日门店,山东省,,
山东省烟台市莱山区初家街道初家小区,烟台市,莱山区,121.43225,37.462665,莱山区少华车行,山东省,,
王因街道,济宁市,兖州区,116.80819496512414,35.46602883384508,杨村新日电动车,山东省,,
兴仁街道,枣庄市,薛城区,117.33148857951166,34.80088684200979,枣庄新城新日,山东省,,
公园街道,淄博市,张店区,118.05629521608351,36.80582505213044,淄博张店区共青团路店,山东省,,
海丰街道,滨州市,无棣县,117.60870561003688,37.75223912075106,无棣新日门店,山东省,,
城西街道,淄博市,博山区,117.8633840382099,36.49910306608054,博山新日专卖店,山东省,,
市中街道,滨州市,滨城区,118.01861688494684,37.370555798612216,滨州新日专卖店,山东省,,
孙武街道,滨州市,惠民县,117.5056605041027,37.48732671019957,惠民新日专卖店,山东省,,
荆河街道,枣庄市,滕州市,117.15063259005548,35.07456973103104,山东滕州销售一店,山东省,,
荆河街道,枣庄市,滕州市,117.15099066495898,35.07790955732883,滕州直营二店,山东省,,
柳园街道,聊城市,东昌府区,115.99660947918892,36.45064059037528,聊城市东昌府利民路新日,山东省,,
新城街道,泰安市,肥城市,116.71665251255037,36.193992642635855,肥城新日电动车直营店,山东省,,
前进路与文庙路交叉口东北100米,菏泽市,巨野县,116.099436,35.394656,巨野新日直营店,山东省,,
密州街道,潍坊市,诸城市,119.40446063876152,35.9990870767464,诸城市远晖车行,山东省,,
圣城街道,潍坊市,寿光市,118.74004259705544,36.88096903615247,寿光市汇鑫车业有限公司,山东省,,
云门山街道,潍坊市,青州市,118.485746383667,36.70297145732277,青州市永拓商贸有限公司,山东省,,
城关街道,潍坊市,临朐县,118.53618934750557,36.505370702927024,临朐县明磊摩托车销售部,山东省,,
城关街道,潍坊市,潍城区,119.10731077194214,36.70859682007915,奎文区东关百益欣电动车超市,山东省,,
高密市密水街道,潍坊市,高密市,119.76042732596397,36.378544944522474,高密市富瑞电动车销售有限公司,山东省,,
兴安街道,潍坊市,安丘市,119.19916838407516,36.43078918204957,安丘市利达电动车门市,山东省,,
山东省青岛市莱西市水集街道威海东路77-186号豪帝商城(威海东路),青岛市,莱西市,120.528442,36.863646,莱西豪帝商城专卖店,山东省,,
山东省青岛市即墨区蓝鳌路1075号即墨坊子街小区,青岛市,即墨区,120.461303,36.392514,即墨蓝鳌路新日专卖店,山东省,,
山东省日照市莒县城阳街道中国建设银行(青年路分理处),日照市,莒县,118.831525,35.588075,莒县建设中路专卖店,山东省,,
山东省青岛市胶州市中云街道锦江之星酒店(胶州东路店),青岛市,胶州市,120.013599,36.293994,胶州德良新日专卖店,山东省,,
解放路街道,济南市,历下区,117.04281583428383,36.66726252573274,济南解放桥店,山东省,,
五里沟街道,济南市,槐荫区,116.98667585849762,36.662218296694704,济南经三纬六店,山东省,,
枣园镇文化路45号,济南市,章丘区,117.447902,36.734137,章丘枣园新日,山东省,,
S29滨莱高速附近,淄博市,淄川区,117.867155,36.616772,磁村新日电动车专卖店,山东省,,
双杨镇,淄博市,淄川区,117.99413233995436,36.7147173748695,双杨镇新日电动车专卖店,山东省,,
011乡道西200米,淄博市,博山区,118.031924,36.418423,源泉新日专卖店,山东省,,
田庄镇,淄博市,桓台县,117.99833267927173,36.97956944325522,田庄新日二店,山东省,,
黄河西路义乌小商品城C区西北角,菏泽市,牡丹区,115.425707,35.261836,菏泽义乌加盟店,山东省,,
双河路,菏泽市,牡丹区,115.463203,35.246716,菏泽市牡丹区八一街新日店,山东省,,
山东省潍坊市高密市高密市密水街道周阳一村,潍坊市,高密市,119.724154,36.317387,高密周阳新日电动车,山东省,,
山东省潍坊市高密市姜庄镇尤家集村,潍坊市,高密市,119.708223,36.482346,高密尤家集新日电动车,山东省,,
山东省潍坊市高密市井沟镇金山路,潍坊市,高密市,119.553371,36.281172,高密田庄新日电动车,山东省,,
六里山街道,济南市,市中区,116.99876189231875,36.63015190775427,济南英雄山路店,山东省,,
十六里河街道,济南市,市中区,117.00342357158664,36.603610460043015,济南万寿店,山东省,,
龙湖路22号(龙山街道办事处中心广场北50米),济南市,章丘区,117.377492,36.737059,章丘龙山店,山东省,,
十六里河街道,济南市,市中区,117.00342357158664,36.603610460043015,济南万寿2店,山东省,,
官扎营街道,济南市,市中区,116.99572026729585,36.67278831484968,济南天桥店,山东省,,
将军路与将军路出口交叉口西100米,济南市,天桥区,117.0596,36.71129,济南黄台店,山东省,,
济阳街道,济南市,济阳区,117.20109567046168,36.976123931278195,济阳老区加盟店,山东省,,
博昌街道,滨州市,博兴县,118.13529834151268,37.144771518465106,滨州市博兴新日加盟店,山东省,,
大年陈镇,滨州市,惠民县,117.54048228263855,37.185375545006536,惠民大年陈新日专卖店,山东省,,
体育场街道,淄博市,张店区,118.07477563619616,36.81139563450215,张店小春车行,山东省,,
佃户屯街道,菏泽市,牡丹区,115.49441277980807,35.17759131964112,菏泽市佃户屯社区分销店店,山东省,,
恒盛大市场C3-2,菏泽市,牡丹区,115.49178,35.192698,菏泽市恒盛市场分销店,山东省,,
岳程办事处西巷内,菏泽市,牡丹区,115.529457,35.260493,菏泽市东电厂分销店,山东省,,
新华路1-1号,青岛市,莱西市,120.295922,36.813368,莱西武备新日电动车,山东省,,
四宝山街道,淄博市,张店区,118.03325369954109,36.85328549007013,宇涵车行,山东省,,
莱河镇大许河行政村,菏泽市,单县,115.991739,34.743871,单县莱河分销店,山东省,,
邵庄镇,菏泽市,曹县,115.456545,34.728059,曹县孔庄分销店,山东省,,
郭村镇,菏泽市,单县,115.92747151851653,34.734295822252086,单县郭村分销店,山东省,,
重坊镇,临沂市,郯城县,118.14048305153845,34.60169012462231,重坊新日,山东省,,
彭李街道,滨州市,滨城区,118.00663009285927,37.41376519916014,无棣北海新区新日专卖店,山东省,,
庙山镇,临沂市,郯城县,118.36789414286615,34.74714779151001,庙山新日,山东省,,
富国街道,滨州市,沾化区,118.12401160597801,37.697997479352,无棣沾化店,山东省,,
段店北路街道,济南市,槐荫区,116.94705158472063,36.6572318336969,段兴路店,山东省,,
张庄路街道,济南市,槐荫区,116.92641332745552,36.6907806834589,绿地店,山东省,,
堤口路街道,济南市,槐荫区,116.95814117789267,36.67711121250133,济齐路电动车市场店,山东省,,
南村街道,济南市,天桥区,116.9931896030903,36.68481954413728,济泺路店,山东省,,
王舍人街道,济南市,历城区,117.13933780789378,36.72981724469031,香溢紫郡店,山东省,,
河头店镇,青岛市,莱西市,120.46144142746928,37.00666848185466,莱西南木镇新日电动车专卖店,山东省,,
中埠镇,淄博市,张店区,118.18813785910608,36.84407008016963,张店百姓车行,山东省,,
城东街道,淄博市,博山区,117.8649437427521,36.49940708081393,博山旗舰店,山东省,,
光明路街道,枣庄市,峄城区,117.58486211299898,34.8084773057677,丁庄新日,山东省,,
山东省潍坊市昌邑市饮马镇饮马镇人民政府天海家苑,潍坊市,昌邑市,119.47286,36.655456,饮马镇新日电动车,山东省,,
山东省潍坊市昌邑市围子街道宋庄客运站,潍坊市,昌邑市,119.471618,36.780714,宋庄邦杰车行,山东省,,
山东省潍坊市昌邑市饮马镇流河二村,潍坊市,昌邑市,119.538316,36.725777,流河新日车行,山东省,,
济北街道,济南市,济阳区,117.18108907341959,36.97717924303155,济阳新店,山东省,,
敬仲镇,淄博市,临淄区,118.36652755737305,36.93245655812594,临淄大亮车行,山东省,,
敬仲镇,淄博市,临淄区,118.36649939417839,36.93251444634093,张店安安车行,山东省,,
山东省潍坊市潍城区望留街道长虹街1119号,潍坊市,潍城区,119.087589,36.641286,军埠口新日电动车,山东省,,
山东省潍坊市坊子区九龙街道眉村派出所,潍坊市,坊子区,119.357571,36.728441,眉村宏光车行,山东省,,
松龄路街道,淄博市,淄川区,117.96918109059335,36.649087120853714,淄川松龄路新增店,山东省,,
龙泉街道,枣庄市,滕州市,117.17243894934656,35.06390727423089,善南新日,山东省,,
龙泉街道,枣庄市,滕州市,117.17244029045106,35.087419026928835,龙泉苑新日,山东省,,
北辛街道,枣庄市,滕州市,117.17039778828624,35.110547705501205,晓杨车行,山东省,,
北辛街道,枣庄市,滕州市,117.15647980570795,35.09923051594636,新华街新日,山东省,,
荆河街道,枣庄市,滕州市,117.13093176484107,35.12377415313246,后十里铺新日,山东省,,
滨湖镇,枣庄市,滕州市,116.90500661730768,35.13438381638346,滨湖镇新日,山东省,,
古邵镇,枣庄市,峄城区,117.55109444260596,34.62654599350993,古邵新日,山东省,,
吴林街道,枣庄市,峄城区,117.58502572774886,34.731290275747675,肖桥新日,山东省,,
阴平镇,枣庄市,峄城区,117.47089639306071,34.66191634274074,阴平新日,山东省,,
普集街道,济南市,章丘区,117.64243438839915,36.70461330586136,章丘明珠社区店,山东省,,
相公庄街道,济南市,章丘区,117.6108768582344,36.75796234503145,章丘平陵新日店,山东省,,
曹范街道,济南市,章丘区,117.40720734000209,36.61783764856642,章丘曹范新日店,山东省,,
埠村街道,济南市,章丘区,117.46067851781845,36.63488829969652,章丘埠西新日店,山东省,,
凤台街道,青岛市,平度市,119.94395345449448,36.72284116633139,南村瑞琴车行,山东省,,
店子镇,青岛市,平度市,119.92581099271774,36.942063255955986,店子俊义车行,山东省,,
纬二路3号,青岛市,平度市,119.815376,36.738546,白埠焕平车行,山东省,,
蓼兰镇,青岛市,平度市,119.88138556480408,36.67597000832809,蓼兰向阳车行,山东省,,
长生路177号,青岛市,平度市,119.986898,36.595143,兰底修香车行,山东省,,
平度外向型工业加工区,青岛市,平度市,120.05713999271394,36.7576496784029,香店小马车行,山东省,,
于幸路60号附近,青岛市,平度市,119.741829,36.794827,田庄卫娟车行,山东省,,
白沙河街道,青岛市,平度市,120.07050409913066,36.685558393454535,张戈庄宽春车行,山东省,,
