address,city,districd,lat,lon,name,province,street,town
朔州市山阴县旧城闫家巷路北新日电动车专卖店,朔州市,山阴县,112.829006,39.521214,山阴县全成电动车经销部,山西省,,
山西保德府前西街88号新日电动车专卖店,忻州市,保德县,111.080217,39.021453,保德县王俊如摩托车配件门市,山西省,,
山西省阳泉市南庄路5号桥新日电动车专卖店,阳泉市,郊区,113.589461,37.845721,阳泉市城区意达隆车行,山西省,,
山西省盂县金龙街北关2号楼西侧新日电动车,阳泉市,盂县,113.412029,38.091917,盂县金龙街永新电动车经销部,山西省,,
山西省阳泉市平定县东关中行对面,阳泉市,平定县,113.625942,37.793085,平定县新万成车行,山西省,,
山西省定襄县晋昌镇新开路9号,忻州市,定襄县,112.960368,38.483191,定襄县恒大车业,山西省,,
山西省忻州市繁峙县砂河镇富民街邮电局南10米处新日专卖,忻州市,繁峙县,113.567161,39.255524,繁峙县砂河镇鸿源车行,山西省,,
灵丘县新华东街,大同市,灵丘县,114.247381,39.440408,灵丘县永兴车行,山西省,,
大同市矿区勘探街小区底层6号商铺,大同市,云冈区,113.183551,40.041233,大同市矿区新通达电动车经销部,山西省,,
阳高县大西街红旗楼下,大同市,阳高县,113.749197,40.364474,阳高县顺玉车业经销店,山西省,,
大同市城区大北街83号,大同市,平城区,113.302015,40.095215,大同市城区金正车行,山西省,,
山西省广灵县永安西街县政府对过,大同市,广灵县,114.292873,39.761911,广灵县云亮电动自行车行,山西省,,
代县上馆镇东关同心路,忻州市,代县,112.971055,39.067845,代县国俊摩托车电动车商行,山西省,,
五台县城供销一条街（信阳街20号）,忻州市,五台县,113.261493,38.72139,五台县台城镇宇翔摩托经销部(直营),山西省,,
山西省原平市京原南路,忻州市,原平市,112.716606,38.716086,原平市原平飞达摩托经销部,山西省,,
山西省朔州市朔城区开发南路,朔州市,朔城区,112.436134,39.327255,朔州市朔城区雪峰电动车经销部,山西省,,
山西省忻州市忻府区新建南路14号,忻州市,五寨县,111.844226,38.909159,忻州市忻府区红星车行,山西省,,
山西大同左云县东延路马道头乡家属楼底层(西)老板娘:13835265679,大同市,左云县,112.703008,40.013442,左云县新日电动车经销部,山西省,,
山西省大同市浑源县京都对面,大同市,浑源县,113.699475,39.693407,浑源县二娃车行,山西省,,
山西省孝义市新义街华仙大酒店对面,吕梁市,孝义市,111.777038,37.142333,孝义市新义街新日电动车销售店,山西省,,
汾阳市富民路北口,吕梁市,汾阳市,111.80105,37.269766,汾阳市东一环建宇电动车车行,山西省,,
山西省侯马市天河电子城新日电动车店,临汾市,侯马市,111.383156,35.62227,侯马经济开发区新华明电动车销售有限公司,山西省,,
山西省霍州市开元街新日电动车,临汾市,霍州市,111.7453,36.568941,霍州市新日电动车专卖店,山西省,,
山西省襄汾县桥西街信用联社斜对面新日电动车,临汾市,襄汾县,111.422614,35.876316,襄汾县东城新日电动车专卖店,山西省,,
山西省安泽县府东街48号海林豪爵摩托车销售中心,临汾市,安泽县,112.253246,36.146006,安泽县好朋友电动车销售中心,山西省,,
山西省文水县城内东大街鑫源车行,吕梁市,文水县,112.028866,37.438102,文水县则天大街三明车行(直营),山西省,,
山西省吕梁地区交城县却波街,吕梁市,交城县,112.167135,37.54685,交城县新能源电动车商城,山西省,,
山西省吕梁市离石区建设南路（区公安局斜对面）,吕梁市,离石区,111.14808,37.517474,吕梁市离石区巨大车行,山西省,,
山西省晋中市太谷县新建路1号（社对局楼底）,晋中市,平遥县,112.174074,37.232535,太谷县森丽雅电动自行车行,山西省,,
山西省介休市介坊路(聚和园大酒店对面),晋中市,介休市,111.916712,37.026945,介休市城区新日电动车商店,山西省,,
山西省晋中市榆次区花园路东22号新日电动车专卖店,晋中市,榆次区,112.73475,37.693964,晋中市榆次区金仙车行,山西省,,
山西省平遥县兴一摩托车修理部,晋中市,平遥县,112.176273,37.189559,平遥县中都路亚峰车行,山西省,,
山西省晋中市灵石县翠峰镇新建街工商局1号,晋中市,灵石县,111.774447,36.847068,灵石县翠峰镇文杰门市部,山西省,,
古县汽车站旁边,临汾市,古县,111.915929,36.256706,古县相如路大宇摩托城,山西省,,
寿阳县福田路,晋中市,寿阳县,113.179905,37.886682,寿阳县锦茂电动车经销部,山西省,,
晋中市昔阳县建材城西门4号,晋中市,榆次区,112.722756,37.694623,昔阳县新日电动车经销部,山西省,,
山西省祁县新建南路179号,晋中市,祁县,112.330549,37.348889,祁县海军车行,山西省,,
山西省中阳县新星宇幼儿园楼下,吕梁市,中阳县,111.189562,37.345962,中阳县新日电动车专卖,山西省,,
山西洪洞县西环路常清宾馆斜对面,临汾市,洪洞县,111.66822,36.254739,洪洞县县城北环路众鑫车行,山西省,,
灵石路700-1号,晋中市,榆次区,112.682017,37.689463,上海曾鸿贸易商行,山西省,,
太原市大王路万柏林区山西万博摩托电动车市场B区135号,太原市,万柏林区,112.526064,37.834903,太原市万柏林区新本一田电动车经销部,山西省,,
山西省晋中市左权县永清社区辽山路东,晋中市,左权县,113.378517,37.077256,左权县诚道车行,山西省,,
山西省临汾市尧都区贾得乡贾得镇贾得村,临汾市,尧都区,111.540943,36.027332,临汾市尧都区郭建军摩托车电动车销售部,山西省,,
山西省运城市名优自行车总汇凤凰南路33号自提,运城市,盐湖区,110.99623,35.016223,运城市新凤飞商贸有限公司,山西省,,
山西省河津市新耿街修造厂楼下,运城市,河津市,110.711753,35.584442,河津市城区新日家电城,山西省,,
山西省稷山县北京新日专卖店,运城市,稷山县,110.983333,35.604025,稷山县稷峰彩平电动车行,山西省,,
山西省潞城市潞华办事处白鹤社区居民委员会,长治市,潞城区,113.219575,36.323786,潞城市新日电动车分店,山西省,,
山西省晋城市建设北路省运南30米新日电动车,晋城市,高平市,112.92926,35.78789,晋城市城区春雷新日电动车销售店,山西省,,
山西省高平市玉丽车业（人民医院斜对面）太洛路356号,晋城市,高平市,112.928899,35.79101,高平市太洛路玉明电动车经销部,山西省,,
山西平陆县三管局平陆新日专卖店,运城市,平陆县,111.208925,34.836517,平陆县城镇玉红电动车经销部,山西省,,
山西省长治市襄垣县城内东街2号,长治市,襄垣县,113.051491,36.535817,襄垣县三毛摩托车行,山西省,,
山西临猗县双塔南路,运城市,临猗县,110.775698,35.143248,临猗县东城双塔南路彩凤电动车店,山西省,,
山西省阳城县北留镇迎宾街557号,晋城市,阳城县,112.56879,35.473503,山西阳城县北留新日电动车专卖店(直营),山西省,,
山西省长子县丹朱街家具市场对面,长治市,长子县,112.891872,36.115629,长子县鑫源摩托车总汇,山西省,,
山西省临猗县双塔南路防疫站楼下新日电动车,运城市,临猗县,110.780163,35.133483,临猗县腾达商贸有限公司(直营),山西省,,
山西省沁县汽车站对面,长治市,沁县,112.700726,36.762921,山西沁县新日专卖店(直营),山西省,,
山西省沁源县人民路沁园春景对面（天涯海角宾馆旁）,长治市,沁源县,112.341614,36.500401,山西省沁源县沁河镇建强车行(直营),山西省,,
山西省太原市解放路322号(自提)司机:13382227899,太原市,杏花岭区,112.559554,37.880304,山西太原华仪器材经营部(直营),山西省,,
山西省太原市娄烦县娄烦镇娄烦村,太原市,娄烦县,111.854066,38.096764,娄烦新日专卖店(直营),山西省,,
山西省吕梁市临县自来水公司门面,吕梁市,临县,110.996059,37.967064,临县新日专卖店,山西省,,
山西省太原市小店区北格镇紫云小区路东A649号,太原市,小店区,112.538797,37.637045,北格新日电动车专卖店(直营),山西省,,
太原市尖草坪区大同路下兰村煤场旁,太原市,尖草坪区,112.519072,37.951899,太原市杏花岭区美路达车辆营销中心,山西省,,
方山县方正街新日专卖店,吕梁市,方山县,111.24085,37.893467,方山新日专卖店(直营),山西省,,
山西省临汾市建设路1号楼6号自提,临汾市,尧都区,111.553869,36.206743,临汾市尧都区新派电动车销售有限公司,山西省,,
山西省平遥顺城路职业学校旁边,晋中市,平遥县,112.182509,37.179491,平遥新日电动车专卖点(直营),山西省,,
山西省祁县新建南路百货公司一楼晓勇精品车行,晋中市,祁县,112.329864,37.349926,祁县古城晓勇精品车行,山西省,,
山西省汾阳市杏花镇西堡,吕梁市,汾阳市,111.904037,37.329782,山西省汾阳市杏花镇陈四车行(直营),山西省,,
山西省汾西西大街物价局楼下,临汾市,汾西县,111.565218,36.652778,山西汾西新日专卖店(直营),山西省,,
山西省吕梁市石楼县新建路种子店对面新日专卖店,吕梁市,石楼县,110.863604,36.996126,石楼新日专卖店(直营),山西省,,
山西省吕梁市岚县桥北大街101号(岚县会展中心对面),吕梁市,岚县,111.678327,38.27707,岚县新日电动车专卖店,山西省,,
山西省大同市新荣区亿海车业海达电动车超市新日专卖店,大同市,新荣区,113.140005,40.255866,大同市新荣区聚缘电动车自行车超市,山西省,,
山西省大同市大北街37号新日专卖店,大同市,平城区,113.301507,40.095208,山西省大同市云扬摩托车有限责任公司(直营),山西省,,
山西省阳高县新华二路幸福一条20号阳高新日电动车专卖,大同市,阳高县,113.743279,40.357513,阳高县新日电动车销售部(直营),山西省,,
山西省朔州市右玉县新城镇长虹东街门面房,朔州市,右玉县,112.471199,39.987157,右玉县新日电动车专卖店(直营),山西省,,
山西省河曲县向阳大街粮贸大厦底楼（红星中学对过）,忻州市,河曲县,111.146685,39.379741,山西省河曲县新日电动车专卖店,山西省,,
大同市矿区新泉街1栋14号门面房,大同市,云冈区,113.157956,40.002303,大同市矿区王权车行,山西省,,
山西省怀仁县仁里路012号新日电动车,朔州市,怀仁市,113.09801,39.827328,怀仁县星月神电动车行,山西省,,
朔州怀仁县新建北路,朔州市,怀仁市,113.097536,39.821577,怀仁宝马电动车行(直营),山西省,,
繁峙县向阳南街,忻州市,繁峙县,113.265564,39.188811,繁峙县繁城镇宏德电动车门市,山西省,,
山西省五台县朝阳街新日专卖店,忻州市,五台县,113.262469,38.725876,五台县新日电动车专卖店,山西省,,
山西省忻州市偏关县南门外广场汽车站往西100米处,忻州市,偏关县,111.508831,39.436306,山西省忻州市偏关县冯二摩托经销部,山西省,,
山西大同市灵丘县金华东街灵丘县新日电动车,大同市,灵丘县,114.23435,39.442406,灵丘县新日电动车(直营),山西省,,
朔州市怀仁县云中镇大西街新亚东商贸有限公司,朔州市,怀仁市,113.094405,39.817305,山西怀仁县新亚东商贸有限公司(直营),山西省,,
山西省忻州市五寨县新建路自行车行,忻州市,五寨县,111.840215,38.916568,五寨自行车大世界(直营),山西省,,
山西省大同市天镇县凤凰家电城,大同市,天镇县,114.08069,40.660465,山西省天镇县凤凰家电城(直营),山西省,,
山西省苛岚县新建路20号,吕梁市,离石区,111.15249,37.522217,山西省苛岚县（赵玉斌）,山西省,,
山西省原平市京原北路汽车站对面江洋家电城,忻州市,原平市,112.725265,38.747676,山西省原平市（田保湖）,山西省,,
山西省忻州定襄县河边镇石沟街北京新日电动车专卖店,忻州市,定襄县,113.104931,38.59224,定襄县河边新日电动车经销部(直营),山西省,,
山西省河曲县县城同得商城院内,忻州市,河曲县,111.155125,39.38289,山西省河曲县新日电动车经销部(直营),山西省,,
山西省朔州市南方电动车城(市文化活动中心往南过十字路口即到),朔州市,朔城区,112.444052,39.321284,朔州市朔城区南方电动自行车销售中心,山西省,,
朔州市应县新界路园丁小区门面房,朔州市,应县,113.197007,39.561993,山西应县新日电动车专卖店,山西省,,
山西省忻州市静乐县汾河大街,忻州市,静乐县,111.951088,38.354014,山西静乐新日电动车专卖店,山西省,,
山西省繁峙县向阳南路民政局大门南50米,忻州市,繁峙县,113.27017,39.186056,山西省忻州市繁峙县宏德电动车门市(直营),山西省,,
山西省忻州市代县东大街水利局建设局,忻州市,代县,112.963455,39.064796,山西省忻州市代县现代家电一部(直营),山西省,,
山西省忻州市忻府新区新建南路大众饭店旁,忻州市,忻府区,112.741941,38.405714,忻州市新区董梁电动车经销部(直营),山西省,,
禹都经济技术开发区,运城市,盐湖区,111.02539256215096,35.05186999866882,禹都新日,山西省,,
瑶峰镇,运城市,夏县,111.21643558144571,35.12384106426141,夏县禹王市场,山西省,,
东镇镇,运城市,闻喜县,111.31252571940423,35.43511149631823,东镇新日,山西省,,
解店镇,运城市,万荣县,110.83863839507106,35.42183306136101,万荣,山西省,,
通化镇,运城市,万荣县,110.70696473121643,35.46183657104262,通化镇新日,山西省,,
荣河镇,运城市,万荣县,110.56070119142534,35.355746033829284,荣河新日专卖店,山西省,,
山西省晋中市榆社县迎春南路4号,晋中市,榆社县,112.972864,37.070024,榆社县捷马电动车综合商店,山西省,,
太原市尖草坪区丈子头高速口东涧河村,太原市,杏花岭区,112.591176,37.915238,山西义丰尚科技有限公司,山西省,,
风陵渡经济开发区,运城市,芮城县,110.32285630702975,34.63448461672751,风陵渡新日,山西省,,
古魏镇,运城市,芮城县,110.7013401389122,34.665899498846684,芮城新日,山西省,,
陌南镇,运城市,芮城县,110.89549452066423,34.749767090985586,陌南新日,山西省,,
冠山镇,阳泉市,平定县,113.64362418651582,37.78868019774184,平定县新万成车行,山西省,,
秀水镇,阳泉市,盂县,113.41321170330049,38.09181474165691,盂县新日电动车专卖店,山西省,,
新建路街道,忻州市,忻府区,112.74199694395067,38.406989437837176,忻州市忻府区红星车行,山西省,,
龙泉镇,长治市,壶关县,113.20079684257507,36.101798905882134,壶关新日,山西省,,
职工新街街道,太原市,杏花岭区,112.59138017892839,37.88483325184462,太原市区新日顶好市场1店,山西省,,
寺庄镇,晋城市,高平市,112.86437273025514,35.85925479842715,寺庄新日专卖店,山西省,,
永录乡,晋城市,高平市,112.89929777383807,35.833762674573926,永录新日专卖店,山西省,,
三甲镇,晋城市,高平市,112.96593323349954,35.82337649810193,三甲新日专卖店,山西省,,
陈区镇,晋城市,高平市,113.04092243313791,35.846593466201504,陈区镇新日专卖店,山西省,,
晋昌镇,忻州市,定襄县,112.96019330620767,38.4827982374157,定襄县新日电动车,山西省,,
建宁乡,晋城市,高平市,113.12651038169862,35.82420618086882,高平建宁新日,山西省,,
马村镇,晋城市,高平市,112.81789004802705,35.728586682945384,高平马村新日,山西省,,
上馆镇,忻州市,代县,112.97011211514473,39.070159438292606,代县新日电动车,山西省,,
巴公镇,晋城市,泽州县,112.90093258023262,35.618599169040415,晋城巴公新日,山西省,,
东城管理委员会,朔州市,山阴县,112.82761305570604,39.5215323091346,山阴新日电动车,山西省,,
南村镇,晋城市,泽州县,112.79388427734376,35.47581065869195,晋城南村新日,山西省,,
新胜街道,大同市,云冈区,113.18387344479561,40.04170348957597,大同矿区新日电动车,山西省,,
口泉乡,大同市,云冈区,113.15293952822684,40.004308387703986,大同市南郊区王权车行,山西省,,
矿区街道,晋城市,城区,112.90358662605286,35.56101264569447,晋城王台铺新日,山西省,,
云兴镇,大同市,左云县,112.72078335285187,40.01436780766076,左云县新日电动车,山西省,,
新荣区街道管理中心,大同市,新荣区,113.14227238297462,40.25730786804316,大同市新荣区新日电动车,山西省,,
端氏镇,晋城市,沁水县,112.51520141959192,35.680508332343926,晋城端氏新日,山西省,,
西街街道,大同市,平城区,113.30220714211467,40.09902157028554,大同市城区新日电动车,山西省,,
龙泉镇,大同市,阳高县,113.75317230820657,40.36455952174428,阳高县新日电动车,山西省,,
玉泉镇,大同市,天镇县,114.07994851469992,40.418958700586536,天镇县新日电动车,山西省,,
武灵镇,大同市,灵丘县,114.24496337771417,39.44020859702676,灵丘县新日电动车,山西省,,
桐城镇,运城市,闻喜县,111.2284103035927,35.349305651761725,运城闻喜新日电动车,山西省,,
砂河镇,忻州市,繁峙县,113.55478540062906,39.26499587966466,繁峙县砂河镇新日电动车,山西省,,
东张镇,运城市,临猗县,110.41713863611221,35.06899609836208,运城东张新日,山西省,,
东关镇,忻州市,保德县,111.08029469847679,39.02163014964541,保德县新日电动车,山西省,,
山西省长治市沁源县郭道镇,长治市,沁源县,112.317714,36.675375,沁源县郭道镇贵宏摩托车、电动车经销门市,山西省,,
金井乡,运城市,盐湖区,110.82278251647949,34.98164741842884,运城金井新日,山西省,,
南山路街道,阳泉市,郊区,113.58963266015054,37.845651263413814,阳泉市区新日电动车,山西省,,
新城镇,运城市,垣曲县,111.66925147175792,35.30165954192424,运城垣曲新日,山西省,,
山西省吕梁孝义市新义西街,吕梁市,孝义市,111.769433,37.142035,孝义市红青五金交电门市(直营),山西省,,
巨轮街道,太原市,杏花岭区,112.56181553006172,37.88231618557653,太原市解放路店,山西省,,
龙居镇,运城市,盐湖区,110.88872060179712,34.9908253043172,运城龙居新日,山西省,,
高村乡,运城市,万荣县,110.74245303869247,35.36160734137034,运城高村新日,山西省,,
裴庄乡,运城市,万荣县,110.64879298210145,35.435030636827136,运城裴庄新日,山西省,,
里望乡,运城市,万荣县,110.80488547682764,35.475700352205244,运城里望新日,山西省,,
233省道与804县道交叉口南100米,运城市,稷山县,110.904011,35.492892,稷山蔡村新日,山西省,,
东镇镇,运城市,闻喜县,111.36498838663103,35.45116814471261,运城裴村新日,山西省,,
西陌镇,运城市,芮城县,110.79009443521501,34.74736157001139,运城西陌新日,山西省,,
中城街道,运城市,盐湖区,110.99645823240282,35.015107181768144,新日电动车2店,山西省,,
尖草坪街道,太原市,尖草坪区,112.56864041090012,37.918715297448266,太原市区太钢分销店,山西省,,
黄寨镇,太原市,阳曲县,112.66604751348497,38.07222873668258,太原阳曲县新日店,山西省,,
瑶峰镇,运城市,夏县,111.2744477391243,35.19475238180297,新开分销运城大洋新日,山西省,,
皇甫乡,运城市,万荣县,110.87522104382516,35.33815299455653,扫街意向商家皇甫,山西省,,
鹅城镇,忻州市,静乐县,111.94385334849358,38.360810180405736,忻州分销静乐店,山西省,,
安邑街道,运城市,盐湖区,111.03802174329758,35.05809908492959,扫街意向商家庙前,山西省,,
神农东街北50米,晋城市,高平市,112.97863,35.87825,新开分销高平神农新日,山西省,,
东城管理委员会,朔州市,山阴县,112.82851830124856,39.52130368236868,山阴县分销店,山西省,,
小店街道,太原市,小店区,112.57623106241228,37.73368464443229,太原市新日小店区真武路店,山西省,,
山西省吕梁市方山县圪洞镇汽车站巷口,吕梁市,方山县,111.238205,37.890413,方山县智勇车行,山西省,,
西街街道,晋城市,城区,112.83799052238466,35.49935380649198,晋城市新日电动车旗舰店,山西省,,
庙前镇,运城市,夏县,111.18245065212251,35.077236773871334,新开分销运城庙前,山西省,,
原村乡,晋城市,高平市,112.81620562076571,35.75937020753552,新开分销高平原村新日,山西省,,
礼义镇,晋城市,陵川县,113.12510758638385,35.80269469627718,新开分销高平礼义新日,山西省,,
营盘街道,太原市,小店区,112.56919965147974,37.83059674303305,太原市区体育路店,山西省,,
职工新街街道,太原市,杏花岭区,112.58672386407852,37.88591075854121,太原市区顶好二店,山西省,,
东于镇,太原市,清徐县,112.27478161454201,37.59832754871652,太原新日清徐县东于镇分销,山西省,,
水头镇,运城市,夏县,111.1157776415348,35.24347892626427,新开分销运城水头新日,山西省,,
稷峰镇,运城市,稷山县,111.0816626250744,35.60574577312722,新开分销稷山阳赵新日,山西省,,
山西省朔州市朔城区开发南路,朔州市,朔城区,112.436134,39.327255,朔州市朔城区天亿自行车经销部,山西省,,
介休市城区腾飞摩托电动经销部,晋中市,介休市,111.916712,37.026945,介休市城区腾飞摩托电动经销部,山西省,,
002乡道与820县道交叉口南100米,运城市,永济市,110.72776,34.99947,卿头新日,山西省,,
山西省晋城市沁水县胡底乡331省道,晋城市,沁水县,112.609598,35.708033,胡底新日,山西省,,
山西省运城市盐湖区中城街道凤凰南路33号,运城市,盐湖区,110.996193,35.016324,运城新日一店,山西省,,
山西省长治市沁源县沁河镇胜利路,长治市,沁源县,112.340293,36.507484,沁源县城店,山西省,,
小店街道,太原市,小店区,112.5764684379101,37.741092782066204,太原市小店区真武路店,山西省,,
向阳镇,太原市,尖草坪区,112.51609325408937,37.98441473939008,太原市新日向阳店,山西省,,
山西省运城市盐湖区上郭乡五里窑村委会,运城市,盐湖区,110.945006,35.208975,上郭乡新日经营部,山西省,,
山西省运城市稷山县稷峰镇红豆家纺稷王市场,运城市,稷山县,110.977928,35.595432,稷山县城店,山西省,,
山西省运城市临猗县北景乡大阎村,运城市,临猗县,110.733867,35.248561,大闫村新日电动车,山西省,,
山西省晋城市城区南街街道建设路1000号,晋城市,城区,112.850097,35.498507,晋城省运店,山西省,,
天宁镇,吕梁市,交城县,112.15332582592967,37.55232756116147,交城新日店,山西省,,
山西省晋城市高平市东城街道太洛公路,晋城市,高平市,112.929374,35.787669,高平市新日电动车专卖店,山西省,,
姚村镇,太原市,晋源区,112.43198320269585,37.65577853914406,太原市区田村,山西省,,
平阳路街道,太原市,小店区,112.55188465118411,37.79879676471873,太原市区大马店,山西省,,
西镇乡,忻州市,原平市,112.7286234498024,38.80580883264173,原平市分销薛孤镇,山西省,,
楼板寨乡,忻州市,原平市,112.60218948125842,38.68561653871048,原平市分销楼板寨镇,山西省,,
营盘街道,太原市,小店区,112.56755813956262,37.83555594437345,太原市分销小店区小树林店,山西省,,
大东关街道,太原市,杏花岭区,112.59224385023117,37.87544515173235,太原新日分销大东关店,山西省,,
北格镇,太原市,小店区,112.54035383462907,37.64612663978685,太原市区新日北格镇店,山西省,,
徐沟镇,太原市,清徐县,112.50858440995216,37.55484842186463,太原市区新日徐沟镇店,山西省,,
山西省运城市临猗县角杯乡822县道,运城市,临猗县,110.443125,35.133124,角杯乡国强商贸,山西省,,
山西省长治市黎城县西井镇南委泉小学,长治市,黎城县,113.392322,36.685362,南委泉海东新日车行,山西省,,
崞阳镇,忻州市,原平市,112.75135919451715,38.8902457688898,原平市崞阳镇新日店,山西省,,
营盘街道,太原市,小店区,112.56942093372346,37.83100772753335,太原市分销小店区体育路大卖场店,山西省,,
山西省运城市永济市城北街道恒康橱饰,运城市,永济市,110.446393,34.875094,永济新日,山西省,,
山西省长治市潞城市微子镇刈陵路,长治市,潞城区,113.30542,36.332081,潞城微子镇新日,山西省,,
山西省运城市盐湖区泓芝驿镇泓芝驿村,运城市,盐湖区,110.874181,35.1836,运城分销泓芝驿,山西省,,
山西省运城市盐湖区中城街道凤凰南路66号,运城市,盐湖区,110.996227,35.015756,运城二店,山西省,,
营盘街道,太原市,小店区,112.56877049803737,37.83498822698609,太原市区分销体育路2店,山西省,,
山西省长治市长子县色头镇琚村,长治市,长子县,112.964388,35.969019,高平分销色头镇,山西省,,
山西省运城市临猗县临晋镇百草堂药房(临猗县男女不孕不育治疗中心东北),运城市,临猗县,110.556099,35.094784,运城新开分销临晋,山西省,,
山西省阳泉市城区洪城北路,阳泉市,矿区,113.568923,37.871704,洪城路二店,山西省,,
山西省运城市河津市樊村镇002乡道,运城市,河津市,110.710507,35.670769,河津樊村新日,山西省,,
山西省运城市河津市清涧街道河津市清涧街道办事处清涧三村社区管理服务中心,运城市,河津市,110.664188,35.635173,河津清涧三村,山西省,,
山西省运城市河津市僧楼镇祖传中医风湿门诊,运城市,河津市,110.761504,35.697197,河津僧楼南午芹,山西省,,
敦化坊街道,太原市,杏花岭区,112.57698744535446,37.894028597757575,太原市区分销胜利街店,山西省,,
砂河镇,忻州市,繁峙县,113.56167733669282,39.25626722378647,砂河镇分销,山西省,,
山西省运城市盐湖区席张乡席张村,运城市,盐湖区,110.759329,34.889633,运城席张分销,山西省,,
山西省运城市临猗县孙吉镇孙吉汽车站,运城市,临猗县,110.513196,35.231478,运城分销孙吉,山西省,,
山西省运城市盐湖区运城市空港经济开发区关公西街4号空港小区,运城市,盐湖区,111.041821,35.108831,航空港店,山西省,,
山西省运城市河津市城区街道莲池路河津市中心医院,运城市,河津市,110.710196,35.585155,河津县城店,山西省,,
山西省运城市临猗县嵋阳镇临猗县嵋阳镇初中,运城市,临猗县,110.692039,35.094247,运城分销嵋阳店,山西省,,
北田镇,晋中市,榆次区,112.77192905545235,37.58238308404733,晋中市榆次区永刚车行,山西省,,
山西省临汾市浮山县天坛镇文昌南街,临汾市,浮山县,111.854793,35.966637,浮山新日电动车专卖店,山西省,,
山西省临汾市曲沃县里村镇霍侯一级公路,临汾市,曲沃县,111.465918,35.760903,里村镇新日专卖店,山西省,,
山西省临汾市翼城县唐兴镇解放街29号智慧苑小区,临汾市,翼城县,111.704699,35.73583,翼城县新日专卖店,山西省,,
山西省运城市绛县古绛镇振兴东街154号,运城市,绛县,111.58356,35.491457,绛县新日专卖店,山西省,,
山西省吕梁市石楼县灵泉镇石楼县,吕梁市,石楼县,110.834561,36.997412,石楼新日专卖店,山西省,,
山西省临汾市翼城县隆化镇南卫完小,临汾市,翼城县,111.806718,35.7512,南卫新日专卖店,山西省,,
阳邑乡,晋中市,太谷县,112.67023712396623,37.42943900231959,太谷县顺生电动车经销部,山西省,,
翠峰镇,晋中市,灵石县,111.80553719401358,36.86044391743566,灵石县建林摩托维修部,山西省,,
两渡镇,晋中市,灵石县,111.77007436752321,36.92588596005181,灵石县两渡镇海斌摩托门市部,山西省,,
河西镇,晋城市,高平市,112.94239416718484,35.709797890025634,高平市河西镇河西村王林车行,山西省,,
万安镇,临汾市,洪洞县,111.58241495490074,36.308799996148124,洪洞县万安镇万安村郭永辉电动车行,山西省,,
屯里镇,临汾市,尧都区,111.52906447649,36.1235670593336,临汾经济技术开发区闫金福摩托电动修理,山西省,,
白龙镇,临汾市,霍州市,111.70227751135828,36.56851893585626,霍州市白龙新日电动车专卖,山西省,,
胡村镇,晋中市,太谷县,112.65711441636084,37.4842267760681,太谷县李志兵修理部,山西省,,
长风西街街道,太原市,万柏林区,112.52606436610222,37.83490349267297,万博新日旗舰店,山西省,,
郭家堡乡,晋中市,榆次区,112.7187529206276,37.6823726379907,永红车行,山西省,,
绵山镇,晋中市,介休市,111.90679863095285,36.91353333238424,介休市绵山镇秦树村三牛车行,山西省,,
义棠镇,晋中市,介休市,111.84158205986026,37.00466040582065,介休市义棠镇晓云摩托经销部,山西省,,
山西省临汾市襄汾县汾城镇德龙饭店,临汾市,襄汾县,111.281935,35.818795,汾城新日电动车,山西省,,
山西省临汾市襄汾县邓庄镇邓庄镇卫生院张礼分院,临汾市,襄汾县,111.465587,35.992084,张礼新日电动车,山西省,,
旧长邯路19号,长治市,潞州区,113.143232,36.210076,长治高新区久行电动车行,山西省,,
店上镇,长治市,潞州区,113.03287714719774,36.431558518700726,潞城店上北村电动车修理部,山西省,,
古魏镇,运城市,芮城县,110.70920303463939,34.688342122835564,芮城新日旗舰店,山西省,,
山西省临汾市翼城县中卫乡翼张线,临汾市,翼城县,111.76337,35.716612,中卫海义摩托经销部,山西省,,
山西省运城市绛县大交镇谊家宝沙发(大交镇专卖),运城市,绛县,111.674381,35.632876,大交新日电动车专卖店,山西省,,
