address,city,districd,lat,lon,name,province,street,town
广东省新兴县新城镇时代广场东门口4栋18-19,云浮市,新兴县,112.234401,22.700823,新兴县新城镇昌华电动车行,广东省,,
广东湛江市遂溪县湛川路20号新日电动车专卖店,湛江市,遂溪县,110.255071,21.373472,遂溪县遂城创大摩托车行,广东省,,
广东省雷州市雷城镇西湖大道,湛江市,雷州市,110.094421,20.910866,雷州市上坡吴鸿达摩托车行,广东省,,
广东省信宜市南山路7号,茂名市,信宜市,110.93769,22.34457,信宜市东镇雅远摩托车行,广东省,,
广东省阳江市江城区西平路江南雅居135号商铺,阳江市,江城区,111.964538,21.857322,阳江市江城区新又新摩托车行,广东省,,
广东省阳西县宋康路21号,阳江市,阳西县,111.617645,21.744432,阳西县祥记电动车行,广东省,,
广东省湛江市麻章区东海岛东简东坑村112号内,湛江市,麻章区,110.496858,21.016362,湛江东海岛经济开发区爱惠摩托车商行,广东省,,
廉江市中山五路12号,中山市,,113.404893,22.511907,廉江市廉通贸易有限公司,广东省,,
电白县沙琅镇沙琅路15号,茂名市,电白区,111.221992,21.776255,电白县沙琅镇精英车行,广东省,,
广东省化州市桔城东路3号,茂名市,化州市,110.643049,21.651353,化州市桔城车行,广东省,,
湛江市霞山区解放西路7号,湛江市,霞山区,110.402611,21.192822,陈泽浓,广东省,,
广东省湛江市赤坎区九二一路43号,湛江市,赤坎区,110.359255,21.27649,湛江市赤坎区新麦电动自行车行,广东省,,
广东省湛江市坡头区南调路莫烟楼村商铺961号,湛江市,坡头区,110.43823,21.24865,湛江市航旭发展有限公司,广东省,,
广东高要市南岸南兴三路嘉庆楼底层11-12,广州市,荔湾区,113.23187,23.13595,高要市南岸鸿辉电动自行车行,广东省,,
广东省中山市沙溪镇隆都路隆都市场旁边＂新日专卖＂,中山市,,113.316012,22.510732,中山市沙溪镇泰和电动自行车商行,广东省,,
广东省佛山市狮山镇罗村街道城中路53号新日电动车,佛山市,南海区,113.046651,23.054733,佛山市南海区绿之宝电动车商行,广东省,,
广东中山市三乡镇文昌中路23号,中山市,,113.426702,22.352646,中山市三乡镇丰发电动自行车商行,广东省,,
珠海市斗门区井岸镇井湾路544号,珠海市,斗门区,113.298124,22.204028,斗门区井岸镇明辉电动车店,广东省,,
广东省中山市横栏镇长安南路21号,中山市,,113.249938,22.533438,中山市横栏镇好品质电动车行,广东省,,
中山市小榄镇民安南路47号新日专卖店,中山市,,113.256428,22.658721,中山市小榄镇达康电动自行车商行,广东省,,
广东省佛山市大沥广云路兴沥雄摩托车城2B18,佛山市,南海区,113.112265,23.117396,佛山市南海区大沥星祺摩托车店,广东省,,
广东中山坦洲金斗大街47号,中山市,,113.466495,22.260797,中山市坦洲镇六六自行车商行,广东省,,
深圳市宝安区、广深路、新安段51号铺,深圳市,宝安区,113.907969,22.554167,深圳市宝安区新安中金自行车商店,广东省,,
广东省广州市黄埔区文冲广新路443号,广州市,黄埔区,113.469919,23.098856,广州市黄埔区优萌酷自行车店,广东省,,
胶南市珠海街道办事处琅琊台路辛河商场102号,珠海市,香洲区,113.577042,22.252728,青岛万顺泰祥工贸有限公司,广东省,,
深圳市宝安区西乡镇径贝新村新湖路径贝牌坊旁247号,深圳市,宝安区,113.875624,22.566817,深圳市宝安区西乡径贝顺程自行车商行,广东省,,
栾城县新开街85号,惠州市,惠阳区,114.587021,23.04105,栾城区咱家电动车经销处,广东省,,
韶关市仁化县丹霞大道13-1号商铺,韶关市,仁化县,113.752823,25.082249,仁化县森壹车业,广东省,,
深圳市光明新区公明办事处合水口社区十三区商业大楼一楼D号,深圳市,光明区,113.889152,22.784235,深圳市光明新区公明大邦电动车行,广东省,,
增城永和新新七路29号,广州市,增城区,113.591234,23.176657,永和尚好摩托车配件经营部,广东省,,
深圳市宝安区松岗街道松岗社区松白129号路,深圳市,宝安区,113.838976,22.776804,深圳市宝安区松岗荣华摩托车行,广东省,,
深圳市大鹏新区葵涌街道商业街7、9、11号,深圳市,龙岗区,114.425401,22.629956,深圳市龙岗区兴达商店,广东省,,
深圳市、龙华新区、观澜街道、观澜大道、342号,深圳市,龙华区,114.051859,22.713808,深圳市龙华新区观澜永鸿自行车配件店,广东省,,
翁源县龙仙镇建设一路仙女加油站旁边,韶关市,翁源县,114.131428,24.359194,翁源县武德电动车行(直营),广东省,,
深圳市、龙华新区、大浪街道、工业西路、嘉信酒店2-3号铺,深圳市,龙华区,114.012771,22.656674,深圳市龙华新区大浪嘉兴自行车行,广东省,,
深圳市、南山区、华明路1-31号,深圳市,南山区,113.930278,22.507731,深圳市南山区千万里车行,广东省,,
广州市增城区新塘摩托车市场,广州市,增城区,113.607335,23.119594,广州市增城兵记自行车维修店,广东省,,
广州市花都区狮岭镇康政路44号,广州市,花都区,113.157796,23.462735,广州市花都区狮岭建忠电动车行,广东省,,
广州市白云区金沙洲沙凤一路85号,佛山市,南海区,113.207493,23.149728,广州市白云区松洲捷健飞电动车行,广东省,,
韶光市武江区工业中路14号楼附楼二楼,韶关市,武江区,113.57837,24.800646,武江区永莹车行,广东省,,
清远市清城区松岗路西二座6-8卡,清远市,清城区,113.028,23.71625,清远市清城区风顺车行,广东省,,
广州市番禺区南村镇金江大道195号,广州市,番禺区,113.386746,23.005386,广州市番禺区南村卫健自行车行(直营),广东省,,
广州市花都区杨一村五三经济合作社杨赤线路旁自编16号商铺,广州市,花都区,113.471849,23.431855,广州市花都区花城凯日电动车商行,广东省,,
广东省广州市花都区狮岭镇合成村康政路6号,广州市,花都区,113.15993,23.462137,广州市花都区狮岭兴林自行车行,广东省,,
广州市花都区花山镇两龙路21号之六,广州市,花都区,113.273994,23.448842,广州市花都区花山爱雨达助动自行车经营部,广东省,,
广东省广州市黄埔区黄埔东路3704号101房,广州市,黄埔区,113.540825,23.093992,广州市黄埔区海槟电动车行,广东省,,
广州市南沙区金州进港大道38号,广州市,南沙区,113.547821,22.800184,广州市南沙区林炳贵电动自行车店,广东省,,
广东省深圳市南山区南山街道登良路57号,深圳市,南山区,113.920313,22.514406,深圳市南山区千万里路车行,广东省,,
广东省珠海市斗门区城南白藤一路新城二区新屋17号,珠海市,斗门区,113.363146,22.150389,斗门区白藤阿炎摩托车行,广东省,,
广东省中山市古镇曹一曹兴西路136号首层之1,中山市,,113.188493,22.623696,中山市古镇辉宇电动车行,广东省,,
佛山市三水区西南街道新华路42号103，新日电动车,佛山市,三水区,112.887357,23.162549,佛山市明昌贸易有限公司,广东省,,
广东省中山市东区富湾新村银湾北路8巷22号,中山市,,113.405645,22.534649,中山市东区富泓电动自行车行,广东省,,
广东省中山市南朗镇永兴新村兴华街106卡商铺,中山市,,113.384938,22.515036,中山市南朗镇骏兴电动自行车行(直营),广东省,,
广东省佛山市高明区更合镇白石村下坊（农商银行斜对面）,佛山市,高明区,112.570272,22.804701,佛山市高明区更合镇万里顺汽配行,广东省,,
肇庆市辖区大旺区景升北街102号,肇庆市,四会市,112.81013,23.300835,高新区俊峰车行,广东省,,
广东省珠海市金湾区红旗镇小林和兴路7号3-5商铺,珠海市,金湾区,113.29199,22.105519,金湾区新记车行,广东省,,
肇庆市鼎湖区桂城五区东北角321国道旁首层,肇庆市,鼎湖区,112.573618,23.186827,鼎湖区宏图车行,广东省,,
广东省中山市大涌镇旗山305、309、307,中山市,,113.300377,22.465302,中山市大涌镇天宇电动车行,广东省,,
怀集县怀城镇国泰路1号,肇庆市,怀集县,112.182591,23.907998,怀集县怀城镇东骏电动车行,广东省,,
中山市板芙镇芙中路芙中一横路18号,中山市,,113.320631,22.415247,中山市板芙镇鸿图自行车行,广东省,,
珠海市金湾区三灶镇榕月路5号1、2栋2号商铺,珠海市,金湾区,113.351409,22.050213,金湾区凯美车行,广东省,,
珠海市红旗镇南翔路81号铺,珠海市,金湾区,113.338382,22.134649,金湾区阿晋摩托车行,广东省,,
佛山市高明区荷城街道跃华路311号1座之13,佛山市,高明区,112.868507,22.897248,佛山市高明区顺顺安电动车行,广东省,,
中山市港口镇兴港中路119号首层,中山市,,113.38577,22.588466,中山市港口镇和记蓄电池商行,广东省,,
斗门区斗门镇斗门大道178-186号铺,珠海市,斗门区,113.194216,22.21538,斗门区浩欣摩托车行,广东省,,
佛山市高明区明城镇明七路347号,佛山市,高明区,112.710378,22.855042,佛山市高明区明城镇恒兴达摩托车维修行,广东省,,
中山市黄圃镇新丰中路10号首层,中山市,,113.333181,22.713114,中山市黄圃镇德福电动自行车行,广东省,,
广州市花都区新华镇花城路23号,广州市,花都区,113.214022,23.379152,广州市花都区新华洪门自行车行,广东省,,
广东省韶关市始兴县城东一品东城C幢7-8号铺门店（福星车行新日电动车专卖店）,韶关市,始兴县,114.075596,24.954094,始兴县福星车行,广东省,,
广东省潮州市湘桥区南较路三江花苑7-8商铺,潮州市,湘桥区,116.642502,23.654283,潮州市湘桥区恺峰摩托车行,广东省,,
广东省汕头市金平区金砂路49号之二,汕头市,金平区,116.698182,23.366536,汕头市金平区建銮电动车行,广东省,,
惠州市惠城区峨岭西路8号新日电动车专卖店,惠州市,惠城区,114.390802,23.078917,惠州市惠城区龙峰电动车行,广东省,,
流沙北街道南华路纺织品市场7幢7.8.9号,揭阳市,普宁市,116.16371780633925,23.308054629888794,普宁市流沙普骏摩托车经营部,广东省,,
广东省梅州市梅松路华盛顿首层13-15号店新日电动车专卖店武陵车行,梅州市,梅江区,116.118159,24.315136,梅州市梅江区新日电动车店,广东省,,
兴宁市兴城兴江街54-56号,梅州市,兴宁市,115.727368,24.146807,兴宁市赤古摩托车行,广东省,,
广东省汕尾陆丰市启恩中学对面（往汕头方向200米新日店）,汕尾市,陆丰市,115.640216,22.952261,陆丰市东海新日太涟电动车行,广东省,,
汕头市潮阳区谷饶镇饶中路91号,汕头市,潮阳区,116.418554,23.35017,汕头市潮阳区谷饶钦兴达摩托车行,广东省,,
广东省汕头市澄海区澄华街道下窖窖头拱桥路南6横巷1号,汕头市,澄海区,116.749727,23.469259,汕头市澄海区雅顺车行,广东省,,
广东省惠州市惠阳区淡水土湖白云二路108号,惠州市,惠阳区,114.447932,22.775759,惠州市惠阳区淡水华昇摩托车店,广东省,,
潮州市潮安区浮洋镇潮汕公路旁风彩陈路段,潮州市,潮安区,116.596898,23.578122,潮州市潮安区浮洋镇旭诚摩托车行,广东省,,
汕尾市城区城南路建成毛织厂楼下铺面一间,汕尾市,城区,115.359607,22.780248,汕尾市城区凯骑电动车行,广东省,,
东莞市塘厦镇沿河东路35号地下2号铺位,东莞市,,114.105162,22.813878,东莞市塘厦张记自行车店,广东省,,
东莞市 虎门镇 银龙南路 肥仔自行车行,东莞市,,113.675666,22.815631,东莞市虎门肥仔自行车修理店,广东省,,
东莞市、石碣镇、庆丰东路、西南综合市场对面,东莞市,,113.818036,23.110068,东莞市石碣兴龙自行车配件店,广东省,,
汕头市潮阳区文光翠园13幢109号铺,汕头市,潮阳区,116.619328,23.183436,汕头市潮阳区文光翠园摩托车商店,广东省,,
广东省广东省惠州市仲恺高新区沥林镇新镇公路南52号,惠州市,惠城区,114.235642,22.975072,惠州市仲恺高新区瀚林摩托车行,广东省,,
东莞市高埗辉辉自行车店,东莞市,,113.722126,23.078713,东莞市高埗辉辉自行车店,广东省,,
东莞市大朗镇南城区宏远路街区B14号铺,东莞市,,113.947142,22.960522,东莞市南城梦喜自行车店,广东省,,
东莞市大朗镇长富中路221号,东莞市,,113.92843,22.942187,东莞市大朗浩宇数码产品经营部(直营),广东省,,
东莞市、横沥镇、天桥路,东莞市,,113.951542,23.023258,东莞横沥新日电动车(直营),广东省,,
广东省惠州市仲凯高新区陈江街道办事处曙光87号,惠州市,惠城区,114.317662,23.008112,惠州市仲凯高新区小风电动车行(直营),广东省,,
广东海丰梅陇镇西兴中路二巷23号,汕尾市,海丰县,115.209595,22.890734,海丰县梅陇省记摩托车配件店,广东省,,
汕尾市城区香城路（城区公安局斜对面）,汕尾市,城区,115.36166,22.78094,汕尾市城区冠粤电动车行(直营),广东省,,
汕头市潮南区峡山镇广汕路1234号,汕头市,潮南区,116.41069,23.251581,旺盛车行(直营),广东省,,
广东省揭阳市惠来县惠城镇站南路东侧中裕花园首层铺面大门往北2号,揭阳市,惠来县,116.301918,23.026115,惠来县中兴车行(直营),广东省,,
广东省、东莞市、常平镇、东兴路畅旺广场22号,东莞市,,113.997296,22.978608,东莞市常平新极速自行车店(直营),广东省,,
东莞市、长安镇、长东路、47-7号铺位,东莞市,,113.812335,22.800397,东莞市长安晓龙自行车店(直营),广东省,,
东莞市桥头镇桥光大道,东莞市,,114.093411,23.017146,东莞市桥头喜德盛自行车店(直营),广东省,,
惠州市麦地路13号南湖明珠家园E栋1层06号,惠州市,惠城区,114.400325,23.076844,惠州市惠城区联晖电动自行车行(直营),广东省,,
东莞市长安镇厦边社区S358省道1327号一楼,东莞市,,113.737406,22.803129,东莞市小章鱼物业管理有限公司,广东省,,
汕头市潮阳区贵屿镇南通路口（电子市场对面）,汕头市,潮阳区,116.340263,23.321523,汕头市潮阳区贵屿锡雄摩托车行(直营),广东省,,
广东省揭阳市榕城区凤林桥斜对面,揭阳市,榕城区,116.382126,23.533725,洪悦义(直营),广东省,,
广东省饶平县公安局正对面,潮州市,饶平县,116.990859,23.675042,饶平县兴裕盛车行(直营),广东省,,
揭阳市榕城区进贤门大道东一路口,揭阳市,榕城区,116.373408,23.53789,揭阳试验区溪南聪发摩托车行(直营),广东省,,
潮州市潮安县庵埠潮汕路林厝路口新日电动车（爱民医院隔壁）,潮州市,潮安区,116.680725,23.447203,潮安县德丰车行(直营),广东省,,
东莞市、横沥镇、天桥路,东莞市,,113.951542,23.023258,东莞横沥新日专卖店(直营),广东省,,
惠东县黄埠镇圆盘,惠州市,惠东县,114.96341,22.747475,惠东县黄埠新阳光电动车店(直营),广东省,,
东莞市、桥头镇、工业路97-99号,东莞市,,114.099926,23.011955,东莞桥头镇昌记自行车行(直营),广东省,,
汕尾市陆河县朝阳路350号,汕尾市,陆河县,115.669287,23.302633,陆河县城新浪电动车行,广东省,,
广东省潮州市城新路33号,潮州市,湘桥区,116.637757,23.658245,广东潮州湘桥区林发车行,广东省,,
广东惠来县惠城南门西路174号,揭阳市,惠来县,116.285983,23.028264,惠来县惠城恒信电动车配件商行(直营),广东省,,
广东揭西县温泉大道28号,揭阳市,揭西县,115.83926,23.430818,揭西县新日专卖店(直营),广东省,,
广东省汕头市潮南区胪岗镇和惠公路胪溪路段132号,汕头市,潮南区,116.471058,23.216649,润达摩托车配件(直营),广东省,,
广东惠州市惠阳区淡水镇上塘南门南路63号,惠州市,惠阳区,114.468469,22.791124,惠州市惠阳区达明摩托车行(直营),广东省,,
汕头市澄海区老国道与文祠路交界新日专卖店,汕头市,龙湖区,116.753418,23.43882,广东汕头合众摩托车配件店(直营),广东省,,
广东省揭西县棉湖镇道江路42号,揭阳市,普宁市,116.137036,23.43441,广东省揭西市棉湖镇(直营),广东省,,
广东省揭东县霖盘镇新开发路3号,广州市,白云区,113.223983,23.164367,广东省揭东县霖盘镇(直营),广东省,,
广东省普宁市文竹路城东后坛1栋2号,揭阳市,普宁市,116.166004,23.297642,广东省普宁市流沙镇荣泰车行(直营),广东省,,
广东省揭阳市同泽路23号,揭阳市,榕城区,116.372831,23.549993,揭阳市兴运车行(直营),广东省,,
广东汕头龙湖区冬夏路石榴园40栋206号,汕头市,金平区,116.705963,23.378445,广东汕头龙湖区新日电动车专卖店(直营),广东省,,
广东省汕头潮阳区谷饶镇有源路104号,汕头市,潮阳区,116.416099,23.349513,汕头谷饶镇新日电动车专卖店(直营),广东省,,
广东潮安县潮汕公路安南大酒店旁,广州市,白云区,113.269889,23.19364,广东潮州潮安县新日电动车专卖店(直营),广东省,,
广州市南沙区南沙金洲进港路52号,广州市,南沙区,113.548873,22.800633,广州市南沙区南沙万利自行车商店(直营),广东省,,
南雄市雄中大道水南新村1街1巷1号,韶关市,南雄市,114.316768,25.110859,广东南雄新日电动车专卖店(直营),广东省,,
广东英德市教育路英德中学斜对面,清远市,英德市,113.406563,24.189017,英德市新日电动车行(直营),广东省,,
广东省肇庆市端州四路汽车站对面,肇庆市,端州区,112.473851,23.055933,广东省肇庆市（李志聪）(直营),广东省,,
深圳福田区农林路69号深国投广场2号楼2-5层及3号楼,深圳市,福田区,114.011346,22.544151,沃尔玛（中国）投资有限公司(直营),广东省,,
广东省深圳市宝安区松岗街道勋业街2号,深圳市,宝安区,113.841327,22.772197,广东省深圳市宝安区,广东省,,
广东省韶关市惠民南路163号,韶关市,武江区,113.587244,24.790298,广东省韶关市浈江区英豪贸易商行(直营),广东省,,
广东省韶关市惠民南路163号,韶关市,武江区,113.587244,24.790298,广东省韶关市新英豪贸易有限公司(直营),广东省,,
广州市增城市福和坪中南路41号,广州市,增城区,113.63405,23.3585,广州市增城市新日专卖店(直营),广东省,,
广东省清远市清新县清和大道141号,清远市,清新区,113.012069,23.73275,清远市新日专卖店(直营),广东省,,
广东省番禺市桥南路53号,广州市,番禺区,113.363027,22.926244,广东番禺陈健辉(直营),广东省,,
四会市汇源路堤园1号A.B.C首层,肇庆市,四会市,112.691766,23.334506,四会市永创摩托车商行(直营),广东省,,
肇庆市鼎湖区坑口鼎盛路38号,肇庆市,鼎湖区,112.560932,23.157409,肇庆市鼎湖区广全摩托车维修店(直营),广东省,,
珠海市斗门区白蕉镇桥湖北路308号,珠海市,斗门区,113.30724,22.214537,斗门区白蕉镇德长胜摩托车行(直营),广东省,,
中山市石岐区莲塘路42号,中山市,,113.381104,22.528724,中山市车都汇商贸有限公司(直营),广东省,,
佛山市顺德区容桂街道容桂大道北71号,佛山市,顺德区,113.269343,22.775671,佛山市荣顺德区容桂中环商场(直营),广东省,,
广州市黄埔区南岗街道黄埔东路3704号,广州市,黄埔区,113.540825,23.093992,广州市黄埔区刘柳李轩车行经营部(直营),广东省,,
深圳市、宝安区、沙井街道沙井大街246号,深圳市,宝安区,113.803037,22.738023,深圳市园本交通器材商行(直营),广东省,,
广州市、番禺区、大石镇、富山市场正对面,广州市,番禺区,113.326391,23.024752,广州市智车贸易有限公司(直营),广东省,,
深圳市南山区前海路太子山农贸市场入口,深圳市,南山区,113.91519,22.538075,深圳市南山区汉惠商行(直营),广东省,,
连州市连州镇万兴西路74号首层,清远市,连州市,112.383509,24.779581,连州市顺骑电动车行(直营),广东省,,
深圳市宝安区福海街道塘尾社区十五区一巷7-3号,深圳市,宝安区,113.805835,22.687854,深圳宝安区福海媛峻电动车行,广东省,,
深圳市、宝安区、福永街道、福新路39-41,深圳市,宝安区,113.81433,22.667015,深圳市宝安区福永白石自行车零售店,广东省,,
广州市增城新塘摩托车市场59号,广州市,越秀区,113.264434,23.129162,广州市增城帝阳摩托车经营部(直营),广东省,,
深圳市福永街道白石厦村石厦路88号,深圳市,宝安区,113.825439,22.677073,深圳市福永镇新日专卖店(直营),广东省,,
从化区街口街新城西路关围新村7幢,广州市,从化区,113.578708,23.554677,广州市从化区新日专卖店(直营),广东省,,
广州市增城市开园中路59号首层,广州市,增城区,113.828709,23.300801,增城市荔城镇大可电动车行(直营),广东省,,
深圳市龙华新区龙华街道华联社区姜彤,深圳市,龙华区,114.03175,22.673375,深圳市龙华新区龙华强顺自行车行(直营),广东省,,
深圳市大鹏新区葵涌镇葵民路19号-3.4,深圳市,龙岗区,114.427487,22.634617,深圳葵涌新日专卖店,广东省,,
广东省深圳市宝安区沙井镇新沙路59号,深圳市,宝安区,113.839228,22.726492,深圳沙井飞悦精品车行(直营),广东省,,
深圳市、宝安区、松岗街道、东方大道93号,深圳市,宝安区,113.845146,22.763462,深圳市宝安区松岗中兴自行车行(直营),广东省,,
深圳市光明新区/公明街道合水口柏溪北巷2号一楼,深圳市,光明区,113.881543,22.784075,深圳公明强项车行(直营),广东省,,
广州市萝岗区萝岗街荔红路97号101房号,广州市,黄埔区,113.506697,23.175428,广州市萝岗区顺骑自行车行(直营),广东省,,
广州市黄埔区港湾路273号,广州市,黄埔区,113.448142,23.099777,广州黄埔区新日专卖店,广东省,,
广州增城市新塘镇群贤路233号,广州市,增城区,113.608673,23.118959,广州增城市新塘镇新日专卖店(直营),广东省,,
广东深圳市宝安区松岗镇东方大道93号,深圳市,宝安区,113.845146,22.763462,深圳市宝安区松岗中兴自行车行(直营),广东省,,
增城市新塘镇群贤北路219号（摩托车市场）,广州市,增城区,113.608551,23.11767,广东增城市（肖石宝）(直营),广东省,,
广东省清远市佛冈县青松路22号保马车行,清远市,佛冈县,113.534418,23.8621,佛冈县新日电动车专卖店(直营),广东省,,
广东省封开县江口镇大塘一路49号,肇庆市,封开县,111.50171,23.44123,广东肇庆市封开县新日专卖店(直营),广东省,,
佛山市顺德区伦教镇伦常中路5号世纪广场71号铺,佛山市,顺德区,113.21005,22.878795,广东佛山市顺德区伦教镇（胡维荣）(直营),广东省,,
广东德庆县德庆大道宏业楼2栋,肇庆市,德庆县,111.789191,23.144,广东德庆新日电动车专卖店(直营),广东省,,
广东省广宁县车背洞豪景花园D栋702室,肇庆市,广宁县,112.428146,23.6282,广东广宁县南街镇通用电动车行(直营),广东省,,
广东佛山市大沥镇黄岐鄱阳路黄岐医院对过新日专卖店,佛山市,南海区,113.185949,23.117994,广东佛山市黄岐镇新日专卖店(直营),广东省,,
广东省佛山市南海区里水镇夏塘路98号,佛山市,南海区,113.157367,23.199996,佛山市南海区里水镇新日电动车专卖店(直营),广东省,,
广东肇庆鼎湖区鼎盛路38号,肇庆市,鼎湖区,112.560932,23.157409,鼎湖区新日电动车专卖店(直营),广东省,,
广东省佛山市高明区明城镇明殿商贸城城七路23号108-109号,佛山市,高明区,112.705547,22.857658,高明新日电动车专卖店(直营),广东省,,
佛山市顺德区容桂镇容桂大道北94号,佛山市,顺德区,113.268754,22.774507,佛山顺德区容桂镇风雅自行车店(直营),广东省,,
佛山市南海区黄岐镇沙溪大道南A座6-7号,佛山市,南海区,113.208347,23.141723,广东省佛山市南海区璨隆摩托车维修部(直营),广东省,,
广东省佛山市禅城区江湾二路,佛山市,禅城区,113.090798,23.014767,佛山市禅城区新日专卖店(直营),广东省,,
佛山市顺德区大良镇环市北路恒丰楼1-4号铺,佛山市,顺德区,113.241311,22.849424,佛山市大良镇新日电动车(直营),广东省,,
江门市鹤山市环城北路,江门市,台山市,112.795959,22.251365,江门市鹤山市新日专卖店(直营),广东省,,
佛山市顺德区北滘镇工业大道16号,佛山市,顺德区,113.208255,22.913207,佛山市顺德区北滘镇新日专卖店(直营),广东省,,
珠海市斗门区白藤幸福南路8幢104号,珠海市,金湾区,113.335075,22.133828,斗门区白藤启裕摩托车商行(直营),广东省,,
怀集县冷坑镇新日电动车,肇庆市,怀集县,112.047639,24.034527,怀集县冷坑镇新日电动车(直营),广东省,,
广东省海丰县南湖居委步霞新区十三巷一号（海丽花园对面）,汕尾市,海丰县,115.334,22.954292,广东海丰县陈辉(直营),广东省,,
广东省江门市新会区公园新村39座103号,江门市,新会区,113.033272,22.526296,广东省江门市新会区（刘丽明）(直营),广东省,,
广东省鹤山市沙坪镇人民路10号铺,江门市,鹤山市,112.965698,22.764625,广东鹤山新日电动车专卖店(直营),广东省,,
广东省佛山市顺德区大良环市北路10-16号,佛山市,顺德区,113.240262,22.847908,广东省佛山市顺德区弘顺达摩托车有限公司(直营),广东省,,
广东省汕头市潮南区峡山洋林城美路9号,汕头市,潮南区,116.408337,23.25329,广东省汕头市潮南区汉松车行(直营),广东省,,
广东汕头濠江区磊广大道府前路85号1—9摩托车城,汕头市,濠江区,116.723663,23.284271,广东汕头濠江区（林长永）(直营),广东省,,
广东省怀集县怀集镇城北二路财保公司楼下,肇庆市,怀集县,112.182862,23.91658,广东省怀集县新日车行(直营),广东省,,
广东省中山市小榄镇五金城29-30号,中山市,,113.2515,22.657707,广东中山小榄新日电动车专卖店(直营),广东省,,
原州区中山南街117号新日电动车,中山市,,113.249938,22.533438,固原市原州区文艳车行(直营),广东省,,
广东湛江市霞山区解放西路13号新日电动车专卖店,湛江市,霞山区,110.401032,21.19213,湛江市霞山区美德隆电动车行,广东省,,
廉江市环市北路66号金禾楼首层飞达车城,湛江市,廉江市,110.290331,21.615805,广东省廉江市飞达交通器材公司(直营),广东省,,
广东省徐闻县红旗2路43号,湛江市,徐闻县,110.17475,20.326125,广东省徐闻县鹏华贸易有限公司(直营),广东省,,
广东省高州市高凉西路168号,茂名市,高州市,110.844325,21.908235,广东高州新日专卖店(直营),广东省,,
广东省化州市桔城中路11号,茂名市,化州市,110.638743,21.650809,广东省化州市广达摩托车公司新日专卖店,广东省,,
广东信宜市城北计生路口1号,茂名市,信宜市,110.952552,22.364878,广东信宜新日电动车专卖店(直营),广东省,,
广东电白县水东镇向洋大道30号,广州市,越秀区,113.26653,23.132191,电白县电建车业有限公司(直营),广东省,,
广东茂名油城四路东桥车行,茂名市,茂南区,110.912349,21.663851,广东茂名新日电动车专卖店(直营),广东省,,
广东省电白区水东镇人民路53号,茂名市,电白区,110.99925,21.5285,茂名市电白区水东镇家胜电车行,广东省,,
广东省茂名市电白区电城镇庄山大道,茂名市,电白区,111.294127,21.515529,电白县电城镇文玲摩托车行,广东省,,
阳江市阳春市春湾镇青云北路123号,阳江市,阳春市,111.942868,22.445144,阳春市春湾镇卓越电动车行,广东省,,
阳西县宋康路18号,阳江市,阳西县,111.618568,21.744689,阳西县城健梅车行(直营),广东省,,
湛江市赤坎区中山一路台玲专卖店,湛江市,赤坎区,110.3648,21.269782,湛江市宏富贸易有限公司,广东省,,
广东省云浮市运城区建设南路15号,云浮市,云城区,112.048703,22.931599,云浮正二摩托车行(直营),广东省,,
广东省、化州市、河东吉城中路17号,茂名市,化州市,110.629143,22.049746,化州信誉车行,广东省,,
广东省徐闻县徐闻县政府斜对面,湛江市,徐闻县,110.176052,20.326327,徐闻县新城摩托车行,广东省,,
广东省阳江市江城区东门路,阳江市,江城区,111.965634,21.852911,阳江新日专卖店(直营),广东省,,
广东省湛江市赤坎区中山一路18号,湛江市,赤坎区,110.364629,21.271054,湛江市建富贸易有限公司,广东省,,
广东省廉江市北路66号金禾楼首层飞达车城,湛江市,廉江市,110.290331,21.615805,廉江飞达车行,广东省,,
广东省高州市高凉路,茂名市,高州市,111.010595,22.045044,高州鸿大车行,广东省,,
广东省罗定市罗城镇大岗路39号,云浮市,罗定市,111.568453,22.759423,罗定市世联车行(直营),广东省,,
广东省吴川市吴川市区人民西路,湛江市,吴川市,110.775959,21.41735,吴川市澳士达车行,广东省,,
广东省阳西县宋康路,阳江市,阳西县,111.617717,21.744616,阳西县新日专卖店(直营),广东省,,
广东省遂溪县人民路21号,湛江市,遂溪县,110.25201,21.379516,遂溪县新日电动车专卖店(直营),广东省,,
阳江市市区东门路科委大楼首层新日专卖店,阳江市,江城区,111.965634,21.852911,广东阳江市新日专卖店,广东省,,
广东省遂溪县湛川路23号新日专卖店,湛江市,遂溪县,110.254861,21.37366,广东遂溪县（麦武华）(直营),广东省,,
广东省阳春市汽车站对面,阳江市,阳春市,111.791539,22.170438,阳春市新日电动车专卖店(直营),广东省,,
广东省电白市人民路61号,茂名市,电白区,111.006058,21.509793,电白市新日电动车专卖店(直营),广东省,,
广州市花都区新华街花城路33号,广州市,花都区,113.212478,23.382134,广州市花都区新华城市快车电动自行车行,广东省,,
广东省惠州市惠东县平山惠东大道97号,惠州市,惠东县,114.719355,22.989508,惠东县平山啊忠车行,广东省,,
广东省惠州市博罗县石湾镇明月一路46号,东莞市,,113.858906,23.120268,博罗县石湾镇新胜喜德盛车行,广东省,,
广东省惠州市惠城区水口大湖溪大道6号,惠州市,惠城区,114.509819,23.114386,惠州市惠城区新虹电动车行,广东省,,
荷城街道,佛山市,高明区,112.86909073591235,22.89731505290244,佛山高明店,广东省,,
松岗街道,深圳市,宝安区,113.84100794792175,22.77276369125129,松岗,广东省,,
广东省江门市蓬江区棠下镇江盛路21号三栋8~9商铺,江门市,蓬江区,113.035917,22.669238,蓬江区东鸿车行,广东省,,
广东省湛江市赤坎区五一路8号首层,湛江市,廉江市,110.285501,21.607048,湛江市赤坎区球仔电动自行车店,广东省,,
广州市番禺区南村镇金江大道179号101-102,广州市,番禺区,113.386718,23.005775,广州市番禺区南村捌源助动自行车店,广东省,,
广东省深圳市大鹏新区大鹏街道王母街48号,深圳市,龙岗区,114.478874,22.593133,深圳市大鹏新区华新单车店,广东省,,
沙溪镇,中山市,,113.31614524126054,22.511189194510745,中山市沙溪镇泰和电动自行车商行,广东省,,
三乡镇,中山市,,113.42663615942001,22.352694176599943,中山市三乡镇丰发电动自行车行,广东省,,
南沙街道,广州市,南沙区,113.5429273545742,22.800534041088866,广州市南沙区林炳贵电动自行车店,广东省,,
妇幼保健院对面,湛江市,霞山区,110.402005,21.192699,湛江霞山解放西路新日专卖店,广东省,,
花山镇,广州市,花都区,113.27716737985611,23.448129800005223,广州市花都区花山爱雨达助动自行车部,广东省,,
板芙镇,中山市,,113.31999421119693,22.415888509231987,中山市板芙镇鸿图自行车行,广东省,,
合成北路西150米,广州市,花都区,113.180779,23.457906,广州市花都区狮岭兴林自行车行,广东省,,
人民南路146号,茂名市,信宜市,110.938571,22.34118,信宜市新日电动车,广东省,,
康政东路21-6号附近,广州市,花都区,113.162847,23.462354,广州市花都区狮岭建忠电动车行,广东省,,
坦洲镇,中山市,,113.46928864717482,22.260633486679342,中山市坦洲镇六六自行车商行,广东省,,
虎门镇,东莞市,,113.68405178189278,22.816523536250422,肥仔车行,广东省,,
古镇镇,中山市,,113.19548204541206,22.626152596436995,中山市古镇辉宇电动车行,广东省,,
高埗镇,东莞市,,113.72283920645717,23.080373317579735,辉辉自行车店,广东省,,
石碣镇,东莞市,,113.81796240806581,23.109890177768236,龙兴车业,广东省,,
717乡道西50米,广州市,花都区,113.201934,23.418908,广州市花都区花城凯日电动车商行,广东省,,
广东省东莞市虎门镇镇口镇兴大道40号一楼之三地铺,东莞市,,113.662906,22.830929,东莞市虎门益佳自行车行,广东省,,
织篢镇宋康路21号,阳江市,阳西县,111.617645,21.744432,阳西县新日电动车专卖店,广东省,,
沥林镇,惠州市,惠城区,114.23905044794084,22.975370526701543,瀚林摩托车行,广东省,,
沙琅镇建设路,茂名市,电白区,111.221219,21.776877,茂名市沙琅镇新日电动车专卖店,广东省,,
香洲街道,汕尾市,城区,115.35951644182207,22.780400482834,凯骑车行,广东省,,
大鹏街道,深圳市,龙岗区,114.47663649916649,22.59352052625933,深圳市大鹏新区华新单车店,广东省,,
大涌镇,中山市,,113.28442141413692,22.471681868055438,中山市大涌镇新日专卖店,广东省,,
葵涌街道,深圳市,龙岗区,114.41773116588591,22.635671610218267,深圳市龙岗区兴达商店,广东省,,
红旗镇,珠海市,金湾区,113.33839014172555,22.134691853689116,金湾区阿晋摩托车行,广东省,,
黄圃镇,中山市,,113.33310753107072,22.71329686239603,中山市黄圃德福电动自行车行,广东省,,
小榄镇,中山市,,113.25625956058504,22.658992263081235,中山市小榄镇达康电动自行车商行,广东省,,
金砂街道,汕头市,金平区,116.69786095619205,23.366312826964617,汕头市金平区,广东省,,
南较路43号,潮州市,湘桥区,116.642502,23.654283,恺峰摩托车行,广东省,,
广东省佛山市顺德区乐从镇乐从居委会新马路海日名苑1号商铺,佛山市,顺德区,113.081577,22.960676,佛山市顺德区乐从镇严健斌摩托车店,广东省,,
昆美尤厝巷3号,汕头市,澄海区,116.784744,23.456806,捷达车行,广东省,,
明城镇,佛山市,高明区,112.70581260323524,22.853623205257737,佛山市高明区明城镇恒兴达摩托车维修行,广东省,,
南岸街道,肇庆市,高要区,112.4497675895691,23.02812590811198,高要市南岸镇鸿辉电动自行车行,广东省,,
桂城街道,肇庆市,鼎湖区,112.57610365748405,23.187615498228208,鼎湖区宏图车行,广东省,,
怀城镇,肇庆市,怀集县,112.18279659748077,23.907555116623833,怀集县怀城镇东骏电动车行,广东省,,
肇庆高新技术产业开发区,肇庆市,四会市,112.81331554055215,23.300051075425046,高新区俊峰车行,广东省,,
流沙东街道,揭阳市,普宁市,116.18017986416818,23.295060003305892,树兴车行,广东省,,
池尾街道,揭阳市,普宁市,116.13654702901843,23.302980102135336,粤东车行,广东省,,
新城镇环城北路183号时代广场1层,云浮市,新兴县,112.23488,22.701166,云浮市新兴县新日专卖店,广东省,,
金利镇,肇庆市,高要区,112.78115049004555,23.085530322605287,高要市金利镇景盛摩托车行,广东省,,
洪阳镇,揭阳市,普宁市,116.22466161847115,23.435027078427503,益众车行,广东省,,
广东省肇庆市四会市东城区清东路47座1号,肇庆市,四会市,112.712433,23.346911,四会市东城区骏逸车行,广东省,,
花都区,广州市,花都区,113.22077,23.420867,石岗,广东省,,
广东省东莞市南城区篁村宏远路8号9-10商铺,东莞市,,113.735044,23.010248,东莞市南城骑如意自行车店,广东省,,
广东省惠州市博罗县顺达福贸易有限公司,惠州市,博罗县,114.269802,23.169824,博罗县顺达福贸易有限公司,广东省,,
广东省东莞市厚街镇厚街社区新兴路140号碧泉商务酒店一楼街铺8、9号铺位,东莞市,,113.665152,22.942244,东莞市厚街创越自行车行,广东省,,
新华镇花城路33号,广州市,花都区,113.212721,23.381639,广州市花都区城市快车,广东省,,
畲江镇,梅州市,梅县区,115.99187135696414,24.0350883227706,信心摩托车维修,广东省,,
广东省中山市东凤镇小沥村东海二路11号,中山市,,113.256709,22.69401,中山市东凤镇浩龙电动车商店,广东省,,
广东省佛山市禅城区朝安北路6座11#12#铺,佛山市,禅城区,113.133243,23.0302,佛山市禅城区湘诗自行车行,广东省,,
广东省佛山市顺德区北滘镇北滘居委会跃进南路26-28号,佛山市,顺德区,113.207494,22.918462,顺德北滘汇域自行车店,广东省,,
广东省中山市三角镇月湾路60号首层,中山市,,113.41228,22.676352,中山市三角镇锦龙车行,广东省,,
广东省佛山市南海区桂城街道平洲永安北路54号,佛山市,南海区,113.212664,23.032697,佛山市南海区飞悦自行车店,广东省,,
广东省惠州市惠阳区淡水大华一路45号,惠州市,惠阳区,114.466262,22.785773,惠州市惠阳区淡水祥宇摩托车行,广东省,,
385乡道东150米,揭阳市,普宁市,116.132427,23.340506,石鸟新日电动车行,广东省,,
汤坑镇,梅州市,丰顺县,116.18812724947932,23.751647804677074,顺辉车行,广东省,,
陈江街道,惠州市,惠城区,114.32178720831871,22.99850099463375,雄鹰车行,广东省,,
淡水街道,惠州市,惠阳区,114.44770753383635,22.77580436268184,华昇车行,广东省,,
花东镇朝富三街,广州市,花都区,113.329567,23.438898,廣州市花都區花東種馳電動車行,广东省,,
广东省湛江市梅录街道人民中路85、87号楼首层内,湛江市,吴川市,110.780082,21.423995,吴川市梅录小刀电动车店,广东省,,
广东省云浮市郁南县都城镇牛圩河金鱼山脚开发区第二栋19号首层,云浮市,郁南县,111.539333,23.24165,郁南县都城镇骑乐福电动车行,广东省,,
广州市番禺区洛浦街沙溪村新沙路33号大门口南之4,广州市,番禺区,113.330067,23.039052,广州市番禺区大石台爵自行车店,广东省,,
深圳市龙岗区龙岗街道龙岗墟社区圩肚街15号,深圳市,龙岗区,114.2785,22.731494,深圳市龙岗区深龙电动车行,广东省,,
深圳市宝安区西乡街道固戍社区固戍一路（436号）,深圳市,宝安区,113.845478,22.592619,深圳市宝安区西乡富安达单车店,广东省,,
广东省广州市增城荔城街开园中路16号首层,广州市,增城区,113.829015,23.297418,广州市增城宏跃电动车行,广东省,,
广东省深圳市龙岗区平湖街道凤凰社区平湖大街378号,深圳市,龙岗区,114.137454,22.688412,深圳市龙岗区中顺佳电动自行车商行,广东省,,
深圳市宝安区西乡街道西乡大道东南侧颐合花园B座一层03号,深圳市,宝安区,113.871999,22.580498,深圳市宝安区西乡鑫华顺自行车行,广东省,,
广东省珠海市斗门区井岸镇井湾路583号,珠海市,斗门区,113.297917,22.204436,珠海市斗门区井岸镇国光摩托车城,广东省,,
东莞市塘厦镇桥陇村禾屋村10号,东莞市,,114.118292,22.766275,东莞市塘厦益群单车商店,广东省,,
梅州市兴宁市兴江街27-33号,梅州市,兴宁市,115.725496,24.146075,兴宁市正达摩托车行,广东省,,
广东省梅州兴宁市侨港街100-106号,梅州市,兴宁市,115.724763,24.146451,兴宁市湧达摩托车行,广东省,,
广东省河源市源城区河源大道南71号河源市广晟百货有限公司上角分店一楼,河源市,源城区,114.689986,23.733681,河源市源城区天源电动车行,广东省,,
广东市茂名市油城四路57号首层2号房,茂名市,茂南区,110.913286,21.664124,茂名市茂南区酷骑电动车行,广东省,,
广东省中山市港口镇兴港中路138号首层,中山市,,113.385831,22.587749,中山市港口镇钰林电动自行车商行,广东省,,
广东省肇庆市德庆县德城镇上铁铺位南起第14卡,肇庆市,德庆县,111.785937,23.143722,德庆县安信电动车行,广东省,,
广东省江门市蓬江区堤中路44号,江门市,蓬江区,113.09107,22.575468,蓬江区广良自行车商行,广东省,,
广东省高州市高凉西路,茂名市,高州市,110.840016,21.908044,高州市亿宝贸易有限公司,广东省,,
广东省揭阳市普宁市流沙东街道流沙大道东新坛路段路北,揭阳市,普宁市,116.17265,23.295387,普宁市流沙兴胜摩托车经营部,广东省,,
广州市白云区江高镇江同路179号之二,广州市,白云区,113.231267,23.272986,广州市白云区江高铭锐车店,广东省,,
鹤山市龙口镇金华路5号首层,江门市,鹤山市,112.912425,22.767802,鹤山市龙口镇星之喜车行,广东省,,
东镇街道,茂名市,信宜市,110.94140455126762,22.34055449531764,信宜新日电动车,广东省,,
佛山市南海区桂城街东二中西大街中约村6B铺,佛山市,禅城区,113.158231,23.027217,佛山市南海区同赞自行车商行,广东省,,
深圳市宝安区石岩街道罗租社区罗租如意路10号,深圳市,宝安区,113.937251,22.672871,深圳市宝安区石岩新诚达电动自行车行,广东省,,
广州市花都区花东镇推广富民路A栋105号,广州市,花都区,113.221629,23.468522,广州市花都区花东众驰电动车行,广东省,,
凤岗镇,东莞市,,114.14990589022636,22.74486400841288,鳳崗益龍自行車商行,广东省,,
大亚湾澳头街道,惠州市,惠阳区,114.5322547852993,22.717050171876082,澳頭卓越車行,广东省,,
狮岭镇培正大道军田村委旁培正路附近,广州市,花都区,113.138811,23.456413,獅嶺成標摩托車配件店,广东省,,
金山街道,茂名市,高州市,110.86713016033175,21.817261606864832,红日新车行,广东省,,
沙琅镇,茂名市,电白区,111.222615391016,21.783798319813677,沙朗合新电动车行,广东省,,
博贺镇,茂名市,电白区,111.20928481221202,21.490272408570103,安迅摩托车行,广东省,,
黄坡镇,湛江市,吴川市,110.62272727489473,21.35270844228968,恒发车行,广东省,,
新城镇,云浮市,新兴县,112.2360223531723,22.704239754807105,新兴县新城镇昌化电动车行,广东省,,
高新南一道17-2号附近,深圳市,南山区,113.948111,22.538422,洛宁县贺勤电动车门市,广东省,,
儒洞镇,阳江市,阳西县,111.42941772937778,21.596380017030384,儒洞永光车行,广东省,,
程村镇,阳江市,阳西县,111.71521782875062,21.807962053052684,豪记车行,广东省,,
溪头镇,阳江市,阳西县,111.75779655575752,21.6530743447988,溪头五羊本田,广东省,,
沙扒镇,阳江市,阳西县,111.46526008844376,21.518664933398114,沙扒书村起记摩托车,广东省,,
江北街道,惠州市,惠城区,114.42096054553986,23.122278738600112,惠州市龍宣電動車行,广东省,,
花都狮岭镇历成中路70号,广州市,花都区,113.182279,23.456306,花都區獅嶺興林自行車行,广东省,,
黄冈镇,潮州市,饶平县,116.98918238282207,23.6742854094268,腾飞车行,广东省,,
仓后街道,江门市,蓬江区,113.09107035398485,22.575472875322202,蓬江区皇捷自行车,广东省,,
古镇镇,中山市,,113.20629939436913,22.62611174619259,天宇电动车行,广东省,,
泰安路与潮州大道交叉口北100米,潮州市,湘桥区,116.616088,23.665306,虹诚摩托车行,广东省,,
新塘镇,广州市,增城区,113.64433363080025,23.153581768464807,征途车行,广东省,,
石湾镇,惠州市,博罗县,113.86140748858452,23.122769619786162,新胜车行,广东省,,
狮岭镇,广州市,花都区,113.17808255553248,23.44800061245491,小蒋车行,广东省,,
东简镇,湛江市,麻章区,110.49599021673203,21.026624092974814,东海岛东简镇摩托车行,广东省,,
河南岸街道,惠州市,惠城区,114.41707268357278,23.07349741446489,周小福电动自行车行,广东省,,
大岭镇,惠州市,惠东县,114.70242619514468,23.00306488954935,惠东县大岭镇店,广东省,,
平海镇,惠州市,惠东县,114.86862659454347,22.624304420200904,新创新摩托车行,广东省,,
金砂街道,汕头市,金平区,116.69306114315988,23.36623526652017,立马,广东省,,
磷溪镇,潮州市,湘桥区,116.70766443014143,23.641989736062545,新日电动车,广东省,,
平定镇,茂名市,化州市,110.41599199175836,22.02385311759167,平定宇诚汽配,广东省,,
东城街道,肇庆市,四会市,112.70851492881776,23.33981283206184,达盛车行,广东省,,
桥冲镇,汕尾市,陆丰市,115.79778134822845,22.91952380109381,陆丰市桥冲镇景兴电动车经营店,广东省,,
广东省中山市三乡镇文昌中路,中山市,,113.429068,22.354095,中山市三乡镇丰发电动自行车商行（新）,广东省,,
新津街道,汕头市,龙湖区,116.73524692654611,23.380826911440735,奔达车行,广东省,,
东城街道,清远市,清城区,113.11861261725424,23.745143051801914,清远市清城区中申电动车摩托车经营店,广东省,,
东七号区凤鸣路,清远市,清城区,113.045861,23.686843,清远市清城区小市喜顺达电动车经营部金,广东省,,
沙井街道,深圳市,宝安区,113.80820453166963,22.721102739838766,八匹马车行,广东省,,
福永街道,深圳市,宝安区,113.80701765418054,22.70226643579453,李振坤自行车店,广东省,,
碧园路1号,深圳市,光明区,113.945828,22.758289,宝捷胜电动车行,广东省,,
338省道南50米,汕尾市,陆丰市,116.065342,22.875708,陆丰市甲子新嘉福电动车行,广东省,,
东新街道,湛江市,霞山区,110.39860054850578,21.192100736561684,蓬江区杜阮镇明辉车行,广东省,,
黄江镇,东莞市,,114.01093527674676,22.908742302266113,深友电动车行,广东省,,
沙扒镇,阳江市,阳西县,111.47235319018364,21.512195843377913,沙扒友记车行,广东省,,
林头镇,茂名市,电白区,111.05902880430222,21.663043264152314,恒兴车行,广东省,,
文楼镇,茂名市,化州市,110.41672021150589,22.10360941568956,亚富摩托车行,广东省,,
新华街道,茂名市,茂南区,110.8453144133091,21.680758270563228,三雅车行,广东省,,
霞洞镇,茂名市,电白区,111.11556574702263,21.72938295276927,豪爵铃木,广东省,,
官渡街道,茂名市,茂南区,110.92497333884239,21.680499054419865,黄海车行,广东省,,
小良镇,茂名市,电白区,110.89863538742065,21.49206184404449,小良老王摩托车,广东省,,
祖庙街道,佛山市,禅城区,113.12422648072244,23.03135833298534,佛山市禅城区小雷车行,广东省,,
上华镇,汕头市,澄海区,116.71663105487823,23.54029562656774,豪兴车行,广东省,,
鸥汀街道,汕头市,金平区,116.71422645449638,23.405253517480574,汕头市金平区顺丁发摩托车有限公司,广东省,,
潼侨镇,惠州市,惠城区,114.29530844092369,23.03654189945378,潼侨献壬车行,广东省,,
马安镇,惠州市,惠城区,114.48203042149542,23.06315760545411,马安镇彬记车行,广东省,,
福永街道,深圳市,宝安区,113.81256178021431,22.66811176140212,宝安福永福新街新日,广东省,,
意溪镇,潮州市,湘桥区,116.65685668587685,23.68804958169187,阿章车行,广东省,,
国营林场清远市国营银盏林场银盏银中村,清远市,清城区,113.137054,23.552464,清远市清城区龙塘镇唐水清摩托维修部,广东省,,
