address,city,districd,lat,lon,name,province,street,town
江苏省无锡市惠山区长安金惠路820号,无锡市,惠山区,120.351018,31.66761,无锡车天下商贸有限公司-康成大润发,江苏省,,
江苏省苏州金阊区传化物流港D3号,苏州市,虎丘区,120.536042,31.352323,苏州诚易禾贸易有限公司—康城大润发,江苏省,,
江苏省江阴市君巫路47号,无锡市,江阴市,120.265452,31.917812,江阴市雄风电动车有限公司,江苏省,,
江苏省无锡市梅园十八弯13-123号,无锡市,滨湖区,120.21644,31.550385,滨湖区戴其军助动自行车商行-欧尚,江苏省,,
江苏省无锡市梅园十八弯13-123号,无锡市,滨湖区,120.21644,31.550385,滨湖区戴其军助动自行车商行-康城大润发,江苏省,,
成车地址：江苏常熟市花园滨路108号；,苏州市,常熟市,120.786169,31.601928,常熟市联顺商贸有限公司,江苏省,,
江苏省仪征市人民路53号（电影院斜对面）,扬州市,江都区,119.557782,32.419694,仪征市真州镇方新电动自行车商行,江苏省,,
江苏省泰兴市大庆西路17号,泰州市,泰兴市,120.016072,32.172566,泰兴市弘一百货商行,江苏省,,
常熟市虞山镇明晶村（2）新桥头63号,苏州市,常熟市,120.746112,31.707849,常熟市联顺商贸有限公司-康成大润发,江苏省,,
江苏无锡江阴市华士镇和平街848号,无锡市,江阴市,120.469398,31.837535,江阴市华士峰峰电动车商行,江苏省,,
苏州市唯亭镇夷亭路6号,苏州市,苏州工业园区,120.791114,31.358301,苏州工业园区唯亭镇晓亮车行,江苏省,,
江苏省江阴市环城东路41号,无锡市,江阴市,120.27761,31.900881,江阴市澄江镇澄南新世纪电动车商行,江苏省,,
苏州市相城区黄埭镇长旺路173号,苏州市,相城区,120.51713,31.433762,苏州市相城区黄埭镇东桥东新车行,江苏省,,
张家港妙桥镇永进路48号,苏州市,张家港市,120.680031,31.802684,张家港市塘桥镇妙桥新新日电动车专卖店,江苏省,,
江苏省扬中市三茅镇江州南路43号,镇江市,扬中市,119.83205,32.23412,扬中市志奇助动自行车销售有限公司,江苏省,,
昆山市白马泾路46号,苏州市,昆山市,120.941051,31.379602,欧尚（中国）投资有限公司,江苏省,,
张家港锦丰镇杨锦公路565号,苏州市,张家港市,120.612283,31.937725,无锡车天下贸易有限公司,江苏省,,
长泾镇花园路120号,苏州市,太仓市,121.075829,31.448275,江阴市长泾小罗摩托车服务部,江苏省,,
江苏省昆山市玉山镇昆北路80号,苏州市,昆山市,120.960122,31.391904,昆山市玉山镇鹏兴车行,江苏省,,
无锡梅园环湖路恒大发展大厦123号,无锡市,滨湖区,120.216386,31.550284,滨湖区戴其军助动自行车商行,江苏省,,
江苏省无锡市锡山区学前东路春江花园308号,无锡市,新吴区,120.347768,31.580738,无锡得而达商贸有限公司,江苏省,,
苏州市相城区东桥镇长旺路,苏州市,相城区,120.517196,31.434648,苏州市相城区黄埭镇东桥东新车行-康成大润发,江苏省,,
江苏省昆山市玉山镇昆北路80号,苏州市,昆山市,120.960122,31.391904,昆山市玉山镇鹏兴车行-欧尚,江苏省,,
江苏省昆山市玉山镇昆北路80号,苏州市,昆山市,120.960122,31.391904,昆山市玉山镇鹏兴车行-康成大润发,江苏省,,
江阴市周庄镇砂山大道237号,无锡市,江阴市,120.426936,31.870214,江阴市周庄福民电动自行车行,江苏省,,
江苏省昆山市朝阳中路516号,苏州市,昆山市,120.969468,31.37152,康成（中国）投资有限公司,江苏省,,
吴江市松陵镇笠泽路155号,苏州市,吴江区,120.647469,31.149246,康成投资（中国）有限公司（大润发吴江店）,江苏省,,
宜兴市宜城街道太滆东路22号,无锡市,宜兴市,119.82171,31.368532,宜兴市宜城街道银洋电动车商店,江苏省,,
无锡市南长区南长街110号新日专卖店,无锡市,梁溪区,120.309539,31.563199,无锡得而达商贸有限公司-康成大润发,江苏省,,
无锡市南长区南长街110号新日专卖店,无锡市,梁溪区,120.309539,31.563199,无锡得而达商贸有限公司-欧尚,江苏省,,
南京市浦口区北圩商城浦珠中路,南京市,浦口区,118.682375,32.108099,南京振吉车业有限公司,江苏省,,
南京市秦淮区中华路357号,南京市,秦淮区,118.783999,32.019331,南京沐风车业有限公司,江苏省,,
江都区长江路新日电动车专卖店,扬州市,江都区,119.805779,32.48101,扬州市探星电动车有限公司,江苏省,,
南京市江宁区天印大道716号新日电动车,南京市,江宁区,118.860471,31.944704,南京市江宁区骑士车辆经营部,江苏省,,
南京市江宁区东山街道天印大道718-5号209,南京市,江宁区,118.85819,31.9585,南京快枪车业有限公司,江苏省,,
江苏省南京市浦口区江浦街道南门大街,南京市,浦口区,118.62704,32.055733,南京市浦口区益中摩托车配件经营部,江苏省,,
扬州市江都区长江东路新日专卖店,扬州市,江都区,119.755441,32.435306,扬州市探星电动车有限公司-康成大润发,江苏省,,
泰州海陵区青年北路25号,泰州市,海陵区,119.912257,32.486019,海陵区胜浩电动车商行,江苏省,,
江苏省兴化市建设东路104#-106#（成车地址）,泰州市,兴化市,119.834142,32.91874,兴化市松柏电动车行,江苏省,,
江苏省镇江市黄山南路64号9栋新日电动车服务中心,镇江市,润州区,119.440127,32.192541,镇江大世界电动自行车有限公司,江苏省,,
江苏省镇江丹阳市云阳镇中山路88号中山大夏门面房5-8,镇江市,丹阳市,119.578025,31.996016,丹阳市云阳镇百盛电动车商行,江苏省,,
常州市新北区汉江西路118号,常州市,新北区,119.938033,31.840841,常州摩爵会动力机车有限公司,江苏省,,
江苏省靖江市新建路140号前进电动车商行,泰州市,靖江市,120.266184,32.021093,靖城天音音响电器商行,江苏省,,
江苏省姜堰市人民南路75号,南京市,高淳区,118.97275,31.307347,姜堰区城南电动车商行,江苏省,,
江苏省海安县海安镇人民西路26号,南通市,海安市,120.453652,32.541746,南通顺腾商贸有限公司,江苏省,,
江苏省盐城市区大庆中路156号-108A（新日电动车门市）,盐城市,盐都区,120.132808,33.36927,盐城市皇嘉贸易有限公司,江苏省,,
建湖县向阳东路28号,盐城市,阜宁县,119.806728,33.792631,建湖县近湖镇李磊电动车经营部,江苏省,,
江苏省射阳县振阳街13号楼新日电动车门市,盐城市,射阳县,120.25735,33.767602,射阳县合德镇新日电动车门市,江苏省,,
江苏省响水县长江路心连心大酒店对面,盐城市,响水县,119.578552,34.194884,响水县响水镇佳娣新日电动车门市,江苏省,,
东台市海陵北路11号,盐城市,东台市,120.320285,32.853744,东台市东台镇华旭电动自行车行-康成大润发,江苏省,,
阜宁县阜城镇都市家园1幢101室,盐城市,阜宁县,119.788004,33.783973,阜宁新日电动车销售有限公司,江苏省,,
南通市工农路457号绿能专卖店,南通市,崇川区,120.881745,32.022707,南通飞云贸易有限公司,江苏省,,
南通市崇川区东晖花园3幢101室,南通市,崇川区,120.914126,32.017444,崇川区万邦电动自行车商行,江苏省,,
汇龙镇豪门广场附房一层32号门面,南通市,启东市,121.657127,31.810966,启东市明星电动自行车维修服务部,江苏省,,
如皋市如城镇艺都大厦底层8号（6-7AE）,南通市,如皋市,120.561516,32.375911,如皋市晟行电动车经营部,江苏省,,
靖江市泰和国际地下一层,泰州市,靖江市,120.262367,32.005483,靖城天音音响电器商行-康成大润发,江苏省,,
海门市 江海路3号,南通市,海门市,121.165382,31.891154,海门市海门镇天润发电动车经营部,江苏省,,
江苏东台海陵北路11号,盐城市,东台市,120.320285,32.853744,东台市东台镇华旭电动自行车行,江苏省,,
江苏省滨海县东坎镇向阳大道BC-6号101-102室,盐城市,滨海县,119.836834,33.997017,滨海县佳衡电动车经营部,江苏省,,
江苏省盱眙县五墩西路1-42号,淮安市,盱眙县,118.515011,32.996738,盱眙新日电动车经销站,江苏省,,
江苏淮安洪泽县东风东路,淮安市,洪泽区,118.866421,33.286367,洪泽县高良涧镇锦盛电动车经营部,江苏省,,
江苏省高邮市通湖路96号,扬州市,高邮市,119.438039,32.787423,高邮市新日电动车车行,江苏省,,
涟水县渠北东路新日电动车专卖店69号,淮安市,涟水县,119.278307,33.773334,涟水县新新电动车经营部,江苏省,,
江苏省宿迁市宿城区黄运路148-5号,宿迁市,宿城区,118.297157,33.951325,宿迁市安华贸易有限公司,江苏省,,
泗洪县泗州中大街17号,宿迁市,泗洪县,118.221454,33.459466,泗洪县东盛电动自行车经营部,江苏省,,
江苏省赣榆青口镇镇海西一路857号,连云港市,赣榆区,119.137897,34.822681,赣榆区宋庄镇经爱电动自行车经营部,江苏省,,
东海县牛山郇圩村,连云港市,东海县,118.822029,34.48778,东海县瀚澜贸易有限公司,江苏省,,
江苏省宿迁市宿城区幸福南路绿洲豪庭门面4-105号 捷安特专卖,宿迁市,宿城区,118.301011,33.944558,宿迁市安华贸易有限公司-康成大润发,江苏省,,
江苏省宿迁市沭阳县北京路工商银行南首,宿迁市,沭阳县,118.766824,34.127874,沭阳县沭城远豪电动车经营部,江苏省,,
江苏省扬州市宝应县安宜东路69号,扬州市,宝应县,119.330476,33.236256,宝应县喜荣电动车商行,江苏省,,
县城人民北路128号,扬州市,仪征市,119.254456,32.576328,博白县城区惠美自行车商行,江苏省,,
淮安市清河区人民北路,淮安市,清江浦区,119.021936,33.593259,清河区盛泰电动车经营部,江苏省,,
江苏省淮安市金湖县金石农机农资机电城33幢,淮安市,金湖县,119.055656,33.010872,金湖万达车行,江苏省,,
江苏省连云港市新浦区青年西路新日电动车专卖店,连云港市,海州区,119.177937,34.597825,连云港市黑马商贸有限公司,江苏省,,
江苏省泗阳淮海中路16号,宿迁市,泗阳县,118.690667,33.725417,泗阳县起行电动车经营部,江苏省,,
江苏省连云港灌云县向阳路96号,连云港市,灌云县,119.256526,34.304623,连云港祥恒车业有限公司,江苏省,,
江苏省徐州市沛县金贸广场13号楼2号,徐州市,沛县,116.936211,34.732779,沛县天翔车业有限公司,江苏省,,
江苏省邳州市民主西路,徐州市,邳州市,118.012531,34.338888,邳州市新之金电动车经营部,江苏省,,
江苏省新沂市钟吾路新日电动车专卖店,徐州市,新沂市,118.352217,34.371749,新沂市通达电动自行车销售门市,江苏省,,
徐州市西三环九里山铁路立交桥江苏外贸仓库6号库,徐州市,鼓楼区,117.17004,34.299915,徐州龙湖车业有限公司,江苏省,,
江苏省徐州市丰县华山镇钢城7区29号,徐州市,丰县,116.740027,34.634674,丰县金方正电动车配件厂,江苏省,,
睢宁县政府前东街29号大门西侧底层,徐州市,睢宁县,117.941344,33.913643,徐州东泰车业有限公司,江苏省,,
江苏徐州三环路西铜山货场盟晖储运公司1号门,徐州市,泉山区,117.132807,34.278733,徐州新日专卖店(直营),江苏省,,
徐州市铜山县柳新镇镇中心,徐州市,泉山区,117.186291,34.26795,徐州市柳新镇新日专卖店(直营),江苏省,,
徐州市铜山县大许镇镇中心,徐州市,铜山区,117.556208,34.295979,徐州市大许镇新日专卖店(直营),江苏省,,
江苏徐州市张集镇,徐州市,铜山区,117.382399,34.145662,徐州张集镇新日专卖店(直营),江苏省,,
江苏省徐州市建国路解放桥西首,徐州市,泉山区,117.183975,34.258892,徐州青商商贸发展有限公司(直营),江苏省,,
江苏省徐州市铜山县利国镇鹏盛家电摩托商城,徐州市,铜山区,117.32924,34.53723,江苏铜山县新日专卖(直营),江苏省,,
江苏省睢宁市中山中路18号“戴氏车辆商城”,南京市,鼓楼区,118.763232,32.061707,睢宁县戴氏商贸有限公司(直营),江苏省,,
江苏省徐州市丰县解放中路新日专卖店,徐州市,丰县,116.602662,34.698926,丰县新日专卖(直营),江苏省,,
江苏省宿迁市泗洪县泗洲东大街2号,宿迁市,泗洪县,118.189715,33.228071,江苏省乾达工贸有限公司(直营),江苏省,,
江苏省宿迁市沭阳县人民路36号(三匹马新日专卖店),宿迁市,宿豫区,118.527869,34.017196,沭阳县鑫莱摩托车经销部(直营),江苏省,,
江苏省东海县菜市街57-14号新日,连云港市,东海县,118.766944,34.520546,东海新日旗舰店,江苏省,,
江苏省连云港市赣榆县城青河丽景商业街,连云港市,赣榆区,119.121279,34.84381,昌盛电动车经营部,江苏省,,
江苏省连云港市灌南县新安镇人民东路2号,连云港市,灌南县,119.356284,34.094034,灌南县天龙摩托车销售有限公司(直营),江苏省,,
淮安市楚州区淮城镇纸箱厂商贸楼11号,淮安市,盱眙县,118.553891,32.981913,淮安市楚州区淮城镇谢二电动车修理部,江苏省,,
淮安市青浦区轮窑路5号（成车）,淮安市,清江浦区,119.034053,33.564362,淮安市天成旺商贸有限公司,江苏省,,
淮安市金湖县金湖东路农机农资商城33幢120-114#,淮安市,金湖县,119.053334,33.011313,金湖县华泰商贸有限公司(直营),江苏省,,
江苏省无锡市锡山区查桥新日路8号（江苏新日电动车股份有限公司）,无锡市,锡山区,120.437666,31.583713,上海轩邑贸易有限公司,江苏省,,
江苏省连云港市灌南县新安镇新东南路,连云港市,灌南县,119.357507,34.089559,灌南县新安镇小阿龙童车经营部,江苏省,,
沭阳县刘集镇阳光西路苏果超市对面,宿迁市,沭阳县,118.617254,34.00071,小戴摩托车经营维修部(直营),江苏省,,
沭阳县贤官街道邮局向北50米,宿迁市,沭阳县,118.77238,34.2403,贤官镇雅迪专卖店(直营),江苏省,,
灌南县新东南路35号新日专卖店,连云港市,灌南县,119.357811,34.089041,灌南县新安镇张泽电动车经营部(直营),江苏省,,
金湖机电城33栋,淮安市,金湖县,118.974505,33.009313,金湖永和电动车经营部(直营),江苏省,,
淮安淮阴区徐溜镇（程靖）,淮安市,淮阴区,118.922169,33.838702,淮安徐溜镇（程靖）(直营),江苏省,,
淮安钦工镇韩庄村3组,淮安市,淮安区,119.231542,33.673435,淮安钦工镇（王立会）,江苏省,,
淮安淮阴区三树镇小鸟电动车,淮安市,淮阴区,118.8117,33.513317,淮安三树镇（宋成国）,江苏省,,
淮安吴城镇吴城街道,淮安市,淮阴区,118.808419,33.514259,淮安吴城镇（胡海琴）(直营),江苏省,,
江苏省涟水县淮海路白鹭花园（东大门）,淮安市,涟水县,119.277132,33.784634,涟水县好的车业有限公司(直营),江苏省,,
江苏省建湖县上冈人民北路94号,盐城市,建湖县,120.012184,33.542798,建湖县近湖镇城中新日电动车经营部(直营),江苏省,,
江苏省大丰市人民北路32号,南京市,鼓楼区,118.763232,32.061707,大丰市宏图电动车商行(直营),江苏省,,
江苏射阳县镇阳街17号楼23号门,盐城市,射阳县,120.258053,33.774806,射阳县合德镇红梅电动车销售门市(直营),江苏省,,
江苏省响水县城长江中路“忠宝电动车门市”,盐城市,响水县,119.581457,34.195892,响水县响水镇新日电动车店,江苏省,,
如东县岔河镇交通3号,南通市,如东县,120.923945,32.350091,如东顺发电动车经营部(直营),江苏省,,
江苏省如东县掘港镇青国南路28号,南通市,如东县,121.182329,32.304151,如东赛飞电动车经营部,江苏省,,
江苏省 启东市 吕复镇 卫兵车行,南通市,启东市,121.629938,32.005602,卫兵车行(直营),江苏省,,
大丰市人民北路综合楼（医药公司）,盐城市,大丰区,120.461502,33.218601,大丰市小娟电动车销售中心,江苏省,,
建湖县芦沟镇人民路107号,盐城市,建湖县,119.850531,33.395414,小智车业有限公司,江苏省,,
南通市如东县掘港镇爱民路8号华联东城西隔壁如东华联电动车售后服务中心,南通市,如东县,121.161328,32.315102,如东华联电动车连锁有限公司(直营),江苏省,,
益寿路531号新日专卖店,南通市,如皋市,120.550987,32.388596,如皋新日电动车经营部(直营),江苏省,,
启东市汇龙镇豪门广场附房一层60号门面、江苏省启动金润发电动车大卖场文峰大世界西侧20米原豪门广场,南京市,秦淮区,118.787135,32.01973,启东市汇龙镇金润发电动车大卖场(直营),江苏省,,
江苏省海门市东洲路47号,南通市,海门市,121.17322,31.891738,海门新日电动车经营部,江苏省,,
江苏省南通通州市金沙镇人民中路48号富豪车城,南通市,通州区,121.052806,32.062683,通州富尔豪车城(直营),江苏省,,
常州市新北区汉江西路118号,常州市,新北区,119.938033,31.840841,常州摩爵会动力机车有限公司-大润发(直营),江苏省,,
常州市佳兰特通用设备有限公司,常州市,新北区,119.946164,31.838931,常州市佳兰特通用设备有限公司(直营),江苏省,,
江苏省句容市华阳镇人民路进修学校东侧,镇江市,句容市,119.175,31.946211,句容市红太阳车业有限公司(直营),江苏省,,
常州市武进区东安镇迎宾西路4号,常州市,武进区,119.737487,31.587081,常州市武进区东安吉星维修部(直营),江苏省,,
常州市武进区湖塘人民中路339号,常州市,武进区,119.966925,31.726192,常州市武进区湖塘俊智电动车维修部,江苏省,,
江苏常州横林镇昌盛路150号,常州市,武进区,120.091194,31.696611,横林新日电动车专卖店,江苏省,,
常州武进区遥观镇今创路,常州市,武进区,120.04295,31.710907,常州武进区遥观新日电动车专卖店(直营),江苏省,,
溧阳市平陵中路323号,常州市,溧阳市,119.485895,31.42318,溧阳市溧城安兰车行(直营),江苏省,,
金坛市东环一路39-31号,常州市,金坛区,119.582703,31.745111,金坛新日电动车(直营),江苏省,,
丹阳市金香花园开泰路36号,镇江市,丹阳市,119.568185,31.986165,丹阳市云阳镇小施电动车维修部(直营),江苏省,,
江苏省溧阳市煤建路2号,常州市,溧阳市,119.482062,31.426466,江苏溧阳复兴摩托车销售有限公司(直营),江苏省,,
江苏省南京市江宁区上元大街622号新日电动车专卖店,南京市,江宁区,118.858073,31.959454,江苏南京步吉车辆有限公司(直营),江苏省,,
南京市中央路300#,南京市,鼓楼区,118.784298,32.086959,南京沐风车业有限公司-康成大润发,江苏省,,
南京市浦口区泰西路5号天然居门面房109号（电动车专卖店）,南京市,浦口区,118.713821,32.144751,南京卡玛电动车销售服务有限公司,江苏省,,
扬州市江都区经济开发区鸿江花园12幢3号房,扬州市,江都区,119.57888,32.419373,扬州市探月商贸有限公司,江苏省,,
江苏省扬州市邗江区文汇西路109号,扬州市,邗江区,119.403856,32.383017,扬州邗江区汊河（戴青）,江苏省,,
南京市六合区雄洲东路146-9,南京市,六合区,118.862117,32.335055,南京市六合区李明电动车销售中心(直营),江苏省,,
江苏南京市江宁区文靖路106号,南京市,江宁区,118.843519,31.95996,南京天行电动自行车有限公司,江苏省,,
南京市浦口区北圩商城浦珠中路234-28号,南京市,浦口区,118.685418,32.1088,南京振吉车业有限公司,江苏省,,
江苏省泰州市青年路17号,泰州市,海陵区,119.912834,32.485212,泰州市海陵区新日商贸有限公司(直营),江苏省,,
江苏扬州市汶河南路27号,扬州市,邗江区,119.433446,32.387577,江苏扬州市广陵区永祺车业商行(直营),江苏省,,
南京市大厂区葛关路688号（扬子宾馆旁旋转木马右边）新日电动车专卖店,南京市,六合区,118.753523,32.24005,南京风速贸易有限公司,江苏省,,
江苏省南京建邺区水西大街262号,南京市,建邺区,118.731694,32.003552,南京卓隆科贸有限责任公司(直营),江苏省,,
江苏省南京高淳县天河路135号,南京市,高淳区,118.86492,31.32435,高淳县淳溪镇李波电动车行(直营),江苏省,,
南京市六合区冶山镇四合街道,南京市,六合区,118.918403,32.512829,南京六合精诚摩托车经营部(直营),江苏省,,
扬州市汶河南路33号,扬州市,邗江区,119.433353,32.387953,扬州市广陵区亚驰电动车行(直营),江苏省,,
宜兴市宜城街道太滆东路22号,无锡市,宜兴市,119.82171,31.368532,康成大润发宜兴新日电动车,江苏省,,
江苏省张家港市沙洲中路288号,苏州市,张家港市,120.532876,31.864219,康成投资（中国）有限公司（大润发张家港店）(直营),江苏省,,
昆山市陆家镇南粮路54号,苏州市,昆山市,121.033748,31.312964,昆山市陆家镇大爱玛电动车商行(直营),江苏省,,
无锡阳山镇陆区人民路,无锡市,惠山区,120.0953,31.574143,无锡阳山镇新日电动车专卖店,江苏省,,
无锡市滨湖区蠡湖大道99号（蠡湖街道望山路和青祁路交叉东北角）,无锡市,滨湖区,120.272697,31.533775,欧尚（中国）投资有限公司-无锡蠡湖欧尚店(直营),江苏省,,
无锡市长江路288号,无锡市,新吴区,120.3348,31.56965,欧尚（中国）投资有限公司-无锡长江路店(直营),江苏省,,
江苏省无锡市南长区南长街142号,无锡市,梁溪区,120.309497,31.563301,无锡鑫之福贸易公司(直营),江苏省,,
太仓市沙溪镇新北街,苏州市,太仓市,121.066749,31.5681,太仓新创摩托车有限公司,江苏省,,
无锡市惠山区南塘社区彩印厂旁135号,无锡市,梁溪区,120.304868,31.620895,惠山区钱桥茂国电动车经营部(直营),江苏省,,
张家港市后塍镇人民南路158号,苏州市,太仓市,121.104518,31.451575,后塍新日专卖店(直营),江苏省,,
胡埭镇商贸街122号,无锡市,滨湖区,120.119972,31.548241,滨湖区胡埭朱才明电动车商行,江苏省,,
无锡市惠山区文曲公寓3号201室,无锡市,惠山区,120.196066,31.714974,惠山区玉祁爱荣摩托车车行,江苏省,,
太仓市新塘农贸市场北侧,苏州市,太仓市,121.204085,31.527674,太仓市浏河镇陆家新电动车经销部,江苏省,,
沙溪镇岳王岳王大街,苏州市,太仓市,121.146461,31.545971,太仓市岳王永强摩托车经营部,江苏省,,
苏州市吴江区盛泽镇斜桥街蚕花公寓商住楼房,苏州市,吴江区,120.663969,30.905623,盛泽新日专卖店,江苏省,,
杨舍镇斜桥村8组,苏州市,张家港市,120.553497,31.890018,张家港市杨舍开发区奥贝司电动车经营部(直营),江苏省,,
昆山市周市镇万安路500号,苏州市,昆山市,120.990587,31.470593,江苏省昆山市周市镇耀之明船车行(直营),江苏省,,
苏州市工业园区娄门路新苏安208幢102,苏州市,姑苏区,120.648323,31.326982,苏州工业园区娄葑镇速可达摩托车维修服务部(直营),江苏省,,
无锡堰桥镇前洲街道（前洲店）,无锡市,惠山区,120.224743,31.68877,惠山区堰桥巨浪电动车经营部（前洲店）,江苏省,,
苏州市东环路1500号,苏州市,姑苏区,120.648756,31.318384,康成投资（中国）有限公司（大润发东环店）(直营),江苏省,,
苏州市高新区滨河路1823号,苏州市,虎丘区,120.563652,31.307262,康成投资（中国）有限公司（大润发何山店）(直营),江苏省,,
苏州市高新区文昌路西体育路南,苏州市,虎丘区,120.517904,31.359856,康成投资（中国）有限公司（大润发浒关店）(直营),江苏省,,
苏州市相城区华元路99号,苏州市,相城区,120.638958,31.376334,康成投资（中国）有限公司（大润发相城店）(直营),江苏省,,
苏州市苏福路13号,苏州市,吴中区,120.395047,31.283168,康成投资（中国）有限公司（大润发苏福店）(直营),江苏省,,
昆山市周市镇陆杨商茂路40号,苏州市,昆山市,120.95486,31.465647,昆山市周市通辉车行(直营),江苏省,,
无锡洛社镇人民南路18号,无锡市,惠山区,120.187543,31.638123,无锡洛社镇启越电动车行(直营),江苏省,,
张家港金港镇黄泗浦西路1号,苏州市,张家港市,120.425308,31.947321,康成投资（中国）有限公司（大润发金港店）(直营),江苏省,,
吴江市盛泽镇顺新中路281号,苏州市,吴江区,120.658333,30.905544,康成投资（中国）有限公司（大润发盛泽店）(直营),江苏省,,
无锡市北塘区青祁路258号,无锡市,滨湖区,120.269582,31.551047,北塘区青祁路新日专卖店(直营),江苏省,,
江苏省无锡市新区江溪街道欧典家园163-10号,无锡市,新吴区,120.339196,31.569441,昆山丹康电动科技有限公司,江苏省,,
太仓市板桥镇兴业路141号,苏州市,太仓市,121.13841,31.485226,太仓市板桥镇诚信车行(直营),江苏省,,
太仓市城厢镇人民南路,苏州市,太仓市,121.107144,31.448083,太仓市鑫利达车业有限公司,江苏省,,
江阴市南闸镇锡澄路650号,无锡市,江阴市,120.247149,31.854112,江阴市南闸新辰之光电动车商行(直营),江苏省,,
江阴市祝塘镇环北路11号,无锡市,江阴市,120.345898,31.760452,江阴市万烨机械科技有限公司,江苏省,,
无锡市滨湖区青祁路66,无锡市,滨湖区,120.269067,31.558433,康成投资（中国）有限公司（大润发无锡滨湖店）(直营),江苏省,,
无锡市锡山区锡山大道501号,无锡市,锡山区,120.490451,31.580526,南长街专卖店(直营),江苏省,,
巴城镇石牌巷人民路,苏州市,昆山市,120.95752,31.377724,苏州昆山巴城镇石牌巷黄建平(直营),江苏省,,
无锡市锡山区査桥马巷桥亚杰科技,无锡市,锡山区,120.42352,31.590774,昆山永辉泉中贸易有限公司(直营),江苏省,,
昆山高新区南星渎茗景苑A区30栋,苏州市,昆山市,120.90728,31.34427,昆山市玉山镇韦久车行(直营),江苏省,,
张家港三兴镇意才路,苏州市,相城区,120.768611,31.446084,张家港三兴镇新日专卖店,江苏省,,
无锡东亭二泉路柏庄路段,无锡市,梁溪区,120.348215,31.593162,无锡东亭柏庄新日电动车专卖店(直营),江苏省,,
无锡滨湖区太湖新城立信大道,无锡市,滨湖区,120.280219,31.496233,无锡滨湖区太湖新城新日专卖店(直营),江苏省,,
昆山市前进路东城大道交叉路口,苏州市,昆山市,121.044845,31.261948,南京越嘉服装有限公司（大润发前进店）(直营),江苏省,,
太仓市太平南路20号,苏州市,太仓市,121.12111,31.44622,康成大润发（太仓-前进店）-张传明(直营),江苏省,,
张家港杨舍镇泗港镇闸上,苏州市,张家港市,120.505707,31.885248,张家港杨舍镇新日专卖店(直营),江苏省,,
江阴市梅园大街402号,无锡市,江阴市,120.265696,31.872284,江阴市要塞爱琦电动车经销部(直营),江苏省,,
吴江市横扇镇大桥路259号,苏州市,吴江区,120.542358,31.010168,横扇镇富士达专卖店(直营),江苏省,,
江阴市南闸镇锡澄路农贸市场,无锡市,江阴市,120.247179,31.854625,江阴市南闸镇金江电瓶车经销部(直营),江苏省,,
无锡市新区梅村香珺苑6-5,无锡市,新吴区,120.443886,31.543308,新区梅村香珺电动车行(直营),江苏省,,
常熟市尚湖镇王庄旺盛南路,苏州市,常熟市,120.586157,31.689032,江苏省常熟市尚湖镇高利琴电动车商行,江苏省,,
无锡市前洲青城西路127号,无锡市,惠山区,120.208409,31.691105,惠山区前洲向阳海电动车行(直营),江苏省,,
无锡港下镇港下中学向东50米,无锡市,锡山区,120.554035,31.695478,无锡市港下明峰车行(直营),江苏省,,
无锡滨湖区马山乐山市场91号,无锡市,滨湖区,120.11916,31.4613,无锡市王长美电动车商店,江苏省,,
江苏苏州工业园区跨塘大丰收车,苏州市,苏州工业园区,120.80712,31.351219,孙晓荣,江苏省,,
江苏苏州工业园区娄葑镇文卒路,苏州市,苏州工业园区,120.667051,31.287479,苏州工业园区娄葑镇文磊电动车自行车配件商行(直营),江苏省,,
吴江市松陵镇城南花苑235室,苏州市,吴江区,120.655449,31.13516,宋青萍(直营),江苏省,,
无锡市新区鸿山鸿后路,无锡市,新吴区,120.364144,31.545294,无锡新区鸿山皖张电动车维修店,江苏省,,
江苏省无锡市滨湖区太湖新城立信大道18,无锡市,滨湖区,120.301001,31.507766,滨湖区盟盟电动车经营部(直营),江苏省,,
江阴市周庄长寿路191-4号,无锡市,江阴市,120.38145,31.812137,江阴市周庄法拉蒂电动车行（长寿镇）(直营),江苏省,,
张家港市杨舍镇周家桥,苏州市,张家港市,120.526325,31.910148,张家港市周家桥电动车修理部(直营),江苏省,,
江苏苏州吴江市金家坝镇金鼎路,苏州市,吴江区,120.782887,31.091016,吴江市金家坝大海车行,江苏省,,
张家港市塘桥镇镇中南路,苏州市,张家港市,120.641208,31.805729,张家港市塘桥镇旺兴电动车经营部(直营),江苏省,,
张家港市塘市镇金塘中路,苏州市,张家港市,120.552994,31.817457,张家港市塘市镇亿维思电动车专卖店(直营),江苏省,,
无锡厚桥镇厚荡路288-17号,无锡市,锡山区,120.510996,31.56638,无锡厚桥镇新日电动车专卖店(直营),江苏省,,
苏州姑苏区莫邪路607号,苏州市,姑苏区,120.644389,31.301233,黄明静(直营),江苏省,,
无锡华庄落霞苑1期,无锡市,滨湖区,120.3458,31.478168,无锡华庄落霞苑新日电动车专卖(直营),江苏省,,
无锡硕放锡宅路,无锡市,新吴区,120.447666,31.484278,无锡硕放新日电动车专卖店(直营),江苏省,,
无锡市滨湖区新安镇华新北路,无锡市,新吴区,120.388785,31.484274,无锡新安镇新日电动车专卖店(直营),江苏省,,
昆山石浦镇石泉大街765号,苏州市,昆山市,121.050147,31.258828,昆山石浦镇臧可明,江苏省,,
江苏苏州吴中区越溪镇421号,苏州市,吴中区,120.589023,31.21466,越溪新日专卖店(直营),江苏省,,
昆山市巴城镇石牌巷人民南路13-2号,苏州市,昆山市,120.907661,31.500447,昆山市巴城镇石牌巷黄建平(直营),江苏省,,
江苏苏州市吴中区木渎商城23-1,苏州市,吴中区,120.518918,31.255707,苏州市吴中区木渎商城,江苏省,,
江苏省苏州市吴江市宛平镇镇内,苏州市,吴江区,120.605508,31.070674,吴江宛平新日专卖店,江苏省,,
苏州市娄门路246号,苏州市,姑苏区,120.644666,31.325306,苏州市平江区北塔电动车销售部(直营),江苏省,,
江苏无锡惠山区堰桥西街15号,无锡市,惠山区,120.284129,31.689136,无锡市惠山区堰桥勇照摩托车经营部(直营),江苏省,,
江阴市利港镇利南街136号,无锡市,江阴市,120.084281,31.915779,江阴市利港德美电动车商行(直营),江苏省,,
苏州市姑苏区枫桥电动车专业大市场,苏州市,虎丘区,120.568073,31.310017,姑苏区金阊陈茂盛电动自行车商行(直营),江苏省,,
昆山周庄镇水韵花苑新日专卖店,苏州市,昆山市,120.853892,31.125464,昆山市周庄镇林宝车行(直营),江苏省,,
昆山市淀山湖镇曙光路59号,苏州市,昆山市,121.036873,31.180158,淀山湖镑威车行(直营),江苏省,,
无锡滨湖区太湖街道方庙社区仙河苑452-8号,无锡市,滨湖区,120.29523,31.468061,滨湖区杜家电动车行,江苏省,,
无锡阳山镇陆中南路69号,无锡市,惠山区,120.091574,31.57274,惠山区阳山镇臧晓明电动车经营部(直营),江苏省,,
无锡钱桥藕塘北路新村19号,无锡市,惠山区,120.235783,31.604923,无锡市钱桥镇藕塘王飞车行(直营),江苏省,,
太仓市浏河镇闸北路130号,苏州市,太仓市,121.269144,31.509541,太仓市浏河镇兴华车行(直营),江苏省,,
江阴霞客镇璜塘须毛路5号,无锡市,江阴市,120.347681,31.761111,江阴霞客镇璜塘文军电动车(直营),江苏省,,
江阴市临港新城夏港镇镇澄路41号,无锡市,江阴市,120.229429,31.894914,江阴市夏港镇小吴电动车(直营),江苏省,,
苏州市吴中区甪直镇甪胜路13号,苏州市,吴中区,120.821357,31.283474,苏州市吴中区甪直大海电动车经营部(直营),江苏省,,
江阴市顾山镇香山北路151号,无锡市,江阴市,120.562175,31.740862,永安车行,江苏省,,
无锡市东北塘友谊北路300号电动车市场,无锡市,锡山区,120.369441,31.620486,无锡市炜之杰电动车有限公司(直营),江苏省,,
昆山市周市镇潇林东路东方家园15号,苏州市,昆山市,121.039867,31.410508,昆山市周市镇全峰电动车行(直营),江苏省,,
江阴市西石桥镇澄路138号,无锡市,江阴市,120.284939,31.920658,江阴市西石桥名都摩托车行(直营),江苏省,,
昆山市张浦镇南港望江路149号,苏州市,昆山市,120.887842,31.274349,昆山市张浦镇南港俊雨车行(直营),江苏省,,
苏州市吴中区甪直镇东方大道168号,苏州市,吴中区,120.682369,31.26346,吴中区甪直正林车行(直营),江苏省,,
蓬朗镇栈泾路,苏州市,昆山市,121.078598,31.380575,昆山市蓬朗镇（徐华木）(直营),江苏省,,
江苏省太仓市沙溪镇镇东路,苏州市,太仓市,121.016391,31.544408,太仓市沙溪镇忠信车行(直营),江苏省,,
江苏省太仓市城厢镇人民南路149-1,苏州市,太仓市,121.107144,31.448083,太仓市城厢镇新日电动车商行(直营),江苏省,,
吴中区胥口镇孙武路,苏州市,吴中区,120.447192,31.227067,吴中区胥口镇徐菊明(直营),江苏省,,
江阴市夏港镇西城路178号,无锡市,江阴市,120.194227,31.877194,江阴市要塞真爱电动车行(直营),江苏省,,
昆山市花桥镇周泾村五组,苏州市,昆山市,121.081404,31.301151,昆山市花桥镇丽荣车行(直营),江苏省,,
昆山南港镇南港望江路231号,苏州市,昆山市,120.888247,31.274454,昆山市张浦镇弘易车行(南岗店)(直营),江苏省,,
苏州市太仓市璜泾镇国林路200号,苏州市,太仓市,121.106286,31.64972,太仓市璜泾镇永恒车行(直营),江苏省,,
太仓市浏河镇富先东街2号楼1号,苏州市,太仓市,121.276419,31.515118,太仓市浏河镇红峰车行,江苏省,,
苏州市吴中区横泾镇木东公路,苏州市,吴中区,120.534281,31.173011,苏州市向东电动车有限公司(直营),江苏省,,
苏州市吴中区郭巷镇通源路89号,苏州市,吴中区,120.67318,31.251948,苏州市吴中区郭巷鸿运电动车店(直营),江苏省,,
昆山市锦溪镇,苏州市,昆山市,120.901217,31.181491,昆山锦溪镇陆小弟(直营),江苏省,,
昆山市千灯镇泰峰花园3.2号楼,苏州市,昆山市,121.025367,31.255435,昆山市千灯镇金巧电动车店(直营),江苏省,,
苏州市吴中区东山镇东山村10组,苏州市,吴中区,120.404393,31.083499,苏州市吴中区东山镇雅志珍龙,江苏省,,
无锡市锡山区锡沪路67号,无锡市,梁溪区,120.345606,31.586527,无锡市锡山区羊尖镇利民摩托车修理部,江苏省,,
江苏江阴云亭镇云台路117号,无锡市,江阴市,120.340451,31.857448,江阴市云亭镇新日电动车专卖店,江苏省,,
昆山市玉山镇西桥新村15幢3号,苏州市,昆山市,120.949404,31.375312,昆山市玉山镇迎峰摩配店(直营),江苏省,,
江苏江阴徐霞客镇璜塘溪路78弄18号,无锡市,江阴市,120.34822,31.751934,江阴市徐霞客永保车行(直营),江苏省,,
张家港市杨舍镇南门路38号,苏州市,张家港市,120.543375,31.859904,张家港市杨舍镇真诚电动车行,江苏省,,
江阴市周庄镇长寿路180号,无锡市,江阴市,120.378993,31.812325,江阴市周庄长寿金豪摩托销售店(直营),江苏省,,
江阴市祝塘镇镇北路148-150号,无锡市,江阴市,120.415031,31.772728,江阴市祝塘小虎车行(直营),江苏省,,
江苏省苏州太仓南郊镇204国道边,苏州市,太仓市,121.064298,31.489229,江苏省太仓市南郊镇绿亮电动车行,江苏省,,
江苏昆山市玉山镇长江路（小唐）,苏州市,昆山市,120.979166,31.386992,昆山开发区百纳华夏车业商行,江苏省,,
苏州工业园区金鸡湖路205号,苏州市,姑苏区,120.658422,31.304772,苏州欧尚店(直营),江苏省,,
江苏吴江市中山北路308号,南京市,鼓楼区,118.754884,32.08444,吴江市佳友电动车配件批发部(直营),江苏省,,
江阴市申港镇中街村58号,无锡市,江阴市,120.135758,31.894351,江阴申港德力保温设备经营部,江苏省,,
江阴祝塘镇北路58号祝塘农业银行对面,无锡市,江阴市,120.410333,31.770809,江阴祝塘阿二车行(直营),江苏省,,
苏州相城区渭塘渭中路333号,苏州市,相城区,120.659619,31.460436,苏州市相城区渭塘百姓车行,江苏省,,
江苏省张家港乘航西路派出所对面,苏州市,张家港市,120.586557,31.841162,张家港市乘航阿二电动车商店(直营),江苏省,,
江苏苏州高新区横塘乡吴越路3号,苏州市,虎丘区,120.5825,31.27,苏州高新区横塘小唐电动车经营部(直营),江苏省,,
无锡市新区后宅镇农业银行东侧50,无锡市,新吴区,120.364144,31.545294,无锡市新区鸿山镇程胜摩托车商行(直营),江苏省,,
无锡市锡山区鹅湖镇青虹路8号（嘉新彩印门口）,无锡市,锡山区,120.539085,31.52032,无锡市锡山区鹅湖镇（周雅华）,江苏省,,
江苏常州市天山路66号,常州市,新北区,119.947178,31.843108,常州郡爵商贸有限公司(直营),江苏省,,
武进区郑陆镇和平村中心邮局边,常州市,天宁区,120.163093,31.820413,武进区郑陆盛世电动车商行(直营),江苏省,,
常州市新北区龙虎塘街道藏龙苑2栋55号,常州市,新北区,119.985849,31.846739,常州新北区（钱喜辉）(直营),江苏省,,
常州市新北区奥园路68-3、4号,常州市,新北区,119.925633,31.853525,新北区薛家双双电动车店,江苏省,,
常州市武进区遥观镇政和路78号，交警中队对面,常州市,武进区,120.037619,31.702885,常州市武进区遥观镇顾明荣(直营),江苏省,,
常州市武进区漕桥镇金三角128号华鼎雅马哈专卖店,无锡市,宜兴市,119.982658,31.517796,常州武进区雪堰漕桥华鼎摩托车销售中心,江苏省,,
常州武进区洛阳镇东都东路61号,常州市,武进区,120.08364,31.64331,常州武进区洛阳登峰电动车商店,江苏省,,
常州武进区礼嘉镇百兴名园27栋2号,常州市,武进区,120.0135,31.624559,常州武进区礼嘉永盛摩托车销售部(直营),江苏省,,
常州武进区湖塘镇武宜中路101-3号,常州市,武进区,119.937088,31.714051,常州武进区湖塘镇建同电动车店(直营),江苏省,,
常州武进区邹去镇卜弋常金西路26号,常州市,钟楼区,119.80668,31.776539,常州市武进区卜弋心枫电动自行车经营部,江苏省,,
常州钟楼区西林乡凌家村委船舫头22号,常州市,钟楼区,119.894496,31.770401,常州钟楼区西林云华电动车经营部(直营),江苏省,,
常州武进区湖塘镇武宜南路28号,常州市,武进区,119.935008,31.673125,常州武进区湖塘顺天电动车超市(直营),江苏省,,
常州武进区前黄镇景德东路14号,常州市,武进区,119.965876,31.592314,常州武进区前黄琴妹自行车商店(直营),江苏省,,
常州武进区邹区镇南街,常州市,武进区,119.942437,31.701188,常州市武进区邹区敖兴自行车修理店(直营),江苏省,,
常州武进区南夏墅街道南塘路58号,常州市,武进区,119.942752,31.632385,武进区南夏墅之富电动车店,江苏省,,
常州市横林镇昌盛路150#,常州市,武进区,120.091194,31.696611,常州横林镇木林摩修(直营),江苏省,,
武进高新区东庄新村17-丙-101,常州市,武进区,119.963162,31.727289,常州武进高新区贝拉维拉电动车(直营),江苏省,,
常州新北区孟河镇孟河大道99号,常州市,新北区,119.846427,32.007473,常州新北区孟河肖氏摩托车经营部(直营),江苏省,,
江苏常州新北区西夏墅镇丽江茗园2-16号,常州市,新北区,119.823853,31.955319,新北区西夏墅仁义电动车经营部(直营),江苏省,,
江苏常州小河镇黄山路10号,常州市,新北区,119.862554,32.017071,常州新北区小河镇新日专卖店（刘超）,江苏省,,
金坛市西环二路118号,常州市,金坛区,119.553123,31.75176,金坛市城西飞翔自行车商店(直营),江苏省,,
戚墅堰区圩墩路78号,常州市,武进区,120.063789,31.717199,常州市戚墅堰区戚墅堰宝雷电动车经营部(直营),江苏省,,
武进区横山桥镇省庄村农贸市场,常州市,武进区,120.113289,31.762742,常州市武进区横山桥宏盛摩托车销售中心(直营),江苏省,,
常州市武进区郑陆镇菜市场入口,常州市,武进区,119.942437,31.701188,常州郑陆镇新日电动车专卖店(直营),江苏省,,
江苏省常州市武进区庙桥镇东皇路69号,常州市,武进区,119.979769,31.651057,武进区南夏墅吕氏电动车商店(直营),江苏省,,
溧阳市溧城镇平陵中路315号,常州市,溧阳市,119.487408,31.422118,溧阳市新辰摩托车销售有限公司(直营),江苏省,,
江苏省句容市寺街,镇江市,句容市,119.174033,31.945737,江苏省句容市天地自行车经营部（沈珉）,江苏省,,
江苏省镇江大港邮政局对面世纪花园11栋18号,镇江市,京口区,119.496921,32.196958,镇江大港新日电动车(直营),江苏省,,
江苏省丹阳市中山路102号老板娘0511-86505279,镇江市,丹阳市,119.57968,31.995944,丹阳市天行商贸有限公司,江苏省,,
江苏常州市东横街22号,常州市,钟楼区,119.955337,31.784687,常州绿洲机电有限公司(直营),江苏省,,
常州市武进区横山桥镇江南路29号-31号,常州市,天宁区,120.113175,31.795544,常州市武进区横山桥镇金狮专卖店(直营),江苏省,,
金坛市北环东路136路,常州市,金坛区,119.582588,31.74786,金坛金沙汽车摩托车销售中心(直营),江苏省,,
常州市新北区春江镇圩塘新港路新农大楼丙单元102室新日电动车专卖店,常州市,新北区,119.998454,31.94194,江苏省常州市新北区春江镇小艳电动车商行,江苏省,,
江苏常州市博爱路171—173号,常州市,钟楼区,119.958343,31.784109,常州安之车辆销售有限公司(直营),江苏省,,
江苏苏州市浒关镇停车场1栋1号,苏州市,姑苏区,120.585315,31.298886,苏州高新区神通正三摩托车经营部(直营),江苏省,,
江苏张家港锦丰镇锦都花园工商局对面,苏州市,张家港市,120.62398,31.961027,张家港锦丰新日专卖,江苏省,,
"江苏省昆山市张浦镇新吴街102号\n', '收货地址：江苏昆山张浦大宁购物广场旁新日电动车（售后）",苏州市,昆山市,120.944403,31.284299,昆山市张浦镇（夏兴会）,江苏省,,
江苏省太仓市城厢镇人民北路45号,苏州市,太仓市,121.103668,31.451638,太仓市星光电动车有限公司(直营),江苏省,,
江苏省太仓市浮桥镇中兴街,苏州市,太仓市,121.211304,31.598698,太仓市浮桥镇惠中摩托车维修部(直营),江苏省,,
苏州高新区东渚镇美田里路6号6幢101,苏州市,虎丘区,120.400408,31.330085,苏州高新区翔建电动车行(直营),江苏省,,
苏州高新区横塘横越路西16号,苏州市,虎丘区,120.583396,31.270549,苏州高新区唐为响电动车维修部(直营),江苏省,,
江苏省无锡天奇贸易公司五爱北路56号,无锡市,梁溪区,120.291497,31.578372,江苏省无锡天奇贸易公司(直营),江苏省,,
江苏省江阴市周庄镇环周西路97号,无锡市,江阴市,120.408684,31.858455,江阴周庄新日专卖(直营),江苏省,,
无锡市惠山区钱桥镇锡花园路41号钱威路口新日电动车,无锡市,惠山区,120.234452,31.602789,无锡市惠山区钱桥镇（朱新良）,江苏省,,
"宜兴市宜城镇太隔东路55-1号--联系人沈波\n', '宜兴市宜城镇太隔东路112号（宜兴市陶都电动车特约维修中心）",无锡市,宜兴市,119.825305,31.367032,宜兴市陶都电动车商店(直营),江苏省,,
无锡市南长区南长街110号,无锡市,梁溪区,120.309654,31.563288,江苏直营店(直营),江苏省,,
江苏省无锡市南长街110号,无锡市,梁溪区,120.309654,31.563288,江苏无锡南长街直营店(直营),江苏省,,
江苏省江阴市新桥镇陶新路80号,无锡市,江阴市,120.511059,31.801574,江阴市新桥镇新日专卖店,江苏省,,
江苏无锡市惠山区玉祁镇购物中心顺风摩托车有限公司（建设银行对面）,无锡市,惠山区,120.227606,31.599518,无锡顺风摩托车销售有限公司(直营),江苏省,,
江苏无锡市洛社镇张镇桥村,无锡市,惠山区,120.189918,31.624107,无锡市锡西摩托车销售有限公司(直营),江苏省,,
江苏省江阴市顾山镇北国北新街109-1号,无锡市,江阴市,120.54996,31.77864,江阴市北国福田电动车商行（丁秀芬）(直营),江苏省,,
江苏无锡市惠山区阳山镇陆区陆中南路69号,无锡市,惠山区,120.091574,31.57274,无锡市金锋电动车行(直营),江苏省,,
江阴市月城镇红旗路口（华润万家超市对面）,无锡市,江阴市,120.227685,31.800247,江阴市月城镇新日专卖店,江苏省,,
江苏省吴江市平望路41-1号“莺湖家电有限公司”（盛泽）,南京市,鼓楼区,118.763232,32.061707,吴江市莺湖车业有限公司(直营),江苏省,,
江苏省苏州市车坊镇普惠路1号（新日专卖店）,苏州市,苏州工业园区,120.75283,31.249541,苏州车坊新日专卖(直营),江苏省,,
江苏省张家港塘市家农民街,苏州市,张家港市,120.561385,31.814301,张家港塘市新日专卖(直营),江苏省,,
江苏省苏州市相城区望亭镇鹤溪路393号,苏州市,相城区,120.44762,31.424728,苏州望亭新日专卖(直营),江苏省,,
苏州莫邪路庄先湾6号101室,苏州市,姑苏区,120.644185,31.303035,苏州邮政车售后(孙国兵)(直营),江苏省,,
江苏省张家港市沙洲中路315号,苏州市,张家港市,120.536283,31.863416,张家港市杨舍镇西城凯新电动车商行(直营),江苏省,,
江苏省苏州市吴中区光福镇邓尉中路61号,苏州市,吴中区,120.39388,31.28657,苏州市吴中区广福邓尉电动车商店(直营),江苏省,,
江苏太仓市璜泾镇邮电局对面（玄武路）,苏州市,太仓市,121.107958,31.650062,太仓市璜泾镇新日专卖店(直营),江苏省,,
江苏省张家港市兆丰镇兆丰路171号,苏州市,张家港市,120.729403,31.896718,张家港兆丰新日专卖,江苏省,,
江苏省苏州吴中区甪直镇浦澄北路34号,苏州市,吴中区,120.864769,31.274999,江苏省苏州鼎级电动车有限公司(直营),江苏省,,
张家港市乐余镇乐兴南路25号,苏州市,张家港市,120.693421,31.918935,张家港市乐余小付电动车专卖店,江苏省,,
苏州市金门路80号,苏州市,姑苏区,120.602704,31.310758,苏州自行车专业市场有限公司,江苏省,,
千灯镇尚书路8号,苏州市,昆山市,121.012367,31.263298,康成投资（中国）有限公司（大润发千灯店）(直营),江苏省,,
常熟市花园浜路108号,苏州市,常熟市,120.745397,31.635405,常熟市联顺商贸有限公司-欧尚,江苏省,,
宜兴市芳桥镇龙眼村,无锡市,宜兴市,119.938959,31.405866,宜兴市芳桥镇顺达车行(直营),江苏省,,
无锡市南长街142号,无锡市,梁溪区,120.309497,31.563301,康成大润发（无锡滨湖）店-无锡拓尔泽商贸有限公司(直营),江苏省,,
江苏省泰州靖江市靖城新建路96弄100号,泰州市,靖江市,120.263674,32.017809,靖江市宝驰贸易有限公司,江苏省,,
江苏省泰州市靖江市靖城街道新建街140号,泰州市,靖江市,120.266184,32.021093,靖江新日电动车旗舰店,江苏省,,
江苏省泰州市靖江市东兴镇靖江市东兴镇政府,泰州市,靖江市,120.159429,31.980625,东兴新日电动车,江苏省,,
江苏省泰州市靖江市马桥镇正茂路,泰州市,靖江市,120.229073,32.056442,侯河新日电动车,江苏省,,
真州镇,扬州市,仪征市,119.18100848793986,32.26872100678954,仪征市新日直营店,江苏省,,
中山西路88号,镇江市,润州区,119.436711,32.201496,镇江新日旗舰店,江苏省,,
沭河路与235国道交叉口西北100米,徐州市,新沂市,118.351652,34.303408,唐店新日电动车,江苏省,,
大庆西路17号2-210,泰州市,泰兴市,120.016252,32.172669,泰兴新日旗舰店,江苏省,,
滨江镇,泰州市,泰兴市,119.96241107583046,32.22918428115781,泰兴市滨江镇新日店,江苏省,,
洪林村,泰州市,姜堰区,120.193429,32.564735,姜堰洪林新日专卖店,江苏省,,
凤凰西路与龙虬路交叉口西南50米,扬州市,高邮市,119.518135,32.826748,龙虬新日电动车,江苏省,,
姜堰镇,泰州市,姜堰区,120.15173748135568,32.4997013436425,姜堰新日旗舰店,江苏省,,
江苏省无锡市锡山区无锡锡山开发区友谊北路300-i7-3号,无锡市,锡山区,120.368023,31.620832,东北塘新日电动车,江苏省,,
惠民路与洞庭湖路交叉口东150米,扬州市,高邮市,119.460132,32.823753,东墩新日电动车,江苏省,,
高邮市,扬州市,高邮市,119.501695,32.875982,张轩新日电动车专卖店,江苏省,,
沙俞路与郭何路交叉口东北200米,扬州市,高邮市,119.74153,32.766195,沙堰新日电动车专卖店,江苏省,,
高邮街道高邮市中山路386号,扬州市,高邮市,119.434825,32.786028,三垛新日专卖店,江苏省,,
中山路中山花苑386-2号(中山路邮政局),扬州市,高邮市,119.43452,32.785538,汉留新日电动车专卖店,江苏省,,
江苏省无锡市惠山区前洲街道堰玉西路38-10号,无锡市,惠山区,120.219755,31.689081,前洲新日电动车,江苏省,,
如城街道,南通市,如皋市,120.55431962013245,32.383146232295225,如皋新日旗舰店,江苏省,,
新河街道,盐城市,盐都区,120.17875805497172,33.35673869576564,盐城开发区直营店,江苏省,,
玉山镇昆北路713号,苏州市,昆山市,120.954822,31.403193,萧林路新日电动车,江苏省,,
陆家镇南路80号,苏州市,昆山市,120.951566,31.377287,震川路新日电动车,江苏省,,
城北西路2493号附近,苏州市,昆山市,120.915306,31.426193,红杨新日电动车,江苏省,,
江苏省泰州市靖江市孤山镇团结中心小学,泰州市,靖江市,120.262108,32.081731,团结新日电动车,江苏省,,
塘桥大润发1楼入口处,苏州市,张家港市,120.62897,31.8182,新日电动车张家港塘桥店,江苏省,,
江苏省苏州市张家港市杨舍镇大润发(张家港店),苏州市,张家港市,120.53268,31.864408,新日电动车大润发张家港店,江苏省,,
中兴路与长安北路交叉口西南50米,苏州市,张家港市,120.553941,31.889738,斜桥新日电动车,江苏省,,
江苏省苏州市张家港市杨舍镇徐丰社区,苏州市,张家港市,120.607266,31.886193,东莱新日电动车,江苏省,,
阜城镇,盐城市,阜宁县,119.91704151034357,33.80714311602643,阜宁县合利分销,江苏省,,
乐余镇乐兴南路85号,苏州市,张家港市,120.700738,31.926307,乐余新日电动车,江苏省,,
开发区,盐城市,阜宁县,119.90866765379906,33.76551224701104,阜宁吴滩分销店面,江苏省,,
江苏省泰州市靖江市生祠镇新夹路21号,泰州市,靖江市,120.13171,32.051126,新丰新日电动车,江苏省,,
三兴镇育才路69号(三兴初级中学西侧100米),苏州市,张家港市,120.68307,31.97328,三兴新日电动车,江苏省,,
锦丰镇永新路146号(锦丰初级中学对面),苏州市,张家港市,120.638717,31.965347,锦丰新日电动车,江苏省,,
阜城镇,盐城市,阜宁县,119.8360723257065,33.74586905193574,阜宁施庄分销,江苏省,,
江苏省泰州市靖江市新桥镇太和地段医院分院,泰州市,靖江市,120.101408,31.977181,四墩子新日电动车,江苏省,,
健康路街道,镇江市,京口区,119.46377903223038,32.20788098944256,镇江市梦溪路新日专卖店,江苏省,,
沟墩镇,盐城市,阜宁县,119.8969879746437,33.6832365935508,阜宁沟墩分销,江苏省,,
黄泗浦西路162号,苏州市,张家港市,120.4153,31.948361,金港新日电动车（刘）,江苏省,,
陈良镇,盐城市,阜宁县,119.79975655674933,33.69558486545591,阜宁陈良分销,江苏省,,
三灶镇,盐城市,阜宁县,119.78560119867326,33.85164846142324,阜宁三灶分销,江苏省,,
新沟镇,盐城市,阜宁县,119.72913533449173,33.76240611865694,新沟新日电动车,江苏省,,
陈集镇,盐城市,阜宁县,119.65550735592845,33.75389100366401,陈集分销,江苏省,,
板湖镇,盐城市,阜宁县,119.60217699408534,33.682735528258284,板湖分销,江苏省,,
东沟镇,盐城市,阜宁县,119.67571377754211,33.67881841385034,南社分销,江苏省,,
淮海西路166-36号,淮安市,清江浦区,119.021663,33.595083,清河区盛泰电动车经营部,江苏省,,
东沟镇,盐城市,阜宁县,119.70530122518538,33.615613278678126,永兴新日分销,江苏省,,
东沟镇,盐城市,阜宁县,119.63891789317131,33.61182043324831,东沟新日,江苏省,,
东沟镇,盐城市,阜宁县,119.69355985522272,33.565761354986144,公兴分销,江苏省,,
罗桥镇,盐城市,阜宁县,119.55732375383378,33.54538397999887,罗桥分销,江苏省,,
古河镇,盐城市,阜宁县,119.5262396335602,33.601069780487116,古河分销,江苏省,,
芦蒲镇,盐城市,阜宁县,119.53638508915904,33.69343916534355,浦南分销,江苏省,,
芦蒲镇,盐城市,阜宁县,119.57078844308855,33.80652353852041,安陈分销,江苏省,,
羊寨镇,盐城市,阜宁县,119.61269661784172,33.846268811685654,羊寨,江苏省,,
江苏省苏州市虎丘区高新区浒墅关开发分区康师傅私房牛肉面(浒关店)大润发(浒关店),苏州市,虎丘区,120.508165,31.368473,新日电动车大润发浒关店,江苏省,,
仲院中心小学附近,泰州市,姜堰区,120.204109,32.378776,姜堰仲院新日店,江苏省,,
江苏省扬州市江都区仙女镇长江东路10号缘成假日酒店,扬州市,江都区,119.586094,32.425692,江都汽车店,江苏省,,
宜陵镇玉带路120号,扬州市,江都区,119.67692,32.482267,江都宜陵新日专卖店,江苏省,,
相城区,苏州市,相城区,120.448605,31.424257,望亭新日电动车,江苏省,,
王石大道,泰州市,姜堰区,120.161475,32.446603,姜堰王石店,江苏省,,
G328(宁海线),扬州市,江都区,119.805854,32.480945,江都周家楼新日专卖店,江苏省,,
高资街道,镇江市,丹徒区,119.30994898080829,32.16818837635806,镇江市高资镇新日店,江苏省,,
姜吉公路与748村道交叉口东北50米,扬州市,江都区,119.812096,32.450542,江都二姜新日专卖店,江苏省,,
诚源松陵饭店诚源饭店楼下,苏州市,吴江区,120.645989,31.149563,新日电动车大润发吴江店,江苏省,,
202县道海尔旁,扬州市,江都区,119.793818,32.531132,江都郭村新日专卖店,江苏省,,
小记镇人民南路69号(小记中学附近),扬州市,江都区,119.76094,32.626342,江都小纪镇新日专卖店,江苏省,,
繁荣路与202县道交叉口北150米,扬州市,江都区,119.783575,32.662259,江都高徐镇新日专卖店,江苏省,,
盛泽镇东方中路342号,苏州市,吴江区,120.664123,30.906781,盛泽新日电动车,江苏省,,
姜堰镇三元村,泰州市,姜堰区,120.164101,32.473679,姜堰太宇店,江苏省,,
武坚镇致富路,扬州市,江都区,119.790943,32.756998,江都武坚镇新日专卖店,江苏省,,
白米镇张沐曙光大道4号,泰州市,姜堰区,120.20904,32.482216,姜堰张沐新日店,江苏省,,
白米镇,泰州市,姜堰区,120.2564388513565,32.50411810190141,姜堰白米新日店,江苏省,,
娄庄镇,泰州市,姜堰区,120.22397741675378,32.55385583094282,姜堰娄庄店,江苏省,,
江苏省苏州市吴江区七都镇沿湖住宅小区,苏州市,吴江区,120.462247,30.992233,庙港新日电动车,江苏省,,
汇隆街8号1幢附近,苏州市,苏州工业园区,120.697578,31.346779,跨塘新日电动车,江苏省,,
110县道附近,镇江市,润州区,119.337272,32.118275,镇江市石马镇新日专卖店,江苏省,,
振兴路振兴超市旁,扬州市,江都区,119.512835,32.607212,江都昭关镇新日专卖店,江苏省,,
姜堰镇姜官路,泰州市,姜堰区,120.157176,32.531788,姜堰官庄店,江苏省,,
江苏省无锡市惠山区玉祁街道车站路汇秀苑(文浩路),无锡市,惠山区,120.186709,31.706739,玉祁新日电动车,江苏省,,
江苏省无锡市锡山区鹅湖镇青虹路38号,无锡市,锡山区,120.541409,31.5251,鹅湖新日电动车,江苏省,,
江苏省无锡市惠山区钱桥街道钱威路57号钱桥花园路小区,无锡市,惠山区,120.234102,31.602666,钱桥新日电动车,江苏省,,
甪直镇甪胜路13号,苏州市,吴中区,120.821244,31.283577,胜浦新日电动车,江苏省,,
桃源镇迎春路127号,苏州市,吴江区,120.53352,30.841984,铜锣新日电动车,江苏省,,
江苏省无锡市惠山区阳山镇福缘糕团店(陆区店)陆缘茗邸小区,无锡市,惠山区,120.099553,31.573853,阳山新日电动车,江苏省,,
江苏省无锡市锡山区东亭街道桑达园,无锡市,梁溪区,120.347047,31.595159,柏庄新日电动车,江苏省,,
桥头镇,泰州市,姜堰区,120.08176133036612,32.56349308898261,姜堰桥头新日店,江苏省,,
溱潼镇,泰州市,姜堰区,120.09438514709474,32.6449049821572,姜堰溱潼新日店,江苏省,,
龙冈镇,盐城市,盐都区,120.03948703408244,33.35761690879536,凤凰路分销,江苏省,,
秦南镇,盐城市,盐都区,119.98420670628548,33.33252161804619,鞍湖分销,江苏省,,
学富镇,盐城市,盐都区,119.91034269332886,33.35369960703352,学富分销,江苏省,,
楼王镇,盐城市,盐都区,119.8210519552231,33.275951172930235,楼王分销,江苏省,,
北龙港街道,盐城市,盐都区,119.78074371814728,33.22513643472812,北龙港分销,江苏省,,
大纵湖镇,盐城市,盐都区,119.8563162982464,33.22646695782691,义丰分销,江苏省,,
北蒋街道,盐城市,盐都区,119.9649216234684,33.24788828524182,北蒋分销,江苏省,,
兴泰镇,泰州市,姜堰区,120.08436709642409,32.68276297794821,姜堰兴泰新日店,江苏省,,
大冈镇,盐城市,盐都区,120.12748762965204,33.19303620195606,大冈分销,江苏省,,
玉山镇北门路1111号,苏州市,昆山市,120.950991,31.418764,北门路新日电动车专卖厅,江苏省,,
沈高镇,泰州市,姜堰区,120.1373863220215,32.58264584592115,姜堰沈高店,江苏省,,
伍佑街道,盐城市,亭湖区,120.23920565843585,33.2810424570924,伍佑分销,江苏省,,
新集镇,扬州市,仪征市,119.29922550916673,32.32895025120151,仪征市新集新日专卖店,江苏省,,
步凤镇,盐城市,亭湖区,120.31822621822356,33.33335525631862,步风分销,江苏省,,
步凤镇,盐城市,亭湖区,120.3089860081673,33.35428547721622,新洼分销,江苏省,,
新城街道,盐城市,亭湖区,120.21314397454263,33.38486399234441,开发区分销,江苏省,,
苏陈镇,泰州市,海陵区,120.02080947160724,32.4974583843808,姜堰苏陈新日店,江苏省,,
南洋镇,盐城市,亭湖区,120.1786641776562,33.523504777204614,才堂分销,江苏省,,
南洋镇,盐城市,亭湖区,120.16592368483545,33.484013857624085,青墩分销,江苏省,,
新兴镇,盐城市,亭湖区,120.0987397134304,33.45805661349106,兴新,江苏省,,
新洋街道,盐城市,亭湖区,120.12035697698596,33.40485931679821,北闸分销,江苏省,,
新集镇仪征市新集镇张集街道,扬州市,仪征市,119.288895,32.383938,仪征市张集新日专卖,江苏省,,
刘集镇,扬州市,仪征市,119.25786584615707,32.4297745887357,仪征市刘集镇新日专卖店,江苏省,,
通惠西路62号,无锡市,梁溪区,120.277704,31.589359,吴桥新日电动车,江苏省,,
张家港218路,苏州市,张家港市,120.426439,31.946177,新日电动车大润发金港店,江苏省,,
浏河镇复兴东街98号,苏州市,太仓市,121.269023,31.504949,浏河新日电动车,江苏省,,
浮桥镇牌楼街牌楼小学对面,苏州市,太仓市,121.190979,31.556224,牌楼新日电动车,江苏省,,
沙直线南50米,苏州市,太仓市,121.08065,31.568556,沙溪新日电动车,江苏省,,
碧波苑,苏州市,昆山市,120.877693,31.444163,巴城新日电动车,江苏省,,
千灯镇石浦镇卫丰路467号,苏州市,昆山市,121.048672,31.251535,千灯石浦新日电动车,江苏省,,
周市镇万安路552号,苏州市,昆山市,120.988231,31.470357,周市新日电动车,江苏省,,
周市镇新镇农贸市场桥头,苏州市,昆山市,121.00529,31.404883,新镇新日电动车,江苏省,,
昆山市,苏州市,昆山市,120.896053,31.1748,锦溪新日电动车,江苏省,,
张浦镇商秧路999号,苏州市,昆山市,120.944048,31.280388,张浦新日电动车,江苏省,,
江苏省泰州市靖江市靖城街道云盛制衣厂,泰州市,靖江市,120.304592,32.017374,柏木新日电动车,江苏省,,
栈泾路与蓬溪中路交叉口附近,苏州市,昆山市,121.089176,31.379338,蓬朗新日电动车,江苏省,,
大路镇,镇江市,京口区,119.744172,32.213773,镇江市大路镇新日专卖,江苏省,,
前进东路205号世茂广场D1座1层,苏州市,昆山市,121.053501,31.382974,新日电动车大润发前进路店,江苏省,,
江苏省泰州市靖江市季市镇季长路,泰州市,靖江市,120.354445,32.109715,长安新日电动车,江苏省,,
兴港西路与赵声路交叉口西南150米,镇江市,京口区,119.669748,32.185653,镇江市大港镇新日专卖店,江苏省,,
五烈镇,盐城市,东台市,120.2336360514164,32.89027152306633,廉贻分销,江苏省,,
时堰镇,盐城市,东台市,120.19508868455887,32.71493620654068,时堰分销,江苏省,,
溱东镇,盐城市,东台市,120.15379339456561,32.65896529856462,溱东分销,江苏省,,
时堰镇,盐城市,东台市,120.25548130273822,32.7104158618467,后港分销,江苏省,,
查桥镇山韵路山韵街877号,无锡市,锡山区,120.427133,31.596721,查桥新日电动车,江苏省,,
南沈灶镇,盐城市,东台市,120.51866367459299,32.77195117567333,南沈灶,江苏省,,
唐洋镇,盐城市,东台市,120.64333677291869,32.65551704462239,唐洋分销,江苏省,,
三仓镇,盐城市,东台市,120.68357124924661,32.77020669458809,三仓分销,江苏省,,
富安镇,盐城市,东台市,120.47480285167694,32.6752021442955,富安分销,江苏省,,
庆丰镇,盐城市,建湖县,119.95538637042047,33.42458700487,庆丰分销,江苏省,,
中央城2号楼2135、2136两间门面,淮安市,涟水县,119.27096,33.771042,涟水新日,江苏省,,
沿河镇,盐城市,建湖县,119.78820562362671,33.3640766550016,沿河分销,江苏省,,
近湖镇,盐城市,建湖县,119.84305143356325,33.546215575574884,钟庄分销,江苏省,,
205国道附近,淮安市,淮阴区,118.952723,33.764693,吴里新日车行,江苏省,,
淮阴205路,淮安市,淮阴区,118.924034,33.832386,徐留新日,江苏省,,
汇龙镇,南通市,启东市,121.65930256247519,31.81037708247918,启东新日店,江苏省,,
江海路113号,南通市,海门市,121.165318,31.893232,海门新日店,江苏省,,
上冈镇,盐城市,建湖县,119.93993416428569,33.612852425387764,建湖草堰分销,江苏省,,
五汛镇,盐城市,滨海县,120.0966073572636,33.95380853294263,滨海五汛分销,江苏省,,
正红镇,盐城市,滨海县,119.89770680665971,33.8805145734137,獐沟分销,江苏省,,
太平南路24号,苏州市,太仓市,121.118975,31.446217,大润发太仓店,江苏省,,
千灯镇景塘北路708号,苏州市,昆山市,121.010647,31.260999,大润发千灯店,江苏省,,
南河镇,盐城市,响水县,119.76677075028421,34.23262192713379,响水南河分销,江苏省,,
运河镇,盐城市,响水县,119.80757251381876,34.11160913189243,响水六套分销,江苏省,,
运河镇,盐城市,响水县,119.72536817193034,34.07787401965631,响水运河分销,江苏省,,
大有镇,盐城市,响水县,119.85265374183658,34.16591619708769,响水七套分销,江苏省,,
天补镇振兴西路50号,南通市,海门市,121.11657,31.926527,海门天补新日店,江苏省,,
神州路海润尊品1-104门店(汉庭酒店对面),盐城市,盐都区,120.138516,33.334106,潘黄分销,江苏省,,
兴桥镇,盐城市,射阳县,120.23117378354075,33.670289423866016,射阳兴桥分销,江苏省,,
高良涧镇东风桥东,淮安市,洪泽区,118.854513,33.289472,洪泽新日电动车专卖店,江苏省,,
界首镇甓湖路71号,扬州市,高邮市,119.420173,33.004762,界首新日电动车,江苏省,,
菱塘回族乡人民政府东100米,扬州市,高邮市,119.232619,32.692126,菱塘新日,江苏省,,
023县道北100米,扬州市,高邮市,119.584221,32.683854,八桥新日,江苏省,,
经三路与纬五路交叉口西南200米,扬州市,高邮市,119.481466,32.785573,建民花苑,江苏省,,
海安镇,南通市,海安市,120.45189544558528,32.54163313287437,海安新日店,江苏省,,
车逻镇讯达路22号,扬州市,高邮市,119.45458,32.715824,车逻新日电动车,江苏省,,
251省道北100米,徐州市,邳州市,117.801002,34.284043,邳州碾庄新日电动车,江苏省,,
新河镇,徐州市,邳州市,117.994614,34.184191,新日电动车,江苏省,,
新集街2号,徐州市,邳州市,117.957522,34.241571,新日电动车,江苏省,,
南京路,徐州市,沛县,116.905304,34.804496,大屯新日电动车,江苏省,,
幸福路145号,泰州市,兴化市,120.090688,32.848318,兴化狄垛镇新日电动车专卖店,江苏省,,
龙飞大街147号附近,徐州市,沛县,116.808736,34.908113,沛县龙固镇新日电动车,江苏省,,
人民西路,泰州市,兴化市,120.204565,32.935767,兴化戴窑新日电动车专卖店,江苏省,,
14路;83路/83W路;90路/90W路;803路;803路南线;夜14路;宣武-房村;房新线,徐州市,云龙区,117.27552,34.177574,惠民小区新日电动车,江苏省,,
人民西路路北,泰州市,兴化市,120.133762,32.724185,兴化戴南新日电动车,江苏省,,
合陈镇合塔乡,泰州市,兴化市,120.270574,33.010778,兴化合塔新日电动车,江苏省,,
昌荣镇府前路,泰州市,兴化市,120.086803,32.942158,兴化唐子新日电动车,江苏省,,
世纪西路与贾韩中路交叉口西150米,徐州市,贾汪区,117.447099,34.434209,贾汪新日电动车,江苏省,,
圭山路2-4号附近,徐州市,铜山区,117.176744,34.186784,铜山新区新日电动车,江苏省,,
振兴路三堡学苑(西北门)附近,徐州市,铜山区,117.175977,34.127082,三堡镇新日电动车,江苏省,,
世纪大道北100米,泰州市,兴化市,119.899888,32.709761,兴化周庄新日电动车,江苏省,,
陈堡镇附近,泰州市,兴化市,119.898488,32.755518,兴化陈堡新日电动车,江苏省,,
文明路2,泰州市,兴化市,120.185095,33.083093,新垛新日电动车,江苏省,,
柳洲东路9-102号,南京市,浦口区,118.734322,32.143663,天润城新日电动车,江苏省,,
青年北路188号,泰州市,海陵区,119.91297,32.495348,泰州青年北路新日电动车,江苏省,,
戴窑镇,泰州市,兴化市,120.146265,32.971337,林潭新日电动车,江苏省,,
张郭镇,泰州市,兴化市,120.111838,32.804181,唐刘新日电动车,江苏省,,
康泰路与朝阳路交叉口西100米,泰州市,兴化市,120.1728,32.748982,张郭新日电动车,江苏省,,
上元大街369号,南京市,江宁区,118.840015,31.952612,上元大街店,江苏省,,
旭东路朱洼7-1号,南京市,六合区,118.749948,32.219223,旭东路车辆城,江苏省,,
窑湾镇王楼街,徐州市,新沂市,118.089981,34.25296,王楼新日电动车,江苏省,,
时集镇,徐州市,新沂市,118.488111,34.203479,时集新日电动车,江苏省,,
邵店镇邵店街百盛购物广场,徐州市,新沂市,118.44457,34.128554,邵店新日电动车,江苏省,,
墨冲路与徐海西路交叉口东北100米,徐州市,新沂市,118.30916,34.37821,墨河新日电动车,江苏省,,
张湾乡,连云港市,东海县,119.05124455690385,34.50044600996987,张湾新日电动车,江苏省,,
瓜洲镇锦春路,扬州市,邗江区,119.380176,32.25019,扬州瓜洲新日专卖店,江苏省,,
107路;107路区间;313路,扬州市,仪征市,119.31498,32.498638,扬州公路集新日专卖店,江苏省,,
墩尚镇,连云港市,赣榆区,119.04931336641313,34.70649668630783,赣榆墩尚新日,江苏省,,
沙河镇,连云港市,赣榆区,118.94544884562497,34.72361224491245,赣榆沙河新日,江苏省,,
墩尚镇,连云港市,赣榆区,119.11350533366206,34.71429426239478,赣榆罗阳IM新日,江苏省,,
赣马镇城里村,连云港市,赣榆区,119.095712,34.890462,赣榆赣马新日,江苏省,,
大有镇,盐城市,响水县,119.92192849516869,34.19553087968664,响水大有分销,江苏省,,
韩山镇,宿迁市,沭阳县,118.98289918899538,34.22766778759626,沭阳韩山新日,江苏省,,
千秋镇,盐城市,射阳县,120.19269347190856,33.94366701447154,射阳鲍墩分销,江苏省,,
苏州东路38号,宿迁市,沭阳县,118.7991,34.112381,沭阳沭城,江苏省,,
盘湾镇,盐城市,射阳县,120.19918844103816,33.53804681421766,射阳盘湾分销,江苏省,,
临海镇,盐城市,射阳县,120.24431660771369,33.981515770098525,射阳县八大家分销,江苏省,,
临海镇,盐城市,射阳县,120.25266498327255,34.07798510015517,射阳县六垛分销,江苏省,,
桑墟镇,宿迁市,沭阳县,118.81534561514854,34.30910572929626,沭阳桑墟新日,江苏省,,
塘沟镇,宿迁市,沭阳县,118.96958872675896,33.9836320089779,沭阳塘沟新日,江苏省,,
石梁河镇,临沂市,临沭县,118.7343952059746,34.743478208297574,东海南辰新日电动车,山东省,,
三条桥路北侧,南通市,海门市,121.383029,31.932365,海门六匡店,江苏省,,
房山镇,连云港市,东海县,118.85792702436449,34.45734071684927,东海房山新日电动车,江苏省,,
海门市经济技术开发区,南通市,海门市,121.20601460337642,31.878262580906355,海门民生店,江苏省,,
黄川镇,连云港市,东海县,118.94803315401079,34.691563153182734,东东海潢川新日电动车,江苏省,,
北远路与富英中路交叉口东100米,南通市,启东市,121.497072,31.827733,启东北新,江苏省,,
滨江路2号启东市惠丰小学附近,南通市,启东市,121.619754,31.771424,启东惠丰新日店,江苏省,,
永和街56号,南通市,启东市,121.726696,31.84024,启东永和店,江苏省,,
001县道与424乡道交叉口西北50米,南通市,海安市,120.325616,32.499153,海安曲塘店,江苏省,,
沭城街道,宿迁市,沭阳县,118.79624024033546,34.1005491926929,沭阳临安小区新日电动车,江苏省,,
144乡道与145乡道交叉口东50米,南通市,海安市,120.692629,32.565357,海安李堡店,江苏省,,
华冲镇,宿迁市,沭阳县,118.87227684259418,34.27216808005653,沭阳华冲新日电动车蒋闯1876112,江苏省,,
雅周镇通雅中路10号,南通市,海安市,120.331603,32.394373,海安雅周店,江苏省,,
安峰镇,连云港市,东海县,118.76022353768352,34.38182217500137,东海安峰新日电动车,江苏省,,
平明镇,连云港市,东海县,118.96530658006671,34.46758426225902,东海平明新日,江苏省,,
白甸镇文化路,南通市,海安市,120.261933,32.663674,海安白甸店,江苏省,,
江安镇迎春路73号,南通市,如皋市,120.412307,32.171341,如皋江安店,江苏省,,
磨头大桥磨头镇委员会东200米,南通市,如皋市,120.564765,32.28279,如皋磨头店,江苏省,,
人民路搬经镇卫生院东100米,南通市,如皋市,120.404758,32.302301,如皋搬经店,江苏省,,
136乡道附近,南通市,如皋市,120.689209,32.454439,如皋雪岸店,江苏省,,
江苏省泰州市靖江市西来镇友谊路,泰州市,靖江市,120.427169,32.078369,西来新日电动车,江苏省,,
江苏省泰州市靖江市斜桥镇靖江农村商业银行(新港园区支行),泰州市,靖江市,120.390912,32.062186,斜桥新日电动车,江苏省,,
江苏省泰州市靖江市西来镇336省道,泰州市,靖江市,120.411372,32.090497,土桥新日电动车,江苏省,,
江苏省泰州市靖江市城南街道车站路77号泰和国际城,泰州市,靖江市,120.260743,32.005554,靖江大润发,江苏省,,
江苏省泰州市靖江市孤山镇清河路15号,泰州市,靖江市,120.305004,32.062653,孤山新日电动车,江苏省,,
江苏省泰州市靖江市生祠镇生祠大道36号,泰州市,靖江市,120.176144,32.032997,生祠新日电动车,江苏省,,
江苏省泰州市靖江市马桥镇四圩港路,泰州市,靖江市,120.190727,32.044205,铁桥新日电动车,江苏省,,
江苏省泰州市靖江市马桥镇靖江市马桥镇中心小学,泰州市,靖江市,120.225612,32.028678,马桥新日电动车,江苏省,,
江苏省泰州市靖江市城南街道公所桥路52号,泰州市,靖江市,120.243687,31.977784,公所桥新日电动车,江苏省,,
滨江新城靖城镇越江乡木金寺桥东50米(路北),泰州市,靖江市,120.29823,31.994937,木金市新日电动车,江苏省,,
江苏省泰州市靖江市滨江新城晨阳路1号南环花苑西区,泰州市,靖江市,120.28044,31.996472,南环新日电动车,江苏省,,
江苏省泰州市靖江市新桥镇飞跃路96号,泰州市,靖江市,120.069413,32.000548,新桥新日电动车,江苏省,,
江苏省泰州市靖江市季市镇靖江农村商业银行(季市支行),泰州市,靖江市,120.307322,32.130624,季市新日电动车,江苏省,,
梁徐镇粱徐镇,泰州市,姜堰区,120.122429,32.442591,姜堰江村店,江苏省,,
府前路与梁徐大道交叉口东100米,泰州市,姜堰区,120.12043,32.468842,姜堰梁徐店,江苏省,,
大伦镇伦中路电动工具专营部对面,泰州市,姜堰区,120.24803,32.436659,姜堰大伦店,江苏省,,
运粮太平村4组,泰州市,姜堰区,120.209075,32.427105,姜堰运粮店,江苏省,,
顾高镇团结街,泰州市,姜堰区,120.163537,32.364048,姜堰顾高店,江苏省,,
张甸镇葛庄村,泰州市,姜堰区,120.026353,32.451275,姜堰蔡官店,江苏省,,
俞垛镇和安达路附近,泰州市,姜堰区,120.020383,32.637038,姜堰俞垛店,江苏省,,
高明镇,南通市,如皋市,120.412233,32.210532,如皋高明店,江苏省,,
龙虬镇,扬州市,高邮市,119.506584,32.878906,张轩新日电动车,江苏省,,
陇集镇,宿迁市,沭阳县,118.66213515400887,34.04017933112053,陇集新日电动车,江苏省,,
临河镇,宿迁市,泗阳县,118.5441514849663,33.72735013082774,临河新日电动专卖,江苏省,,
府前路,泰州市,高港区,119.981278,32.364233,大泗镇新日电动车,江苏省,,
裴圩镇,宿迁市,泗阳县,118.7098114192486,33.50222615843201,裴圩新日电动车专卖,江苏省,,
港城路8号,泰州市,高港区,119.881726,32.318824,高港新日电动车,江苏省,,
医药高新技术开发区,泰州市,海陵区,119.898882,32.411493,寺巷新日电动车,江苏省,,
八集乡,宿迁市,泗阳县,118.7888279557228,33.76359350692949,八集新日电动专卖,江苏省,,
鲍徐镇鲍九路13号,泰州市,海陵区,119.890067,32.447115,鲍徐镇新日电动车,江苏省,,
万康路与春光路交叉口西50米,扬州市,宝应县,119.25498,33.26807,长沟新日电动车,江苏省,,
临河镇,宿迁市,泗阳县,118.55815261602403,33.70929800433807,陈圩新日电动专卖,江苏省,,
众兴镇,宿迁市,泗阳县,118.68659958243371,33.74997713431335,桃果园新日电动专卖,江苏省,,
高渡镇,宿迁市,泗阳县,118.661759,33.500331,泗阳高渡新日电动专卖,江苏省,,
324省道晓邱车行对面,连云港市,灌云县,119.151721,34.250723,南岗新日电动专卖,江苏省,,
同兴镇伊芦公路街1号,连云港市,灌云县,119.337246,34.433754,伊卢,江苏省,,
育才路东150米,连云港市,灌云县,119.552557,34.334328,图河新日电动专卖,江苏省,,
小伊步行街,连云港市,灌云县,119.21602,34.388815,小伊新日电动专卖,江苏省,,
北京东路28号,宿迁市,泗阳县,118.743737,33.720048,泗阳K4 路小区,江苏省,,
健康路与泗水大道交叉口西北150米,宿迁市,泗阳县,118.739673,33.734265,葛集新日电动专卖,江苏省,,
东大街与金樽路交叉口西150米,宿迁市,宿城区,118.400488,33.775767,屠元新日专卖,江苏省,,
古溪镇东方寺路63号,泰州市,泰兴市,120.333015,32.346917,泰兴市古溪镇新日电动车,江苏省,,
欣欣路与泗沭路交叉口西北100米,宿迁市,泗阳县,118.731246,33.94235,爱园新日电动专卖,江苏省,,
青口镇,连云港市,赣榆区,119.08835694193843,34.82639080277939,赣榆竹园新日电动专卖,江苏省,,
325省道,宿迁市,泗阳县,118.59603,33.710663,大兴新日电动专卖,江苏省,,
众兴镇,宿迁市,泗阳县,118.62182021141052,33.77469729949847,史集新日电动专卖,江苏省,,
黄桥镇,泰州市,泰兴市,120.23792758584023,32.24457092003772,泰兴市黄桥镇新日专卖店,江苏省,,
月塘镇,扬州市,仪征市,119.13688749074939,32.42427649918445,仪征市月塘镇新日专卖店,江苏省,,
兴月路与204县道交叉口东100米,扬州市,仪征市,119.086129,32.40197,仪征市上移居镇新日电动车,江苏省,,
天宁街道,常州市,钟楼区,119.95803102850917,31.784334303336646,常州市新日旗舰店,江苏省,,
洛阳镇,常州市,武进区,120.07766023278238,31.64608058334546,常州市武进区洛阳新日专卖店,江苏省,,
前黄镇西新街68号,常州市,武进区,119.959121,31.589665,常州前黄镇新日专卖店,江苏省,,
湖塘镇花园街33号,常州市,武进区,119.95035,31.705011,常州市湖塘镇新日专卖店,江苏省,,
龙虎塘街道,常州市,新北区,119.9608325958252,31.850522237188436,常州新北区新桥新日专卖,江苏省,,
五峰山路199号,镇江市,京口区,119.70334,32.136553,镇江市平昌新城新日专卖店,江苏省,,
珊瑚镇,泰州市,泰兴市,120.321494,32.170965,泰兴市珊瑚镇新日专卖店,江苏省,,
姚王镇,泰州市,泰兴市,120.07475674152377,32.21620389099788,泰兴市姚王镇新日专卖店,江苏省,,
姜八南路,泰州市,泰兴市,120.178355,32.324595,泰兴市元竹镇新日专卖店,江苏省,,
根思乡老叶双野村三组1号,泰州市,泰兴市,120.078618,32.26112,泰兴市老叶镇新日专卖,江苏省,,
河曲线与307县道交叉口西南50米,泰州市,泰兴市,120.179832,32.157788,泰兴市常周镇新日专卖,江苏省,,
江宁东山天印大道716号新日电动车,南京市,江宁区,118.858081,31.959378,天印大道店,江苏省,,
宿城街道,连云港市,连云区,119.43388849496843,34.71337155633661,连云港云台农场王,江苏省,,
金山镇金山后石堰村,连云港市,赣榆区,119.064661,35.021116,金山新日电动专卖,江苏省,,
宋庄镇日照路3号,连云港市,赣榆区,119.146725,34.7838,赣榆宋庄新日电动专卖,江苏省,,
板浦镇政府对面,连云港市,海州区,119.247126,34.485324,板浦新日电动专卖,江苏省,,
东方中路28号,连云港市,连云区,119.382757,34.544186,东辛农场新日电动专卖,江苏省,,
中华西路45号,连云港市,连云区,119.364898,34.740262,徐沟新日电动专卖,江苏省,,
板浦镇中正社区,连云港市,海州区,119.278929,34.50172,中正新日电动专卖,江苏省,,
浦溪花园,镇江市,句容市,119.209707,31.748165,镇江天王镇新日专卖店,江苏省,,
204国道东50米,连云港市,海州区,119.244784,34.525191,宁海新日电动专卖,江苏省,,
幸福路街道,连云港市,海州区,119.13922235369681,34.57635420699848,海州新日电动专卖,江苏省,,
南北大道与新扬菱路交叉口东北50米,扬州市,高邮市,119.255204,32.663573,送桥新日电动车,江苏省,,
临泽镇川青中街附近,扬州市,高邮市,119.655751,33.014861,川青新日电动车,江苏省,,
兴华南路与府南路交叉口西100米,扬州市,高邮市,119.252739,32.621769,天山新日电动车,江苏省,,
二沟乡,扬州市,高邮市,119.584951,32.807071,二沟新日电动车,江苏省,,
卸甲镇伯勤集镇希望路89号,扬州市,高邮市,119.59138,32.719296,伯勤新日电动车1,江苏省,,
陈渡路19号附近,常州市,钟楼区,119.91705,31.774886,临泽新日电动车1,江苏省,,
郭集路53,扬州市,高邮市,119.332869,32.697868,郭集新日电动车1,江苏省,,
清河经济开发区,淮安市,清江浦区,119.085043,33.591376,大湖城邦新日电动车,江苏省,,
盱城镇四季华庭,淮安市,盱眙县,118.523435,33.004561,武墩新日电动车,江苏省,,
5路;淮阴202路;淮阴203路;淮阴212路,淮安市,淮阴区,118.931511,33.538128,码头新日电动车,江苏省,,
解放西路33号,淮安市,清江浦区,119.0273,33.578529,城南大包车行,江苏省,,
渔沟镇,淮安市,淮阴区,118.8985,33.701546,渔沟新日电动车,江苏省,,
39路;淮阴208路,淮安市,淮阴区,118.980904,33.708981,丁集新日电动车,江苏省,,
淮阴区,淮安市,淮阴区,118.994994,33.626576,盐河镇新日电动车1,江苏省,,
黄码乡三乐村,淮安市,清江浦区,119.090444,33.502434,黄码新日车行,江苏省,,
淮海东路27号,淮安市,清江浦区,119.037572,33.597392,和平新日车行,江苏省,,
圣诞路16,扬州市,宝应县,119.43942,33.177672,小管庄新日车行,江苏省,,
文化路南50米,扬州市,宝应县,119.399507,33.090442,范水新日电动车车行,江苏省,,
安宜镇北田路名仕华庭西门(希尔顿旁),扬州市,宝应县,119.332681,33.241157,宝应北田雅苑电动车行,江苏省,,
牌楼路与175乡道交叉口东南150米,扬州市,宝应县,119.505106,33.255399,望直港新日电动车,江苏省,,
交通路与科普巷交叉口东北100米,扬州市,宝应县,119.515451,33.365585,宝应安丰新日电动车,江苏省,,
老沿广线与009乡道交叉口北50米,扬州市,宝应县,119.39991,33.163308,贾桥新日电动车,江苏省,,
南园中路1174号附近,扬州市,宝应县,119.339768,33.227492,小颖电动车,江苏省,,
203县道西50米,淮安市,盱眙县,118.629336,33.05669,三兵车行,江苏省,,
维西路51号,淮安市,盱眙县,118.625893,33.016154,维桥新日电动车,江苏省,,
盱眙3路,淮安市,盱眙县,118.547691,33.010345,十里营新日车行,江苏省,,
振兴路与202县道交叉口西150米,淮安市,金湖县,119.191173,33.037116,银集新日电动车,江苏省,,
盱城镇四季华庭,淮安市,盱眙县,118.523435,33.004561,塔集新日,江苏省,,
淮河镇大桥街道,淮安市,盱眙县,118.491833,33.041204,淮河新日电动车1,江苏省,,
204县道东100米,淮安市,盱眙县,118.57606,33.085834,官滩新日车行1,江苏省,,
明祖陵镇,淮安市,盱眙县,118.448936,33.111756,明祖陵新日车行,江苏省,,
铁佛街道,淮安市,盱眙县,118.299692,33.04493,铁佛新日车行1,江苏省,,
旧铺镇平原路1号,淮安市,盱眙县,118.682629,32.813076,旧铺新日车行1,江苏省,,
振兴路117号,淮安市,洪泽区,119.035506,33.266219,岔河镇新日车行1,江苏省,,
义兴镇人兴路1号,淮安市,涟水县,119.35824,34.000309,义兴新日车行,江苏省,,
15路专线,扬州市,邗江区,119.437035,32.476837,扬州槐泗镇新日专卖店,江苏省,,
12路;30路,扬州市,广陵区,119.458336,32.41946,扬州竹西路新日专卖店,江苏省,,
陆集镇府前路107号,宿迁市,宿豫区,118.388046,33.882267,陆集新日,江苏省,,
海通镇,盐城市,射阳县,120.34092441201211,33.80485087971981,射阳县海通分销,江苏省,,
千秋镇,盐城市,射阳县,120.2339029312134,33.87266594376652,射阳千秋分销,江苏省,,
四明镇,盐城市,射阳县,120.06412848830222,33.887732359487856,射阳四明分销,江苏省,,
江苏省连云港市海州区青年路,连云港市,海州区,119.181769,34.598427,连云港动伦商贸有限公司,江苏省,,
南京市江宁区秦淮路11号,南京市,江宁区,118.818731,31.952317,南京拓睿机电科技有限公司(直营),江苏省,,
陈集镇,扬州市,仪征市,119.19619783759116,32.478924401412726,陈集镇新日专卖店,江苏省,,
辛丰路附近,镇江市,丹徒区,119.570604,32.119008,镇江辛丰镇骏驰车业新日专卖店,江苏省,,
大巷公园西侧150米,扬州市,仪征市,119.25289,32.570371,大巷镇新日专卖店,江苏省,,
大仪镇,扬州市,仪征市,119.24203947186471,32.53750652261518,仪征大仪镇新日电动车,江苏省,,
东台镇,盐城市,东台市,120.33112227916719,32.85014702526274,东台专卖店,江苏省,,
谷阳大道199号,镇江市,丹徒区,119.421343,32.124128,丹徒区小马车行,江苏省,,
隆塔公路北150米,扬州市,仪征市,119.32411,32.299335,仪征市朴集镇新日电动车,江苏省,,
中兴路71号附近,扬州市,仪征市,119.139528,32.420479,仪征市月塘镇谢集新日电动车,江苏省,,
301县道附近,徐州市,新沂市,118.141034,34.410106,新沂合沟镇新日电动车,江苏省,,
新安镇黄墩村九组,徐州市,新沂市,118.355952,34.398361,新沂黄墩镇新日电动车,江苏省,,
双塘镇高塘镇,徐州市,新沂市,118.530311,34.36825,新沂双塘镇新日电动车,江苏省,,
大庙镇文化西路,徐州市,鼓楼区,117.364734,34.263932,徐州大庙新日电动车,江苏省,,
323省道快捷宾馆附近,徐州市,铜山区,117.556259,34.29552,徐州大许镇新日电动车,江苏省,,
206国道大吴镇,徐州市,贾汪区,117.396226,34.3384,徐州大吴镇新日电动车,江苏省,,
华润路,徐州市,铜山区,117.193164,34.338152,徐州新台子新日电动车,江苏省,,
何桥镇,徐州市,铜山区,116.909893,34.451636,徐州何桥新日电动车,江苏省,,
旭东路488号,南京市,六合区,118.759605,32.223939,南京振吉旭东路车辆城,江苏省,,
江苏省如皋市城南街道马塘村,南通市,如皋市,120.638653,32.296857,如皋市亚兵摩托车商行,江苏省,,
桂五镇新桂路58号,淮安市,盱眙县,118.51759,32.871309,桂五新日电动车专卖店,江苏省,,
仇集镇清平路27号,淮安市,盱眙县,118.323196,32.830457,仇集新日电动车专卖,江苏省,,
穆店乡街道,淮安市,盱眙县,118.605221,32.918347,穆店新日电动车,江苏省,,
王兴镇,淮安市,淮阴区,119.11102,33.698128,王兴镇新日电动车车行,江苏省,,
机场路附近,扬州市,宝应县,119.33518,33.155932,刘堡新日电动车专卖店,江苏省,,
山阳镇,扬州市,宝应县,119.21482,33.268791,山阳新日电动车专卖店,江苏省,,
西湖镇司徒庙路112号,扬州市,邗江区,119.40033,32.425698,扬州西湖新日专卖店,江苏省,,
富福路与车桥东街交叉口东100米,淮安市,淮安区,119.387722,33.457895,车桥新日电动车,江苏省,,
苏中中路368号,扬州市,宝应县,119.318671,33.239368,顺河新日电动车,江苏省,,
淮阴206路,淮安市,淮阴区,118.862671,33.641212,三树新日电动车,江苏省,,
古寨乡,淮安市,淮阴区,118.994881,33.877749,古寨新日电动车,江苏省,,
南洋镇,盐城市,亭湖区,120.2377586066723,33.43488732381598,盐城南洋分销,江苏省,,
亭湖新区,盐城市,亭湖区,120.18087968230249,33.40369609072549,新民商业街分销,江苏省,,
张甸镇,泰州市,姜堰区,120.09862437844276,32.403702951561904,姜堰梅垛,江苏省,,
江苏省盐城市阜宁县阜城大街新日电动车专卖店,盐城市,阜宁县,119.787651,33.782633,阜宁县阜城二桃电动车门市,江苏省,,
海河镇,盐城市,射阳县,120.03547444939612,33.71719620702022,射阳海河分销,江苏省,,
盐城市大庆西路156号新日电动车专卖店,盐城市,盐都区,120.132808,33.36927,盐城市城南新区猎鹰电动车经营部,江苏省,,
东环路218号,苏州市,姑苏区,120.648961,31.31841,大润发东环店,江苏省,,
江安镇,南通市,如皋市,120.4489986598492,32.132480666736505,如皋葛市店,江苏省,,
江苏省泰州市兴化市建设东路104号,泰州市,兴化市,119.834142,32.91874,兴化市松柏电动车行-康成大润发,江苏省,,
金港镇德积德申路284号,苏州市,张家港市,120.497604,31.991682,德积新日电动车,江苏省,,
江苏省苏州市张家港市金港镇文星南路,苏州市,张家港市,120.45689,31.912113,后塍新日电动车,江苏省,,
亭湖新区,盐城市,亭湖区,120.18099769949912,33.403786775897274,盐城市新民商业街加盟直营店,江苏省,,
新丰镇,盐城市,大丰区,120.41073292493822,33.3607902756347,大丰方强新日,江苏省,,
口岸第二中心小学,泰州市,高港区,119.91039,32.29848,泰州市田河镇,江苏省,,
城东街道孙金村9组369号,泰州市,海陵区,119.914198,32.536827,泰州朱庄新日电动车专卖店,江苏省,,
海门工业园区,南通市,海门市,121.19514495134355,31.959376330062646,海门瑞祥,江苏省,,
张甸镇葛庄村,泰州市,姜堰区,120.026655,32.451195,姜堰蔡官店,江苏省,,
姜官东路与629乡道交叉口东150米,泰州市,姜堰区,120.15186,32.543461,姜堰官庄店,江苏省,,
三条桥路3条桥路2102号附近,南通市,海门市,121.384187,31.931959,海门三条桥店,江苏省,,
悦来镇人民中路170号,南通市,海门市,121.43033,31.935913,海门悦来店,江苏省,,
青湖镇,连云港市,东海县,118.8357250392437,34.66965193985768,东海青湖(新开待装),江苏省,,
南洋镇,盐城市,亭湖区,120.23819848895074,33.43493320971252,南洋分销,江苏省,,
大港街道,镇江市,京口区,119.68212157487872,32.160295915014345,大港君豪菜场新日专卖,江苏省,,
盐龙街道,盐城市,盐都区,120.09139716625214,33.31861302448592,盐城高新区,江苏省,,
阜城镇,盐城市,阜宁县,119.78897675871852,33.76607191789618,阜宁城南开发区,江苏省,,
枫津南路,苏州市,吴中区,120.638463,31.234513,红庄新日电动车,江苏省,,
太仓109路;太仓202路;太仓208路;太仓309路,苏州市,太仓市,121.202881,31.527201,新塘新日电动车,江苏省,,
顺昌路与254省道交叉口东100米,徐州市,丰县,116.558554,34.840951,顺河镇新日电动车,江苏省,,
丰县,徐州市,丰县,116.673574,34.671101,史店新日电动车,江苏省,,
丰县,徐州市,丰县,116.517671,34.601792,刘王楼新日电动车,江苏省,,
宜城街道,镇江市,丹徒区,119.446689337492,32.12383095712393,丹徒新日电动车,江苏省,,
梁寨镇粱寨镇,徐州市,丰县,116.753547,34.501672,新日电动车,江苏省,,
宋楼镇254省道,徐州市,丰县,116.60609,34.565361,宋楼镇新日电动车,江苏省,,
司徒镇,镇江市,丹阳市,119.49295476078987,31.975517230564964,小施车业,江苏省,,
吕城镇吕蒙南路31号,镇江市,丹阳市,119.74046,31.894168,吕城镇华子车业,江苏省,,
天王镇,镇江市,句容市,119.20970678329466,31.748163390205317,天王镇新日电动车,江苏省,,
徐杨老街38号1-102,淮安市,清江浦区,119.154865,33.576028,徐扬新日电动车,江苏省,,
支十一路与水渡口大道交叉口东100米,淮安市,清江浦区,119.05949,33.600209,钵池新日电动车,江苏省,,
朱桥镇,淮安市,淮安区,119.266157,33.507103,朱桥新日电动车,江苏省,,
腾飞路65号,淮安市,涟水县,119.499763,33.833904,黄营新日电动车,江苏省,,
102县道与203县道交叉口东100米,淮安市,涟水县,119.176316,33.814142,陈师镇,江苏省,,
苏州市浒关木材市场内公交站旁（长旺路5号）,苏州市,虎丘区,120.513878,31.402265,苏州诚易禾贸易有限公司,江苏省,,
亭湖新区,盐城市,亭湖区,120.20372271537782,33.391907332171726,黄山路,江苏省,,
亭湖新区,盐城市,亭湖区,120.20231857895851,33.39042928591216,开发区社区分销商,江苏省,,
虹桥路,南通市,崇川区,120.870962,31.997303,南通城南,江苏省,,
唐闸镇街道,南通市,港闸区,120.81547558307648,32.06390672398063,南通唐闸,江苏省,,
小海街道,南通市,崇川区,120.9624566137791,31.96054259299557,南通小海,江苏省,,
城头镇,连云港市,赣榆区,119.0139873325825,34.86956315675683,城头新日,江苏省,,
青沙线北50米,连云港市,赣榆区,119.02017,34.786987,殷庄新日(新开待装修),江苏省,,
班庄镇,连云港市,赣榆区,118.85779023170473,34.84598879138854,赣榆班庄新日(新开待装),江苏省,,
丁伙镇锦西北路38号,扬州市,江都区,119.628602,32.486609,江都锦西新日专卖店,江苏省,,
丁伙镇人民中路99号,扬州市,江都区,119.61351,32.514595,江都丁伙新日专卖店,江苏省,,
建阳镇,盐城市,建湖县,119.74433809518814,33.4950754575401,建湖建阳分销,江苏省,,
九龙口镇,盐城市,建湖县,119.65400397777557,33.40408793955402,建湖蒋营分销,江苏省,,
新河镇新河街,徐州市,邳州市,117.988513,34.187048,邳州新河镇新日电动车,江苏省,,
占城街占城镇附近,徐州市,邳州市,117.767602,34.176281,邳州占城新日电动车,江苏省,,
梁寨镇粱寨镇,徐州市,丰县,116.753547,34.501672,丰县梁寨新日电动车,江苏省,,
203县道附近,徐州市,丰县,116.680136,34.611949,套楼镇新日电动车,江苏省,,
祝塘镇文林华昌路富阳新村25号,无锡市,江阴市,120.392152,31.724251,文林新日专卖店,江苏省,,
藕塘路111号,无锡市,惠山区,120.178397,31.600631,藕塘新日专卖店,江苏省,,
平桥镇兴平街,淮安市,淮安区,119.21568,33.380031,平桥新日,江苏省,,
515路,淮安市,清江浦区,119.028976,33.431824,朱桥新日电动车,江苏省,,
范集镇政府淮安市范集镇委,淮安市,淮安区,119.062055,33.370038,范集新日,江苏省,,
振兴路和新街的交叉口附近,淮安市,淮安区,119.416279,33.603263,复兴新日,江苏省,,
63路,淮安市,淮安区,119.14592,33.457874,三堡新日,江苏省,,
东麒路东150米,南京市,江宁区,118.877946,31.97696,南京江宁上坊街道店,江苏省,,
15路;23路;23路(晚班车);53路;103路区间车,扬州市,邗江区,119.44516,32.476341,扬州槐泗镇新日电动车,江苏省,,
110县道附近,镇江市,润州区,119.337272,32.118275,镇江石马镇新日二店,江苏省,,
姚桥镇,镇江市,京口区,119.77420851588249,32.15641641522391,镇江姚桥新日电动车,江苏省,,
亭湖新区,盐城市,亭湖区,120.22026926279068,33.3993117416144,盐城跃进路分销,江苏省,,
羊寨镇,盐城市,阜宁县,119.66162279248239,33.92029331207472,阜宁北沙分销,江苏省,,
兴港南路与利港路交叉口东50米,无锡市,锡山区,120.554245,31.697199,东港新日专卖店,江苏省,,
人民路226号-228号(靠近南环新村),苏州市,姑苏区,120.625864,31.284406,人民路新日电动车,江苏省,,
济川街道,泰州市,泰兴市,120.02483412623407,32.156097373797806,泰兴市鼓楼南路新日电动车,江苏省,,
西南路与227省道交叉口西南200米,苏州市,常熟市,120.718896,31.583711,莫城新日电动车,江苏省,,
南京市六合区大厂毕洼路166号（化工园）,南京市,六合区,118.759954,32.223323,南京扬之航电动车有限公司,江苏省,,
江苏省宿迁市沭阳县北京路工商银行南首,宿迁市,沭阳县,118.766824,34.127874,沭阳县沭城远豪电动车经营部-大润发,江苏省,,
江苏省泗阳淮海中路16号,宿迁市,泗阳县,118.690667,33.725417,泗阳县起行电动车经营部-大润发,江苏省,,
近湖镇,盐城市,建湖县,119.78239998221399,33.472601816844424,建湖市区新建路社区店,江苏省,,
江苏省常熟市黄山路199号国际汽配城D4幢15-17号,苏州市,常熟市,120.80216,31.635118,常熟市虞山镇中奇电动车商行,江苏省,,
盐城市射阳县振阳大街新日电动车专卖店,盐城市,射阳县,120.256783,33.770253,射阳经济开发区得威电动车配件门市,江苏省,,
泗洪县泗州中大街17号（乾达公司）,宿迁市,泗洪县,118.221616,33.458605,泗洪县智通电动车配件经营部,江苏省,,
江苏省苏州市张家港市张家港市现代农业示范园区红旗路常阴沙生态农业旅游区,苏州市,张家港市,120.765979,31.87329,红旗新日电动车,江苏省,,
江苏省苏州市吴江区松陵镇江陵西路1185号,苏州市,吴江区,120.649007,31.178479,苏州斑马快线电动车服务有限公司,江苏省,,
江苏省苏州市吴江区太湖新城镇体育路17号,苏州市,吴江区,120.65563,31.146083,大发市场新日电动车,江苏省,,
江苏省苏州市吴江区太湖新城镇渔湾大道106号横扇文体广场,苏州市,吴江区,120.537314,31.012654,横扇新日电动车,江苏省,,
江苏省苏州市吴江区桃源镇青云路1049号,苏州市,吴江区,120.494304,30.847847,桃园新日电动车,江苏省,,
江苏省苏州市吴江区平望镇梅堰国土资源所,苏州市,吴江区,120.589279,30.976515,梅堰新日电动车,江苏省,,
江苏省苏州市吴江区震泽镇镇南路1138号,苏州市,吴江区,120.509454,30.912324,震泽新日电动车,江苏省,,
江苏省扬州市高邮市高邮街道武安路172号,扬州市,高邮市,119.462007,32.767791,武安新日,江苏省,,
江苏省扬州市高邮市汤庄镇汤庄镇人民政府,扬州市,高邮市,119.745362,32.770894,汤庄新日,江苏省,,
盛泽镇斜桥街蚕花公寓商住楼7号,苏州市,吴江区,120.663696,30.905146,吴江区盛泽镇开心电动车店,江苏省,,
江苏省徐州市邳州市运河街道民主路,徐州市,邳州市,117.959338,34.313111,邳州新日旗舰店,江苏省,,
江苏省徐州市邳州市运河街道民主路,徐州市,邳州市,117.95936,34.312865,龙奔新日电动车,江苏省,,
江苏省扬州市高邮市高邮街道净土寺塔广场,扬州市,高邮市,119.447827,32.772758,诚信车行,江苏省,,
江苏省徐州市邳州市土山镇邳州市薛集农村信用合作社,徐州市,邳州市,117.808871,34.214949,薛集,江苏省,,
江苏省扬州市高邮市高邮街道华联药店(傅公桥路)月塘花苑,扬州市,高邮市,119.441535,32.791529,傅公桥新日,江苏省,,
江苏省扬州市宝应县鲁垛镇鲁垛镇,扬州市,宝应县,119.516296,33.197375,鲁垛镇,江苏省,,
江苏省淮安市清江浦区人民北路16号玫瑰苑(上海路),淮安市,清江浦区,119.021369,33.594397,淮安人民路店,江苏省,,
江苏省淮安市淮阴区王营镇淮阴师范学院王营校区,淮安市,淮阴区,119.007826,33.6416,淮安淮阴店,江苏省,,
江苏省淮安市清江浦区巨一首府,淮安市,清江浦区,119.010618,33.594553,淮安巨一首府店,江苏省,,
众兴镇,宿迁市,泗阳县,118.68786022067071,33.71287013457253,淮海东路店,江苏省,,
江苏省无锡市惠山区洛社镇广石路,无锡市,惠山区,120.227493,31.6494,石塘湾新日电动车,江苏省,,
江苏省无锡市惠山区无锡惠山经济开发区欣惠路148-150号赛维拉·融域,无锡市,惠山区,120.297786,31.672879,堰桥新日电动车,江苏省,,
江苏省扬州市宝应县望直港镇宝应县獐狮医院,扬州市,宝应县,119.50423,33.25587,獐狮新日,江苏省,,
江苏省扬州市宝应县曹甸镇宝应农商银行下舍支行,扬州市,宝应县,119.447218,33.311042,下舍新日电动车,江苏省,,
江苏省徐州市睢宁县睢城镇元府西路188号,徐州市,睢宁县,117.942377,33.899405,睢宁县睢城镇万达农资门市,江苏省,,
江苏省徐州市睢宁县睢城镇元府西路188号,徐州市,睢宁县,117.942377,33.899405,睢宁县万达车行,江苏省,,
250省道西50米,徐州市,邳州市,118.000107,34.416348,官湖专卖店,江苏省,,
541乡道东100米,徐州市,邳州市,117.685608,34.272369,八义集新日专卖店,江苏省,,
石桥村附近,徐州市,邳州市,117.72216,34.201736,石桥新日专卖店,江苏省,,
二环路与开发区连接线交叉口东北100米,徐州市,邳州市,118.00386,34.272385,张楼新日专卖店,江苏省,,
经济开发区,徐州市,邳州市,117.945129,34.407845,红旗新日专卖店,江苏省,,
土山街157号,徐州市,邳州市,117.845604,34.217522,土山新日专卖店,江苏省,,
邳州21路,徐州市,邳州市,118.007568,34.303585,河湾新日,江苏省,,
古城路北50米,徐州市,邳州市,117.962563,34.468449,伽口新日,江苏省,,
燕子埠镇新街道,徐州市,邳州市,117.708565,34.498116,燕子埠新日,江苏省,,
红卫村李庄一组李海波门面,徐州市,邳州市,118.044426,34.324898,李庄新日,江苏省,,
新安路76号,徐州市,新沂市,118.345238,34.375874,新安路新日,江苏省,,
新沂3路,徐州市,新沂市,118.230675,34.241753,棋盘新日,江苏省,,
港头镇,徐州市,新沂市,118.233818,34.288639,港头新日,江苏省,,
阿湖镇黑埠街15号,徐州市,新沂市,118.608665,34.373062,黑布新日,江苏省,,
新沂11路,徐州市,邳州市,118.074646,34.180344,窑湾新日,江苏省,,
新沂11路,徐州市,新沂市,118.20137,34.366337,双庙新日,江苏省,,
高流镇,徐州市,新沂市,118.522171,34.315048,高流新日,江苏省,,
江苏省常熟市黄山路199号国际汽配城D4幢15-17号,苏州市,常熟市,120.80216,31.635118,常熟市虞山镇中奇电动车商行-常熟大润发,江苏省,,
江苏省沛县东风中路南侧金贸广场13号楼7号房,徐州市,沛县,116.936211,34.732779,沛县鑫浩电动车经营部,江苏省,,
江苏省南通市海安县海安镇中坝北路5号107室,南通市,海安市,120.45703,32.545072,海安县小鸟电动车经营部,江苏省,,
江苏省扬州市江都区大桥镇江都农村商业银行(大桥支行)润德至尊城市花苑东区,扬州市,江都区,119.716231,32.366602,大桥新日电动车,江苏省,,
江苏省扬州市江都区邵伯镇237省道,扬州市,江都区,119.518234,32.526451,邵伯镇新日电动车,江苏省,,
江苏省扬州市江都区吴桥镇通扬桥,扬州市,江都区,119.752403,32.443249,吴桥新日电动车,江苏省,,
江苏省扬州市江都区丁沟镇鸿邦环保漆,扬州市,江都区,119.68171,32.560859,丁沟镇新日电动车,江苏省,,
江苏省扬州市江都区浦头镇浦头中心小学,扬州市,江都区,119.832638,32.373623,浦头新日电动车,江苏省,,
江苏省扬州市江都区樊川镇樊川镇人民政府,扬州市,江都区,119.692709,32.660838,樊川新日电动车,江苏省,,
江苏省扬州市江都区真武镇蔡真公路日泰世纪乐购购物广场,扬州市,江都区,119.579635,32.613898,真武新日电动车,江苏省,,
江苏省扬州市江都区浦头镇高引公路,扬州市,江都区,119.81523,32.413515,高汉新日,江苏省,,
江苏省扬州市江都区小纪镇303县道,扬州市,江都区,119.747384,32.673804,富民新日,江苏省,,
江苏省扬州市江都区樊川镇江都农村商业银行(三周支行),扬州市,江都区,119.661279,32.62185,三周新日,江苏省,,
江苏省扬州市江都区大桥镇章墅村,扬州市,江都区,119.68378,32.388292,花荡新日,江苏省,,
江苏省扬州市江都区仙女镇新都路,扬州市,江都区,119.595366,32.392998,张纲新日,江苏省,,
江苏省扬州市江都区仙女镇江都曹王医院,扬州市,江都区,119.658075,32.399541,曹王新日,江苏省,,
江苏省扬州市江都区仙女镇江都区仙女镇中心小学樊套校区,扬州市,江都区,119.566656,32.45636,双沟新日,江苏省,,
江苏省扬州市江都区仙女镇砖桥中学,扬州市,江都区,119.627479,32.448633,砖桥新日,江苏省,,
江苏省扬州市江都区大桥镇江都大桥嘶马中心幼儿园,扬州市,江都区,119.779722,32.342584,嘶马新日,江苏省,,
江苏省扬州市江都区仙女镇明珠山庄(龙川北路),扬州市,江都区,119.573065,32.44182,明珠山庄新日,江苏省,,
江苏省扬州市江都区仙女镇世纪花园世纪花园东区,扬州市,江都区,119.570688,32.441712,世纪花园新日,江苏省,,
江苏省扬州市邗江区公道镇扬州市邗江永恩制鞋厂公道中学南校区,扬州市,邗江区,119.354392,32.585686,公道新日,江苏省,,
江苏省扬州市邗江区槐泗镇弘扬东路,扬州市,邗江区,119.442207,32.476379,酒甸镇新日电动车,江苏省,,
江苏省扬州市广陵区湾头镇扬州正宇锅炉有限公司,扬州市,广陵区,119.495332,32.420718,湾头新日,江苏省,,
江苏省扬州市邗江区甘泉街道七泉路213号,扬州市,邗江区,119.343436,32.481984,甘泉新日,江苏省,,
江苏省扬州市广陵区泰安镇金桥东路24号,扬州市,广陵区,119.517409,32.458651,泰安新日,江苏省,,
江苏省扬州市邗江区方巷镇黄珏幼儿园,扬州市,邗江区,119.403046,32.548468,黄珏新日,江苏省,,
江苏省扬州市广陵区沙头镇中共扬州市广陵区沙头镇委员会,扬州市,广陵区,119.524069,32.305405,沙头新日,江苏省,,
江苏省扬州市广陵区李典镇扬州市华祥医疗器械厂,扬州市,广陵区,119.60815,32.280484,新坝新日,江苏省,,
江苏省扬州市邗江区城北乡上方寺路18号鸿福二村,扬州市,邗江区,119.444293,32.42306,竹西路,江苏省,,
江苏省扬州市江都区仙女镇同桥路,扬州市,江都区,119.639439,32.435391,新火新日,江苏省,,
江苏省扬州市广陵区东关街道扬州市第一中学,扬州市,广陵区,119.449591,32.396131,扬州文昌路店,江苏省,,
江苏省扬州市江都区仙女镇利民北路84号,扬州市,江都区,119.55754,32.433346,江都利民桥店,江苏省,,
江苏省扬州市江都区仙女镇长江东路265号,扬州市,江都区,119.598838,32.430891,江都三店,江苏省,,
江苏省扬州市江都区仙女镇长江东路265号,扬州市,江都区,119.598838,32.430891,江都服务中心,江苏省,,
江苏省扬州市广陵区东关街道扬州市第一中学,扬州市,广陵区,119.449591,32.396131,扬州服务中心,江苏省,,
江苏省扬州市江都区仙女镇东方红东路50号润园商业广场,扬州市,江都区,119.580688,32.431364,润园社区店,江苏省,,
仙女镇龙城路89号金业龙津大厦104室,扬州市,江都区,119.562627,32.420198,龙城路社区店,江苏省,,
爱园镇,宿迁市,泗阳县,118.72898653149606,33.94453814670382,爱园新日,江苏省,,
高渡镇,宿迁市,泗阳县,118.66878032684325,33.50075781903118,高渡新日专卖,江苏省,,
庄圩乡,宿迁市,泗阳县,118.85079771280287,33.923647430859646,庄圩新日专卖,江苏省,,
裴圩镇,宿迁市,泗阳县,118.75581800937653,33.48667369186316,黄圩新日专卖,江苏省,,
城厢街,宿迁市,泗阳县,118.649568,33.685871,城厢新日专卖,江苏省,,
江苏泗阳开发区,宿迁市,泗阳县,118.73568534851073,33.696070234805454,桂庄小区新日专卖,江苏省,,
张家圩镇,宿迁市,泗阳县,118.68460536003114,33.886227173606514,张家圩新日专卖,江苏省,,
李口镇,宿迁市,泗阳县,118.7255921959877,33.62049034667083,李口新日专卖,江苏省,,
里仁乡,宿迁市,泗阳县,118.79485487937927,33.91321851510713,泗阳里仁新日,江苏省,,
江苏省苏州市张家港市金港镇长江西路,无锡市,江阴市,120.376522,31.944969,金港新日电动车（黄）,江苏省,,
江苏省无锡市江阴市祝塘镇新庄路,无锡市,江阴市,120.411423,31.757891,祝塘新日电动车,江苏省,,
江苏省无锡市江阴市青阳镇旌阳北路64-3号,无锡市,江阴市,120.255494,31.766302,青阳新日电动车,江苏省,,
江苏省镇江市扬中市经济开发区扬中大道,镇江市,扬中市,119.849968,32.16722,兴隆镇新日专卖店,江苏省,,
江苏省泰州市泰兴市济川街道大庆中路25号,泰州市,泰兴市,120.015548,32.172361,泰兴市弘一百货商行,江苏省,,
310国道北100米,徐州市,邳州市,117.758469,34.469559,车夫山新日专卖,江苏省,,
江苏省淮安市金湖县黎城镇人民路75-24号,淮安市,金湖县,119.020632,33.015089,新日人民路店,江苏省,,
江苏省徐州市睢宁县睢城镇天虹大道睢宁县中医院,徐州市,睢宁县,117.961583,33.90134,睢宁县万达车行,江苏省,,
皂河镇,宿迁市,宿豫区,118.11405658721924,34.03537171172268,宿迁皂河新日,江苏省,,
双山南路附近,盐城市,射阳县,120.243312,33.762914,射阳新日店,江苏省,,
古城路北50米,徐州市,邳州市,117.965958,34.467869,邳城新日,江苏省,,
邳州市,徐州市,邳州市,118.044945,34.32589,炮车新日,江苏省,,
戴邢线与302县道交叉口南150米,徐州市,邳州市,117.831612,34.562691,大固新日,江苏省,,
江苏省淮安市清江浦区通甫路139号福星花园(新庄路),淮安市,清江浦区,119.06454,33.571125,福星花园,江苏省,,
江苏省淮安市淮阴区新渡乡新渡中心小学,淮安市,淮阴区,119.096945,33.643401,新渡新日,江苏省,,
250省道附近,徐州市,邳州市,118.034935,34.533764,铁富新日,江苏省,,
云坛东路北50米,徐州市,邳州市,117.897003,34.539936,岔河新日,江苏省,,
四户镇四户街13号,徐州市,邳州市,117.979942,34.622162,石羊新日,江苏省,,
邳州19路,徐州市,邳州市,117.830917,34.301548,古邳新日,江苏省,,
中扬镇,宿迁市,宿城区,118.50709944963454,33.695906213745765,中扬新日,江苏省,,
江苏省无锡市惠山区无锡惠山经济开发区无锡新天一教育时代广场6号楼,无锡市,惠山区,120.295089,31.678238,堰桥新日电动（范）,江苏省,,
江苏省苏州市张家港市杨舍镇澄鹿路48号,无锡市,江阴市,120.512578,31.847001,包基新日电动车,江苏省,,
江苏省苏州市张家港市张家港经济技术开发区金塘商务宾馆(金塘路)聚丰新村,苏州市,张家港市,120.55845,31.817708,塘市新日电动车,江苏省,,
青湖镇,连云港市,东海县,118.8325560092926,34.67207516314208,青湖新日,江苏省,,
石榴街道,连云港市,东海县,118.70219931006433,34.56136740419159,大兴新日,江苏省,,
石梁河镇,连云港市,东海县,118.74074935913086,34.74259329642042,南辰新日,江苏省,,
石榴街道,连云港市,东海县,118.77000957727431,34.56277995192799,石榴新日,江苏省,,
温泉镇,连云港市,东海县,118.68596389889719,34.60330951462681,温泉新日,江苏省,,
曲阳乡,连云港市,东海县,118.69559437036516,34.44418502913645,曲阳新日,江苏省,,
白塔埠镇,连云港市,东海县,118.97863849997522,34.62766940890922,前营新日,江苏省,,
山左口乡,连云港市,东海县,118.48505169153214,34.59438426306865,山左口新日,江苏省,,
李埝乡,连云港市,东海县,118.60632777214049,34.66992547976316,李埝新日,江苏省,,
江苏省泰州市靖江市城北园区唯高公寓,泰州市,靖江市,120.271244,32.031581,靖城新日电动车,江苏省,,
牛山街道,连云港市,东海县,118.77483889460565,34.525869132148806,温泉朱沟新日,江苏省,,
安峰镇,连云港市,东海县,118.78518819808963,34.339100834277374,安峰峰南新日,江苏省,,
白塔埠镇,连云港市,东海县,118.93975853919986,34.572404296459105,白塔新日,江苏省,,
黄川镇,连云港市,东海县,118.95831808447838,34.679330070521736,黄川宋吴新日专卖,江苏省,,
牛山街道,连云港市,东海县,118.75430524349214,34.52701932122204,牛山镇金牛公园店,江苏省,,
江苏省扬州市江都区仙女镇长江路285号鸿江花园,扬州市,江都区,119.578002,32.421306,江都城北店,江苏省,,
江苏省扬州市邗江区双桥街道翠岗中学,扬州市,邗江区,119.408715,32.402808,扬州翠岗店,江苏省,,
江苏省扬州市广陵区文峰街道江阳东路鸿锦花园,扬州市,广陵区,119.45285,32.379876,东花园店,江苏省,,
江苏省扬州市江都区仙女镇正谊小学,扬州市,江都区,119.612593,32.405093,正宜店,江苏省,,
石梁河镇,连云港市,东海县,118.86683061718944,34.75585716456208,石梁河新日,江苏省,,
石榴街道,连云港市,东海县,118.68270903825761,34.57582859372061,石榴镇姜庄燕伟车行,江苏省,,
黄河西路18号号附近,徐州市,铜山区,117.179382,34.185299,徐州铜山新日,江苏省,,
香港街30号华清池向南10米,徐州市,沛县,116.936981,34.732674,沛县新日旗舰店,江苏省,,
阜城镇,盐城市,阜宁县,119.76457804441453,33.77803484501209,阜宁社区1店,江苏省,,
阜城镇,盐城市,阜宁县,119.80839595198631,33.75614000388222,阜宁社区2店,江苏省,,
江苏省苏州市张家港市锦丰镇泓南新村张家港合兴初级中学,苏州市,张家港市,120.592621,31.925147,合兴新日电动车（黄）,江苏省,,
江苏省苏州市张家港市金港镇中圩新村中兴小学,苏州市,张家港市,120.427853,31.952802,金港新日电动车（张）,江苏省,,
江苏省苏州市常熟市虞山镇金虞花园,苏州市,常熟市,120.73138,31.6189,安定街新日电动车,江苏省,,
江苏省徐州市邳州市宿羊山镇宿羊山镇人民政府,徐州市,邳州市,117.763442,34.390576,宿羊山新日,江苏省,,
江苏省徐州市邳州市戴庄镇淮海路4号,徐州市,邳州市,117.864022,34.51014,戴庄新日,江苏省,,
江苏省徐州市邳州市碾庄镇邳州市岱山防保站,徐州市,邳州市,117.685242,34.325997,岱山新日,江苏省,,
江苏省徐州市邳州市议堂镇议堂镇人民政府,徐州市,邳州市,117.891508,34.261029,议堂新日,江苏省,,
江苏省苏州市常熟市虞山镇新加坡花园锦洪苑小区,苏州市,常熟市,120.761875,31.669888,长江路新日电动车,江苏省,,
江苏省苏州市吴中区郭巷街道姜庄路,苏州市,吴中区,120.664071,31.254002,郭巷新日电动车,江苏省,,
江苏省苏州市吴江区盛泽镇杨扇路,苏州市,吴江区,120.676644,30.890053,盛泽南环路分店,江苏省,,
江苏省徐州市沛县安国镇沛县安国镇卫生院,徐州市,沛县,116.839626,34.833591,安国新日,江苏省,,
江苏省徐州市睢宁县官山镇睢宁县黄圩中学,徐州市,睢宁县,117.875094,33.754838,黄圩新日,江苏省,,
弘文路与朝阳东路交叉口西南50米,盐城市,盐都区,119.98059,33.25171,盐城北蒋店,江苏省,,
人民中路41,盐城市,盐都区,119.85849,33.227578,盐城义丰店,江苏省,,
双拥北路218号,盐城市,射阳县,120.266005,33.784668,射阳黄海路店,江苏省,,
江苏省无锡市江阴市长泾镇嘉伦光彩大药房(江阴曼红店),无锡市,江阴市,120.456465,31.722615,河塘新日速修,江苏省,,
江苏省苏州市张家港市杨舍镇沙洲中路181号西门南村,苏州市,张家港市,120.538261,31.863578,沙洲路新日速修,江苏省,,
新袁镇,宿迁市,泗阳县,118.75831648707391,33.54898526764034,杨莹莹2新袁新日,江苏省,,
江苏省无锡市惠山区洛社镇雅西社区卫生服务站周强新村,无锡市,惠山区,120.214908,31.640561,洛社雅西路新日电动车,江苏省,,
桃林镇,连云港市,东海县,118.48315939307214,34.50999578499515,东海桃林新日专卖店,江苏省,,
江苏省无锡市锡山区锡北镇301县道,无锡市,锡山区,120.40612,31.651318,无锡八士新日速修,江苏省,,
江苏省无锡市惠山区无锡惠山经济开发区政和大道109号复地公园城邦,无锡市,惠山区,120.291201,31.679106,无锡前洲丛伟路新日速修,江苏省,,
江苏省无锡市惠山区前洲街道新洲家园,无锡市,惠山区,120.221547,31.699884,无锡前洲新洲花园新日速修,江苏省,,
江苏省无锡市锡山区鹅湖镇甘厚路,无锡市,锡山区,120.570548,31.546062,无锡甘露新日速修,江苏省,,
江苏省无锡市惠山区无锡惠山经济开发区政和大道109号复地公园城邦,无锡市,惠山区,120.291158,31.679067,无锡荡口新日速修,江苏省,,
江苏省无锡市惠山区前洲街道西塘村人民调解委员会,无锡市,惠山区,120.205649,31.683312,无锡前洲西塘菜场新日速修,江苏省,,
江苏省无锡市江阴市顾山镇顾山镇人民政府,无锡市,江阴市,120.555885,31.733797,江阴顾山新日速修,江苏省,,
江苏省苏州市张家港市塘桥镇蓝天纺织,苏州市,张家港市,120.627967,31.85206,张家港鹿苑新日速修,江苏省,,
江苏省无锡市江阴市临港街道西城路108号,无锡市,江阴市,120.194069,31.883501,江阴夏港新日速修,江苏省,,
江苏省无锡市锡山区羊尖镇洲翔饭店,无锡市,锡山区,120.55853,31.625254,无锡羊尖新日速修,江苏省,,
江苏省无锡市惠山区无锡惠山经济开发区堰玉东路,无锡市,惠山区,120.277901,31.689242,无锡堰桥堰玉东路新日速修,江苏省,,
江苏省无锡市惠山区无锡惠山经济开发区欣惠路148-150号天力百好锦园,无锡市,惠山区,120.297763,31.672675,无锡堰桥新惠路新日速修,江苏省,,
江苏省扬州市江都区真武镇江都区杨庄幼儿园,扬州市,江都区,119.57354,32.580505,杨庄新日电动车,江苏省,,
牛山街道,连云港市,东海县,118.75524267554283,34.52541391364211,东海金牛公园店,江苏省,,
合德镇,盐城市,射阳县,120.20821943879126,33.73819096000892,射阳凤凰村店,江苏省,,
江苏省苏州市张家港市金港镇嘉和宾馆(澄杨路),苏州市,张家港市,120.451675,31.925083,后塍澄杨路新日电动车,江苏省,,
江苏省泰州市靖江市季市镇229省道,泰州市,靖江市,120.308537,32.137209,季市三元桥新日电动车,江苏省,,
振兴街2号附近,淮安市,盱眙县,118.700787,32.766818,张洪新日,江苏省,,
天泉湖镇,淮安市,盱眙县,118.54653060436252,32.76527415001038,古城新日,江苏省,,
明祖陵镇,淮安市,盱眙县,118.4246389567852,33.07545270929198,项庄新日,江苏省,,
淮城镇康马路都市花园d区127号,淮安市,淮安区,119.1391,33.542385,康马路新日,江苏省,,
翔宇北道98号附近,淮安市,淮阴区,119.050026,33.630592,海通花园店,江苏省,,
刘老庄乡,淮安市,淮阴区,118.97276178002359,33.80727015114789,刘庄新日,江苏省,,
和畅路66号,淮安市,清江浦区,119.156804,33.580285,徐杨新日,江苏省,,
韩桥乡,淮安市,淮阴区,118.82917374372482,33.449790010834704,韩桥新日,江苏省,,
富城路西50米,淮安市,清江浦区,119.076716,33.540601,奥体新城店,江苏省,,
江苏省无锡市江阴市周庄镇长寿面馆(云顾路),无锡市,江阴市,120.384398,31.803618,长寿新日电动车,江苏省,,
江苏省扬州市江都区仙女镇新都南路489号,扬州市,江都区,119.593124,32.403722,商贸城新日店,江苏省,,
江苏省扬州市江都区仙女镇文昌东路,扬州市,江都区,119.614685,32.413014,余桥新日,江苏省,,
江苏省镇江市京口区大港街道丹徒区运政稽查大队高桥中队高桥客运公用站,镇江市,丹徒区,119.654019,32.231131,高桥新日,江苏省,,
江苏省扬州市宝应县柳堡镇锦云路23号,扬州市,宝应县,119.479839,33.13099,芦村新日,江苏省,,
江苏省扬州市宝应县安宜镇宝应县环境卫生管理处城南环卫所,扬州市,宝应县,119.318073,33.229611,城南工农路新日,江苏省,,
江苏省泰州市姜堰区大伦镇江海路,泰州市,姜堰区,120.24693,32.444612,姜堰大伦店,江苏省,,
江苏省南京市秦淮区五老村街道羊皮巷10号苏宁生活广场(新街口店),南京市,秦淮区,118.786449,32.036366,南京汇川新街口苏宁,江苏省,,
江苏省泰州市姜堰区张甸镇204县道,泰州市,姜堰区,120.098731,32.399993,姜堰梅垛,江苏省,,
江苏省南京市浦口区汤泉街道大吉温泉度假村,南京市,浦口区,118.491479,32.073615,南京浦口汤泉,江苏省,,
江苏省南京市秦淮区洪武路街道绣花巷8号4幢绣花巷10号小区,南京市,秦淮区,118.799005,32.030924,南京汇川龙蟠中路,江苏省,,
江苏省南京市浦口区盘城街道盘城街道办事处,南京市,浦口区,118.715852,32.209931,南京六合盘城路,江苏省,,
江苏省南京市六合区雄州街道仁和商城(泰山路),南京市,六合区,118.851119,32.339316,南京六合区雄州街道,江苏省,,
江苏省南京市六合区龙袍街道东沟镇人民政府,南京市,六合区,118.988569,32.270209,南京六合区东沟镇,江苏省,,
江苏省徐州市邳州市运河街道金陵人家,徐州市,邳州市,117.960607,34.323328,邳州镇北二路店,江苏省,,
江苏省徐州市邳州市运河街道向阳小学,徐州市,邳州市,117.970041,34.299203,邳州向阳路店,江苏省,,
江苏省徐州市邳州市运河街道奚仲路,徐州市,邳州市,117.959507,34.320068,邳州镇北一路店,江苏省,,
江苏省扬州市邗江区梅岭街道老虎山路阳光大厦,扬州市,邗江区,119.442169,32.412278,老虎山路,江苏省,,
江苏省泰州市兴化市沈沦镇华雕卫浴,泰州市,兴化市,119.974074,32.787628,沈伦新日,江苏省,,
江苏省泰州市兴化市临城镇垛陈线,泰州市,兴化市,119.938309,32.829816,刘陆新日,江苏省,,
江苏省扬州市邗江区城北乡三星花园8号楼三星花园,扬州市,邗江区,119.459979,32.430405,三星花园店,江苏省,,
江苏省南京市六合区大厂街道新华六村社区劳动和社会保障服务站新华六村小区,南京市,六合区,118.742669,32.222371,南京六合大厂车辆城,江苏省,,
江苏省南京市秦淮区红花街道夹岗门,南京市,雨花台区,118.813292,31.977446,南京夹岗门,江苏省,,
江苏省南京市六合区大厂街道南钢体育馆南钢大学,南京市,六合区,118.74664,32.199409,南钢店,江苏省,,
新街镇,泰州市,泰兴市,120.11636182665825,32.329738970428714,泰兴市北新电动车,江苏省,,
新街镇南新街,泰州市,泰兴市,120.123051,32.29204,泰兴市南新镇新日电动车,江苏省,,
宣堡镇,泰州市,泰兴市,119.99430790543558,32.295234015037266,泰兴市宣堡电动车,江苏省,,
张桥镇,泰州市,泰兴市,120.06905838847163,32.11079805808398,泰兴市张桥新日电动车,江苏省,,
经济技术开发区,镇江市,丹阳市,119.60554316639902,31.99740024474281,丹阳欧尚超市,江苏省,,
华阳镇,镇江市,句容市,119.17283445596696,31.945116003769325,句容新日1店,江苏省,,
华阳镇,镇江市,句容市,119.17283445596696,31.945116003769325,句容新日2店,江苏省,,
江苏省泰州市兴化市钓鱼镇中国邮政储蓄银行(海河营业所),泰州市,兴化市,119.90865,33.087823,北芙新日,江苏省,,
江苏省盐城市亭湖区文峰街道格林豪泰酒店(大庆路店),盐城市,盐都区,120.132924,33.369393,盐城新日大庆路旗舰店,江苏省,,
江苏省盐城市阜宁县阜城镇阜城大街298号富建新村,盐城市,阜宁县,119.787612,33.782612,阜宁新日旗舰店,江苏省,,
穿城镇,宿迁市,泗阳县,118.62583279609679,33.91306937825359,泗阳穿城新日店,江苏省,,
罗圩乡,宿迁市,宿城区,118.28787446022037,33.75702866048773,罗圩新日店,江苏省,,
虞山镇,苏州市,常熟市,120.80212354660037,31.63406581067859,汽配城新日专卖店,江苏省,,
通达北路与黄河西路交叉口北150米,常州市,新北区,119.818996,31.899501,罗溪镇通航广场新日,江苏省,,
花园路24号,常州市,钟楼区,119.92175,31.777531,怀德路中路,江苏省,,
湖塘镇,常州市,武进区,119.94333654642105,31.675366007250847,大学城新日电动车,江苏省,,
湖塘镇,常州市,武进区,119.9538427591324,31.688888635602538,永盛中路新日店,江苏省,,
建坂路附近,常州市,武进区,120.015239,31.658678,震坂路，新日店,江苏省,,
薛家镇薛冶路3号,常州市,新北区,119.916684,31.85968,薛家老街新日店,江苏省,,
新桥大街,常州市,新北区,119.973938,31.860673,新前新日店,江苏省,,
创新一路附近,常州市,新北区,119.987751,31.85584,龙虎塘新日店,江苏省,,
椿桂坊与红梅南路交叉口西南100米,常州市,天宁区,119.966758,31.772151,红梅南路新日店,江苏省,,
武宜北路189号附近,常州市,武进区,119.943871,31.749807,中凉亭新日店,江苏省,,
经济开发区,扬州市,高邮市,119.45853397250177,32.80273389114749,服装城新日,江苏省,,
城东镇迎宾路98号,南通市,海安市,120.50205,32.546059,海安火车站店,江苏省,,
G328(宁海线),南通市,海安市,120.329601,32.498211,海安曲塘店,江苏省,,
江苏省无锡市宜兴市屺亭街道宜兴市广汇实验小学,无锡市,宜兴市,119.815545,31.400376,宜兴广汇路新日电动车,江苏省,,
牛塘镇湖滨北路201号,常州市,武进区,119.899951,31.729538,牛塘人民路新日店,江苏省,,
包场路与145乡道交叉口东北150米,南通市,海安市,120.693463,32.561452,海安李堡店 ,江苏省,,
江苏省无锡市宜兴市新街街道新村路西花园一村,无锡市,宜兴市,119.79286,31.357935,宜兴龙池路新日电动车,江苏省,,
001县道与498乡道交叉口西北150米,南通市,海安市,120.261954,32.664433,海安白甸新日,江苏省,,
邓庄街31号,南通市,海安市,120.321687,32.58852,海安邓庄新日,江苏省,,
茶山街道,常州市,天宁区,119.95923534035686,31.75738333856585,清凉新村新日店,江苏省,,
江苏省无锡市锡山区锡北镇泾声路11号泾悦华庭,无锡市,锡山区,120.438728,31.661703,张泾新日电动车,江苏省,,
永兴街道外环西路汇达广场(越江新村北),南通市,港闸区,120.825821,32.027755,南通越江路店,江苏省,,
002县道与612乡道交叉口东50米,南通市,如皋市,120.393495,32.342665,如皋夏堡新日,江苏省,,
江苏省无锡市锡山区安镇街道太芙路,无锡市,锡山区,120.479772,31.602858,安镇新日电动车,江苏省,,
新昌路南150米,常州市,钟楼区,119.895097,31.816,新闸新日店,江苏省,,
如皋市经济开发区,南通市,如皋市,120.51199436187744,32.46174334829575,如皋戴庄新日,江苏省,,
江苏省无锡市锡山区无锡锡山开发区南方国际电动车城商住楼,无锡市,锡山区,120.495288,31.610808,南方市场新日电动车,江苏省,,
江苏省无锡市锡山区鹅湖镇甘露苑27号楼甘露苑,无锡市,锡山区,120.573902,31.537814,甘露新日电动车,江苏省,,
江苏省无锡市锡山区东亭街道学士路94号国欧商务酒店,无锡市,锡山区,120.367761,31.58249,东亭新日电动车,江苏省,,
长江镇,南通市,如皋市,120.60347512364389,32.11309604528622,如皋江防店,江苏省,,
340乡道北50米,南通市,海安市,120.395204,32.43642,海安孙庄新日,江苏省,,
墩头村17组,南通市,海安市,120.353279,32.646865,海安墩头新日,江苏省,,
龙潭路与353乡道交叉口东北50米,南通市,海安市,120.393766,32.663199,海安囚湖新日,江苏省,,
下合和镇,南通市,海安市,120.366388,32.383788,海安雅周新日,江苏省,,
人民中路29号,南通市,海安市,120.24342,32.610037,海安沙岗店,江苏省,,
336省道北50米,泰州市,靖江市,120.489783,32.104776,如皋桥头新日,江苏省,,
长江中路与飞龙西路向南100米,常州市,钟楼区,119.934533,31.809866,银河湾新日店,江苏省,,
天宁街道,常州市,天宁区,119.96876120567322,31.778118879317084,红梅路新日店,江苏省,,
横山桥镇,常州市,武进区,120.12995794415475,31.781509369664033,兰化路新日店,江苏省,,
江苏省无锡市江阴市周庄镇砂山大道,无锡市,江阴市,120.429056,31.87794,周庄新日电动车,江苏省,,
江苏省无锡市江阴市长泾镇花园路,无锡市,江阴市,120.489338,31.749569,长泾新日电动车,江苏省,,
江苏省无锡市江阴市澄江街道万达广场(江阴店),无锡市,江阴市,120.243568,31.898084,江阴万达新日电动车,江苏省,,
江苏省无锡市江阴市云亭街道江阴市云亭中心幼儿园(云台路),无锡市,江阴市,120.340865,31.858013,云亭新日电动车,江苏省,,
江苏省无锡市江阴市月城镇江阴市月城镇司法所,无锡市,江阴市,120.224205,31.803049,月城新日电动车,江苏省,,
江苏省苏州市张家港市凤凰镇张市路89-99号西张小学,苏州市,张家港市,120.623712,31.791273,西张新日电动车,江苏省,,
江苏省苏州市张家港市杨舍镇人民西路港新花苑,苏州市,张家港市,120.509841,31.890506,泗港新日电动车,江苏省,,
大东镇,淮安市,涟水县,119.42277744412422,33.830876464727595,涟水县沈庄新日电动车,江苏省,,
涟城镇,淮安市,涟水县,119.26816686987877,33.78846578711132,涟水县军民新日速修,江苏省,,
涟城镇,淮安市,涟水县,119.26430448889734,33.77525022183668,涟州花园新日电动车,江苏省,,
陈师镇,淮安市,涟水县,119.16295319795611,33.81996602571284,涟水县陈师新日电动车,江苏省,,
涟城镇,淮安市,涟水县,119.25997406244277,33.763905681396906,涟水县中山路新日速修,江苏省,,
涟城镇,淮安市,涟水县,119.27954211831091,33.77289804767374,涟水县渠北路新日速修,江苏省,,
涟城镇,淮安市,涟水县,119.26304385066032,33.78538947122842,涟水县阳光嘉园新日电动车,江苏省,,
棉花庄镇,淮安市,淮阴区,119.04234498739243,33.74183437559264,淮安大兴新日电动车,江苏省,,
清江浦区富准路2号,淮安市,清江浦区,119.14921,33.601124,淮安富士康新日,江苏省,,
朱桥镇,淮安市,淮安区,119.27031397819519,33.50881492695753,淮安朱桥镇新日电动车,江苏省,,
西宋集镇,淮安市,淮阴区,118.88007536530495,33.78604598414759,淮安西宋集新日电动车,江苏省,,
石湖镇,淮安市,涟水县,119.61763054132464,33.94351348066364,涟水县石湖新日电动车,江苏省,,
成集镇,淮安市,涟水县,119.08603683114053,33.84885286791857,涟水县成集新日电动车,江苏省,,
东五街文化中心南侧,淮安市,洪泽区,118.876724,33.286396,洪泽东风路新日电动车,江苏省,,
官湖镇,徐州市,邳州市,118.00351873040202,34.43028393127464,邳州官湖新日电动车,江苏省,,
土山镇,徐州市,邳州市,117.82445311546327,34.233052129615714,邳州李庄新日电动车,江苏省,,
欢口镇,徐州市,丰县,116.66845723986624,34.86872030974242,丰县欢口新日电动车,江苏省,,
铁富镇,徐州市,邳州市,118.03879380226135,34.53468573764001,邳州铁富新日电动车,江苏省,,
杨集镇,连云港市,灌云县,119.48165997862817,34.31694722461963,灌云杨集新日电动车,江苏省,,
下车镇,连云港市,灌云县,119.27178651094438,34.38833103491382,灌云仲集新日电动车,江苏省,,
四队镇,连云港市,灌云县,119.51071366667749,34.4186274811873,灌云四队新日电动车,江苏省,,
青口镇,连云港市,赣榆区,119.15944755077365,34.835069795648565,赣榆时代东路新日速修,江苏省,,
青口镇,连云港市,赣榆区,119.14238333702086,34.82568292473648,赣榆镇海东路新日速修,江苏省,,
汤涧镇,宿迁市,沭阳县,119.005978256464,34.12428075641657,宿迁沭阳县汤涧新日电动车,江苏省,,
吴集镇,宿迁市,沭阳县,119.03851747512819,34.20651184133411,宿迁沭阳县吴集新日电动车,江苏省,,
张寨镇,徐州市,沛县,116.92476645112038,34.62256756814402,徐州沛县张寨唐楼新日电动车,江苏省,,
延安东路139号,淮安市,清江浦区,119.064843,33.569916,淮安福星花园新日电动车,江苏省,,
城北园区,泰州市,靖江市,120.28152287006377,32.03303910727583,北环新日,江苏省,,
城南街道,泰州市,靖江市,120.24886831641196,31.998428406424942,南环新车站小伍,江苏省,,
虞山镇,苏州市,常熟市,120.72711959481238,31.59284665066424,莫城新日,江苏省,,
虞山镇,苏州市,常熟市,120.7586033642292,31.67002899717333,长江路新日,江苏省,,
和平街道,徐州市,泉山区,117.1484412252903,34.265383092928424,徐州泉山矿山路新日电动车,江苏省,,
庞庄街道,徐州市,泉山区,117.12271615862848,34.31945714591993,徐州泉山区新庞庄新日电动车,江苏省,,
桃园街道,徐州市,泉山区,117.09320247173311,34.30994541022872,徐州夹河矿新日电动车,江苏省,,
洋北镇,宿迁市,宿城区,118.38806167244914,33.83261434136907,宿迁洋北新日电动车,江苏省,,
来龙镇,宿迁市,宿豫区,118.48887920379639,34.04231855635437,宿迁来龙镇新日电动车,江苏省,,
皂河镇,宿迁市,宿豫区,118.08175206184389,34.06269794344785,宿迁滨湖新城滨河新日电动车,江苏省,,
规划支路西100米,盐城市,盐都区,120.134005,33.307283,盐塘家园,江苏省,,
解放南路,盐城市,盐都区,120.160706,33.34399,洪都花园新日,江苏省,,
邗沟路14-2号,扬州市,邗江区,119.447436,32.418896,扬州市弘扬中学店,江苏省,,
临城镇,泰州市,兴化市,119.84197854995728,32.88858905145833,临城新日,江苏省,,
陶庄镇,泰州市,兴化市,120.15039637684822,32.867442817889895,陶庄,江苏省,,
老圩乡,泰州市,兴化市,120.1451647281647,33.08389864945594,老圩专卖店,江苏省,,
戴南镇,泰州市,兴化市,120.06557688117029,32.746002580466,顾庄新日电动车,江苏省,,
大垛镇,泰州市,兴化市,120.04175215959552,32.89686821527751,大垛,江苏省,,
经济开发区,扬州市,高邮市,119.44999381899835,32.82082333340838,金桥新日,江苏省,,
顾高镇,泰州市,姜堰区,120.16186147928241,32.36379352503359,顾高,江苏省,,
新洋街道,盐城市,亭湖区,120.12756004929544,33.41983320198459,新盐路新日,江苏省,,
G204与长江西路交叉口西150米,南通市,海安市,120.389802,32.513201,海安胡集店,江苏省,,
通源路400号,南通市,海门市,121.18844,31.895841,通源社区店,江苏省,,
九华镇,南通市,如皋市,120.69929033517839,32.13885498688679,如皋九华店,江苏省,,
宝阳路与通蜀西路交叉口东50米,无锡市,宜兴市,119.821699,31.278504,宜兴川埠新日专卖店,江苏省,,
谢桥路29号,无锡市,宜兴市,119.808243,31.345698,宜兴城南新日专卖店,江苏省,,
栟茶镇,南通市,如东县,120.89458867907523,32.556036342691854,如东靖海店,江苏省,,
海门港新区,南通市,海门市,121.49153843522072,32.054847012746364,刘浩镇新日专卖店,江苏省,,
冶山街道,南京市,六合区,118.91962990164758,32.51373807972985,四合新日,江苏省,,
新城街道,盐城市,亭湖区,120.2467654645443,33.36403185175477,中舍花园新日,江苏省,,
赛虹桥街道,南京市,雨花台区,118.76911640167239,32.001110216382685,南京雨花西路新日,江苏省,,
马塘镇,南通市,如东县,121.00518822669981,32.326399332054066,如东蔡渡桥店,江苏省,,
曹埠镇,南通市,如东县,121.14608734846118,32.233127610924775,如东饮泉店,江苏省,,
周店村9组,南通市,如东县,121.198841,32.230107,如东童店店,江苏省,,
江苏省无锡市宜兴市宜城街道太滆西路板桥新村(太滆西路),无锡市,宜兴市,119.820163,31.369187,宜兴银洋太隔东路新日专买店,江苏省,,
寅阳镇,南通市,启东市,121.86214059591293,31.70817229067103,启东寅阳新日专卖店,江苏省,,
大方路北100米,南通市,启东市,121.56386,31.884484,启东二厂新日专卖店,江苏省,,
江苏省无锡市宜兴市和桥镇闸口北路,无锡市,宜兴市,119.921562,31.530124,宜兴闸口新日专卖店,江苏省,,
江苏省无锡市宜兴市万石镇江苏省华东石材市场万石中心石材城,无锡市,宜兴市,119.941753,31.484425,宜兴万石镇新日专卖店,江苏省,,
湖塘镇,常州市,武进区,119.94680866599084,31.72651884871782,湖塘新日店,江苏省,,
茶山街道,常州市,天宁区,119.97572019696237,31.757910165023183,朝阳四村新日,江苏省,,
五星街道,常州市,钟楼区,119.93083611130717,31.785120891782697,勤业四村新日店,江苏省,,
湟里镇,常州市,武进区,119.73259672522546,31.58557764142283,东安新日店,江苏省,,
邹区镇,常州市,钟楼区,119.84525620937349,31.792053980487793,邹区新日店,江苏省,,
龙虎塘街道,常州市,新北区,119.98752593994142,31.848431834122216,龙虎塘新日,江苏省,,
洛阳镇,常州市,武进区,120.07706210017206,31.645201478433282,洛阳新日,江苏省,,
遥观镇,常州市,武进区,120.0355213880539,31.701446287514603,瑶观新日,江苏省,,
高新区,常州市,武进区,119.94285643100741,31.63388197476904,南夏墅新日,江苏省,,
海虞北路202-18号,苏州市,常熟市,120.757974,31.687234,老街新日,江苏省,,
青龙街道,常州市,天宁区,120.00847265124322,31.78342572835388,青龙西路新日店,江苏省,,
新堂北路与龙城大道交叉口西150米,常州市,天宁区,119.990013,31.793974,新堂北路新日店,江苏省,,
如皋市经济开发区,南通市,如皋市,120.5086013674736,32.446043890859606,如皋戴庄新日,江苏省,,
九华镇,南通市,如皋市,120.68791642785074,32.13925812238999,如皋九华新日,江苏省,,
东陈镇,南通市,如皋市,120.69608911871909,32.45567120904945,如皋雪岸新日,江苏省,,
搬经镇,南通市,如皋市,120.3954242169857,32.343712666342704,如皋夏堡新日,江苏省,,
搬经镇,南通市,如皋市,120.38971245288849,32.25548768190049,如皋高明新日,江苏省,,
江安镇,泰州市,靖江市,120.44175535440446,32.12862383344953,如皋葛市新日,江苏省,,
长江镇,南通市,如皋市,120.57229444384576,32.10261775389231,如皋二案新日,江苏省,,
江安镇,南通市,如皋市,120.41733518242836,32.209021391129085,如皋胜利新日,江苏省,,
搬经镇,南通市,如皋市,120.41525915265085,32.30419389482718,如皋搬经新日,江苏省,,
长江镇,南通市,如皋市,120.60299232602121,32.1130267543775,如皋江防新日,江苏省,,
江安镇,南通市,如皋市,120.3798271715641,32.17977720293094,如皋桥头新日,江苏省,,
江安镇,南通市,如皋市,120.4123677313328,32.17057686912542,如皋江安新日,江苏省,,
如城街道,南通市,如皋市,120.54939776659013,32.38218356534735,如皋天平市场店,江苏省,,
官墩乡,宿迁市,沭阳县,118.90853092074396,34.19988017707264,沭阳县官墩新日电动车专卖店,江苏省,,
华冲镇,宿迁市,沭阳县,118.87824207544327,34.27328851447986,沭阳县华冲医院新日电动车专卖店,江苏省,,
悦来镇,宿迁市,沭阳县,118.61774459481241,34.08181728815067,沭阳县悦来镇新日电动车专卖店,江苏省,,
七雄街道,宿迁市,沭阳县,118.88259798288348,34.128729197632815,沭阳县七雄新日电动车专卖店,江苏省,,
淮河镇,淮安市,盱眙县,118.48778754472733,33.04087838432811,盱眙县淮河镇新日电动车专卖店,江苏省,,
盱城街道,淮安市,盱眙县,118.52530226111413,32.991711375888315,盱眙县城区金棚大道新日电动车专卖店,江苏省,,
下原镇,南通市,如皋市,120.67097425460817,32.183714729857165,如皋白雁桥新日,江苏省,,
磨头镇,南通市,如皋市,120.50997465848923,32.3014371030796,如皋场北新日,江苏省,,
如城街道,南通市,如皋市,120.57049065828325,32.361410112170006,如皋大司马路速修,江苏省,,
如城街道,南通市,如皋市,120.55651500821116,32.37844379007067,如皋宁海路速修,江苏省,,
如城街道,南通市,如皋市,120.6384015083313,32.362229134227185,如皋建设新日,江苏省,,
如皋市经济开发区,南通市,如皋市,120.54122909903525,32.4553000325861,如皋柴湾新日,江苏省,,
振兴路8号,苏州市,常熟市,120.993061,31.721107,吴市新日,江苏省,,
江苏省无锡市滨湖区河埒街道建筑路702号蠡溪苑,无锡市,滨湖区,120.265701,31.549116,建筑路新日专卖店,江苏省,,
江苏省无锡市滨湖区荣巷街道大池路12号许巷教师新村,无锡市,滨湖区,120.240118,31.561,荣巷新日专卖店,江苏省,,
七套乡,盐城市,响水县,119.851933,34.161563,七套新日,江苏省,,
陈家港镇,盐城市,响水县,119.75409865379335,34.31378036334406,海安集新日,江苏省,,
326省道东150米,盐城市,响水县,119.674569,34.206787,小南庄新日,江苏省,,
省属灌东盐场,盐城市,响水县,119.8149324953556,34.382444196403966,陈港新日,江苏省,,
黄圩镇,盐城市,响水县,119.61542442440987,33.998125105254836,黄圩新日,江苏省,,
陈涛镇,盐城市,滨海县,119.96769636869432,34.04104280670908,陈铸新日,江苏省,,
八滩镇,盐城市,滨海县,120.07286712527277,34.14203870789477,八滩新日,江苏省,,
界牌镇,盐城市,滨海县,119.90301489830017,34.11023338084743,陆集新日,江苏省,,
八滩镇,盐城市,滨海县,120.06851658225061,34.144172030783615,滨淮新日,江苏省,,
正红镇,盐城市,滨海县,119.88044008612633,33.8322043839096,正红新日,江苏省,,
振东街110,盐城市,滨海县,120.230755,34.136099,振东新日,江苏省,,
田楼镇,连云港市,灌南县,119.564750790596,34.2454394658256,八队新日,江苏省,,
小尖镇,盐城市,响水县,119.62855383753777,34.144640422249665,郭庄新日,江苏省,,
洋马镇,盐城市,射阳县,120.28877556324007,33.613151745471654,东辉新日,江苏省,,
合德镇,盐城市,射阳县,120.26514798402786,33.76804411544663,康平路新日,江苏省,,
高邮街道,扬州市,高邮市,119.44890886545181,32.765470374424964,诚信车行新日,江苏省,,
县经济开发区,盐城市,射阳县,120.28049960732459,33.780080337191784,蓝天公寓新日,江苏省,,
棠城广场与龙津路交叉口西北150米,南京市,六合区,118.836494,32.336006,欢乐港新日,江苏省,,
新8村10号,南京市,鼓楼区,118.763418,32.110824,金陵小区店,江苏省,,
丁沟镇,扬州市,江都区,119.74869534373286,32.56201693525931,麾村店,江苏省,,
吴桥镇,扬州市,江都区,119.70932185649875,32.44549046138506,谢桥社区店,江苏省,,
葛塘街道,南京市,六合区,118.73743548989296,32.26287177263302,六合长城店,江苏省,,
江苏省连云港市灌南县汤沟镇灌南县农村信用社(汤沟镇人民政府东南),连云港市,灌南县,119.154571,34.148317,灌南县汤沟镇新日专卖店,江苏省,,
江苏省连云港市灌南县百禄镇百禄汽车站,连云港市,灌南县,119.525531,34.057937,灌南百禄尧湾村新日,江苏省,,
泰山街道,南京市,浦口区,118.73109877109529,32.13164367053895,六合桥北天润城,江苏省,,
泰山街道,南京市,浦口区,118.73109877109529,32.13164367053895,六合大华社区,江苏省,,
马鞍街道,南京市,六合区,118.83805856108665,32.447795829242345,六合长山社区,江苏省,,
江苏省连云港市灌南县百禄镇灌南县百禄汽车客运站,连云港市,灌南县,119.534677,34.059669,灌南百禄新日专卖店,江苏省,,
盘城街道,南京市,浦口区,118.70792850852013,32.208283819532326,六合盘城,江苏省,,
东沟镇东沟中医院附近,南京市,六合区,118.993001,32.270766,六合东沟,江苏省,,
江苏省连云港市灌南县田楼镇灌南县人民法院长茂人民法庭,连云港市,灌南县,119.568406,34.225269,灌南县田楼新日专卖店,江苏省,,
冶山街道,南京市,六合区,118.91991153359415,32.511064584663885,六合区四合新日,江苏省,,
泰山街道,南京市,浦口区,118.71389776468278,32.143669784601684,六合泰山新村,江苏省,,
雄州街道,南京市,六合区,118.84032234549522,32.351218727681385,六合北门,江苏省,,
雄州街道,南京市,六合区,118.87908697128296,32.327219804338675,六合灵岩镇,江苏省,,
长芦街道,南京市,六合区,118.85358452796936,32.287965931629614,六合浦东路,江苏省,,
江苏省无锡市江阴市周庄镇砂山大道239号,无锡市,江阴市,120.426825,31.870559,周庄砂山大道新日专卖,江苏省,,
江苏省无锡市江阴市周庄镇龙山西路,无锡市,江阴市,120.3873,31.855495,周庄龙山西路新日,江苏省,,
江苏省无锡市江阴市临港街道镇澄路1685号,无锡市,江阴市,120.143105,31.885678,江阴申港新日电动车,江苏省,,
江苏省无锡市江阴市祝塘镇新庄路4号,无锡市,江阴市,120.411369,31.757821,江阴祝塘新日电动车,江苏省,,
江苏省无锡市江阴市云亭街道云台路115号云新小区,无锡市,江阴市,120.340559,31.857359,江阴云亭新日电动车,江苏省,,
江苏省无锡市江阴市华士镇和平街846号,无锡市,江阴市,120.469411,31.837504,江阴华士和平街新日电动车,江苏省,,
江苏省无锡市江阴市祝塘镇华昌路,无锡市,江阴市,120.391662,31.724048,江阴文林新日电动车,江苏省,,
江苏省无锡市江阴市青阳镇旌阳北路60号,无锡市,江阴市,120.255494,31.766302,江阴青阳新日电动车,江苏省,,
木渎镇,苏州市,吴中区,120.51971241831781,31.257066719770684,木渎商城新日专卖店,江苏省,,
郭巷街道,苏州市,吴中区,120.67379459738731,31.24891861661481,郭巷新日,江苏省,,
甪直镇,苏州市,吴中区,120.86743935942648,31.266649328138815,甪直新日,江苏省,,
望亭镇,苏州市,相城区,120.44894233345987,31.423903640223894,望亭新日,江苏省,,
东渚街道,苏州市,吴中区,120.40030986070636,31.328609553618907,东渚新日,江苏省,,
301县道南50米,南通市,如皋市,120.554238,32.456012,如皋柴湾新日,江苏省,,
下原镇惠民路9号,南通市,如皋市,120.639214,32.22054,如皋下原新日,江苏省,,
凌西路与红旗西路交叉口东北150米,南通市,如皋市,120.616839,32.441546,如皋南凌新日,江苏省,,
如城镇,南通市,如皋市,120.566976,32.336185,如皋大明新日,江苏省,,
东陈镇,南通市,如皋市,120.64435064792637,32.40637963489763,如皋东陈新日,江苏省,,
郑顾路与020乡道交叉口西100米,南通市,如皋市,120.706025,32.174068,如皋龙舌新日,江苏省,,
江安镇,南通市,如皋市,120.38998335599901,32.18972908984293,如皋石桥头新日,江苏省,,
长青沙街,南通市,如皋市,120.601001,32.053277,如皋长青沙新日,江苏省,,
丁堰镇,南通市,如皋市,120.72928816080093,32.39137718211403,如皋丁东新日,江苏省,,
如城街道,南通市,如皋市,120.60789138078688,32.3965885211822,如皋社区店1,江苏省,,
市区城南如城镇宁海路1-2号,南通市,如皋市,120.567606,32.38307,如皋社区店2,江苏省,,
海门高新区,南通市,海门市,121.1729684472084,31.891314908881913,海门东洲路新日,江苏省,,
安宜镇,扬州市,宝应县,119.32453349232672,33.24165996161745,宝应二店,江苏省,,
人民中路650号(人民路与江海路交界口),南通市,启东市,121.658366,31.810955,启东文峰新日,江苏省,,
江苏省宿迁市沭阳县胡集镇新集,宿迁市,沭阳县,118.796308,33.985464,沭阳县胡集镇新日电动车,江苏省,,
邗上街道,扬州市,邗江区,119.39992368221283,32.368344944045255,扬州万达广场店,江苏省,,
高邮街道,扬州市,高邮市,119.48047041893007,32.786309425387174,建民花园新日,江苏省,,
月塘镇,扬州市,仪征市,119.13251280784606,32.41183352783531,仪征月塘店,江苏省,,
刘集镇,扬州市,仪征市,119.25751984119417,32.433299438310875,仪征刘集店,江苏省,,
358乡道南150米,扬州市,仪征市,119.096274,32.323451,仪征枣林湾店,江苏省,,
江苏省宿迁市沭阳县华冲镇龙青公路锦绣佳苑,宿迁市,沭阳县,118.871048,34.266756,沭阳县华冲镇新日电动车,江苏省,,
江苏省宿迁市沭阳县万匹乡822乡道,宿迁市,沭阳县,118.831901,34.25066,沭阳县万匹新日电动车,江苏省,,
江苏省宿迁市沭阳县桑墟镇桑墟镇桑北卫生室桑墟镇医院,宿迁市,沭阳县,118.829602,34.315705,沭阳县桑墟新日电动车,江苏省,,
江苏省宿迁市沭阳县庙头镇珠江路63号,宿迁市,沭阳县,118.701159,34.203035,沭阳县苗头新日电动车,江苏省,,
江苏省宿迁市沭阳县胡集镇新集,宿迁市,沭阳县,118.796308,33.985464,沭阳县新集新日电动车,江苏省,,
江苏省宿迁市沭阳县陇集镇沭阳县陇集镇卫生院沭阳县中医院陇集分部,宿迁市,沭阳县,118.662215,34.035377,沭阳县陇集新日电动车,江苏省,,
江苏省宿迁市沭阳县塘沟镇塘沟中心幼儿园,宿迁市,沭阳县,118.972547,33.988098,沭阳县塘沟新日电动车,江苏省,,
江苏省宿迁市沭阳县张圩乡张圩路,宿迁市,沭阳县,118.993198,33.940811,沭阳县张圩乡新日电动车,江苏省,,
江苏省宿迁市沭阳县梦溪街道梦溪小区梦溪小区东区,宿迁市,沭阳县,118.839561,34.096045,沭阳县梦溪新日电动车,江苏省,,
江苏省宿迁市沭阳县沭城街道临安东路88号沭阳县第一实验小学,宿迁市,沭阳县,118.797449,34.10631,沭阳县临安路新日电动车,江苏省,,
江苏省宿迁市沭阳县章集街道326省道,宿迁市,沭阳县,118.903025,34.080338,沭阳县章集新日电动车,江苏省,,
江苏省宿迁市沭阳县韩山镇新城一品,宿迁市,沭阳县,118.971278,34.232157,沭阳县韩山新日电动车,江苏省,,
江苏省连云港市赣榆区沙河镇殷庄村,连云港市,赣榆区,119.012782,34.784369,赣榆殷庄新日专卖店,江苏省,,
江苏省连云港市赣榆区班庄镇赣榆区欢墩镇中心小学,连云港市,赣榆区,118.831201,34.821605,赣榆欢墩新日专卖店,江苏省,,
江苏省宿迁市泗洪县车门乡车门乡红叶豪庭,宿迁市,泗洪县,118.135976,33.424535,泗洪县车门新日电动车,江苏省,,
江苏省宿迁市泗洪县曹庙乡泗洪县曹庙乡镇委,宿迁市,泗洪县,118.389956,33.623188,泗洪县曹庙新日电动车,江苏省,,
江苏省宿迁市泗洪县魏营镇大涧路,宿迁市,泗洪县,118.093879,33.36177,泗洪县魏营新日电动车,江苏省,,
江苏省宿迁市泗洪县金锁镇泗洪县金镇二中,宿迁市,泗洪县,118.310957,33.629587,泗洪县金镇新日电动车,江苏省,,
江苏省徐州市鼓楼区牌楼街道徐运新河西路,徐州市,鼓楼区,117.184779,34.290375,泗洪县朱湖新日电动车,江苏省,,
江苏省宿迁市泗洪县界集镇101县道44,宿迁市,泗洪县,118.409167,33.549234,泗洪县界集新日电动车,江苏省,,
江苏省宿迁市泗洪县大楼街道泗洪县大楼乡交通安全工作站泗洪县大楼中学,宿迁市,泗洪县,118.247493,33.51388,泗洪县大楼新日电动车,江苏省,,
江苏省连云港市海州区幸福路街道宝利商业街家俱批发市场,连云港市,海州区,119.139537,34.575902,海州新日,江苏省,,
江苏省连云港市海州区云台街道东磊村渔湾风景区,连云港市,海州区,119.330493,34.626722,连云港东磊新日专卖店,江苏省,,
临湖镇,苏州市,吴中区,120.50264149904251,31.164018249700963,浦庄新日,江苏省,,
郭巷街道,苏州市,吴中区,120.67215576767923,31.25080809446608,苏州郭巷新日,江苏省,,
唯亭街道,苏州市,苏州工业园区,120.78880235552789,31.360495688516,苏州唯亭新日,江苏省,,
越溪街道,苏州市,吴中区,120.58333575725555,31.2061625188722,苏州越溪新日,江苏省,,
东升路36号附近,苏州市,常熟市,120.785939,31.560155,沙家浜新日,江苏省,,
平望镇,苏州市,吴江区,120.64129561185838,30.979555720064376,苏州吴江平望新日,江苏省,,
城南街道,苏州市,吴中区,120.63599959015846,31.23477155527031,苏州红庄新日,江苏省,,
江苏省淮安市洪泽区高良涧街道世纪景湾,淮安市,洪泽区,118.873392,33.296589,新日速修,江苏省,,
浮桥镇,苏州市,太仓市,121.20760649442673,31.622370382798675,浮桥新日,江苏省,,
虞山街道,苏州市,常熟市,120.73899775743487,31.660969302571832,报慈路新日,江苏省,,
海虞镇,苏州市,常熟市,120.8083489537239,31.743571889805523,王市,江苏省,,
梅李镇,苏州市,常熟市,120.8700330555439,31.704228025319406,梅李新日,江苏省,,
江苏省连云港市东海县双店镇双店镇人民政府,连云港市,东海县,118.587435,34.597456,东海双店新日,江苏省,,
江苏省连云港市东海县牛山街道牛房路18号,连云港市,东海县,118.776061,34.512001,东海县牛山村新日,江苏省,,
江苏省连云港市东海县青湖镇青康路2号,连云港市,东海县,118.832555,34.672077,东海青湖新日,江苏省,,
经济开发区,扬州市,高邮市,119.44741353392602,32.848826580015036,东墩新日,江苏省,,
江苏省连云港市灌南县新安镇新安镇卫生院灌南县新安镇医院,连云港市,灌南县,119.357535,34.088191,灌南县新安镇新东路新日,江苏省,,
江苏省连云港市灌南县新安镇新安镇人民政府,连云港市,灌南县,119.37966,34.099977,灌南新安镇湘江路,江苏省,,
江苏省连云港市灌南县新集镇灌南县新集镇清泉社区居委会,连云港市,灌南县,119.458643,34.08932,灌南县新集,江苏省,,
江苏省连云港市灌南县李集乡灌南县六塘卫生院,连云港市,灌南县,119.250052,34.062113,灌南县六塘,江苏省,,
江苏省连云港市灌南县堆沟港镇灌南县堆沟港镇卫生院,连云港市,灌南县,119.757739,34.357389,灌南县堆沟港,江苏省,,
江苏省连云港市东海县牛山街道东海县和堂小学,连云港市,东海县,118.796413,34.526053,东海县牛山镇和堂村,江苏省,,
江苏省连云港市东海县牛山街道幸福北路126东海县初级中学,连云港市,东海县,118.761041,34.533559,东海县牛山镇四中路,江苏省,,
江苏省连云港市东海县温泉镇横沟乡西连湾小学,连云港市,东海县,118.72285,34.682237,东海县横沟乡西连湾村,江苏省,,
江苏省连云港市东海县驼峰乡驼峰乡卫生院东海县驼峰中心小学,连云港市,东海县,118.838708,34.589539,东海县驼峰乡,江苏省,,
江苏省连云港市东海县驼峰乡驼曹线,连云港市,东海县,118.839438,34.585512,东海县驼峰乡新区,江苏省,,
江苏省连云港市东海县江苏东海经济开发区天山路,连云港市,东海县,118.82408,34.550164,东海县驼峰范埠村,江苏省,,
江苏省连云港市东海县平明镇房张公路,连云港市,东海县,118.965496,34.467606,东海县平明镇,江苏省,,
江苏省连云港市东海县江苏东海经济开发区东方明珠城,连云港市,东海县,118.791231,34.536815,东海县牛山镇明珠路,江苏省,,
江苏省徐州市睢宁县李集镇睢宁县李集镇广播电视台,徐州市,睢宁县,117.789224,33.769397,睢宁李集新日电动车,江苏省,,
江苏省徐州市睢宁县沙集镇睢宁县沙集中学,徐州市,睢宁县,118.136845,33.897929,睢宁县沙集新日电动车,江苏省,,
江苏省徐州市睢宁县古邳镇皂伊线,徐州市,睢宁县,117.86517,34.116361,睢宁县古坯新日电动车,江苏省,,
江苏省徐州市睢宁县桃园镇睢宁县朱集中学,徐州市,睢宁县,117.858566,33.871033,睢宁县朱集新日电动车,江苏省,,
江苏省徐州市睢宁县睢城镇中山南路12百盛润家(中山南路店),徐州市,睢宁县,117.94959,33.896372,睢宁县城区新日电动车,江苏省,,
江苏省徐州市睢宁县王集镇睢宁县王集中学,徐州市,睢宁县,117.750116,33.997026,睢宁县王集新日电动车,江苏省,,
江苏省徐州市鼓楼区牌楼街道徐运新河西路,徐州市,鼓楼区,117.184664,34.290374,睢宁县城区店1,江苏省,,
江苏省徐州市睢宁县姚集镇睢宁县姚集中学,徐州市,睢宁县,117.827816,34.063706,睢宁县姚集新日电动车,江苏省,,
江苏省徐州市睢宁县岚山镇睢宁县岚山中学,徐州市,睢宁县,117.732745,33.934347,睢宁县岚山新日电动车,江苏省,,
江苏省徐州市睢宁县凌城镇凌城镇,徐州市,睢宁县,118.118628,33.825806,睢宁县凌城新日电动车,江苏省,,
江苏省徐州市睢宁县睢城镇中山南路12百盛润家(中山南路店),徐州市,睢宁县,117.94959,33.896372,睢宁县城区店2,江苏省,,
江苏省徐州市睢宁县高作镇睢宁县高作镇卫生院,徐州市,睢宁县,118.042355,33.905073,睢宁县高作新日电动车,江苏省,,
江苏省徐州市睢宁县睢城镇金府园幼儿园中国城,徐州市,睢宁县,117.952629,33.896944,睢宁县城区新日店3,江苏省,,
江苏省徐州市睢宁县睢城镇时尚芭莎国际美容机构中国城,徐州市,睢宁县,117.953393,33.897095,睢宁城区新日电动车4,江苏省,,
江苏省徐州市睢宁县邱集镇睢宁县邱集中学,徐州市,睢宁县,118.012423,33.801717,睢宁县邱集新日电动车,江苏省,,
江苏省徐州市睢宁县睢城镇中山公寓(中山北路),徐州市,睢宁县,117.950432,33.908262,睢宁县睢城镇新日电动车,江苏省,,
兴闸路53号,南通市,海门市,121.48724,32.088478,海门东灶港新日,江苏省,,
余东镇人民南路198号,南通市,海门市,121.358818,32.016151,海门余东新日,江苏省,,
正余镇浩北路2号,南通市,海门市,121.325331,32.061122,海门王浩新日,江苏省,,
启东经济开发区,南通市,启东市,121.64677396416666,31.825551640300205,启东车管所新日,江苏省,,
大方路北100米,南通市,启东市,121.56386,31.884484,启东二厂新日,江苏省,,
长江东路205号东北80米,南通市,启东市,121.680236,31.807019,启东长江路新日,江苏省,,
高庄路98号1-108附近,南通市,海安市,120.471704,32.514383,海安高庄路新日,江苏省,,
袁庄镇,南通市,如东县,120.76258510351182,32.504814810156184,如东沿南新日,江苏省,,
兵中南路北100米,南通市,如东县,121.301564,32.261713,如东兵房新日,江苏省,,
城南镇,南通市,如东县,121.20312,32.228029,如东城南新日,江苏省,,
苴镇街道,南通市,如东县,121.19719013571738,32.41071832015062,如东苴镇新日,江苏省,,
双甸镇,南通市,如东县,120.82645386457442,32.35032369797718,如东双甸新日,江苏省,,
丁店育才路35号,南通市,如东县,121.299179,32.221761,如东丁店新日,江苏省,,
龙袍街道,南京市,六合区,118.99595752358438,32.26917686379753,六合东沟店,江苏省,,
