address,city,districd,lat,lon,name,province,street,town
江西省赣州市赣县梅林镇赣新大道69号,赣州市,赣县区,115.0111,25.863346,赣县明强车行,江西省,,
江西省赣州市龙南县滨江大道新日电动车专卖店,赣州市,兴国县,115.356343,26.323815,龙南县环宇电动车行,江西省,,
江西省瑞金市绵水路（司法局前20米）,赣州市,瑞金市,116.032369,25.880654,瑞金市象湖镇新日电动车店,江西省,,
江西省安远县防疫站斜对面,赣州市,安远县,115.387306,25.135649,唐健,江西省,,
江西省赣州市会昌县财富广场206国道边新日电动车旗舰店,赣州市,会昌县,115.798723,25.600731,会昌县文武坝新日电动车专卖店,江西省,,
江西吉安遂川县川江南路供销大厦新日专卖店,吉安市,遂川县,114.521042,26.320744,遂川县泉江镇肖和生电动车行,江西省,,
万安县凤凰路352号,吉安市,万安县,114.778305,26.47324,万安县快乐电动车城,江西省,,
江西省赣州市环城路新日电动车专卖店,赣州市,章贡区,114.935977,25.851782,赣州盛源车业有限公司,江西省,,
信丰县南山西路101号新日电动车专卖店,赣州市,信丰县,114.933389,25.376093,信丰县动力车行,江西省,,
江西玉山县人民南路,上饶市,玉山县,118.244646,28.67041,玉山县兴荣车行,江西省,,
江西省德兴市聚丰商贸城一层1-14到1-18号,上饶市,德兴市,117.583957,28.934266,德兴市淳安车行,江西省,,
江西省上饶市余干县世纪大道金利源宾馆西侧附属楼一楼,上饶市,余干县,116.691324,28.700752,余干县怀远电动车超市,江西省,,
贵溪市雄石东路47号,鹰潭市,贵溪市,117.214524,28.28336,贵溪市银英摩托车行,江西省,,
江西鹰潭月湖区信江花园15号店面,鹰潭市,月湖区,117.039897,28.236159,鹰潭市政欣经贸有限公司,江西省,,
江西省乐平市珠海中路250-252号,景德镇市,乐平市,117.122931,28.969917,乐平市新日电动车店,江西省,,
上饶市江南商贸城D1栋127-128号,上饶市,信州区,117.976721,28.460527,信州区宏超车行,江西省,,
江西鄱阳县文庙电动车市场新日店,上饶市,鄱阳县,116.699746,29.011699,陈旭文(直营),江西省,,
江西省上饶市铅山县复兴中路103号,上饶市,铅山县,117.713285,28.3069,汪玉珍,江西省,,
江西弋阳第一中学旁,上饶市,弋阳县,117.436787,28.404418,弋阳县安顺车行,江西省,,
江西省横峰县人民大道兴安街十字路口,上饶市,横峰县,117.603924,28.408333,横峰县新日电动车老丁车行,江西省,,
江西省上饶市婺源县紫阳镇城南路林业服务大楼新日电动车,上饶市,婺源县,117.858199,29.240403,婺源县小何电动车行,江西省,,
广丰区卧龙城电动车市场新日店,上饶市,广丰区,118.176876,28.428182,詹文明,江西省,,
江西省吉安县庐陵大道,吉安市,吉安县,114.934056,27.039048,吉安县城兰辉车行,江西省,,
江西省吉水县龙华大道51号(县建设局门口),吉安市,吉水县,115.13726,27.214339,吉水县五羊-本田摩托车店,江西省,,
江西省新干县商贸中心三街新日专卖店,吉安市,新干县,115.396606,27.747466,新干县新日电动车行,江西省,,
江西省广昌县沿河路爱莲名苑,抚州市,广昌县,116.327975,26.843825,广昌县熠新电动车店,江西省,,
抚州市崇仁县巴山镇宝水大街新日电动车,抚州市,崇仁县,116.060135,27.754206,崇仁县吉兴隆电动自行车店,江西省,,
江西抚州南城县商贸城2区,抚州市,南城县,116.645573,27.564875,南城县新日电动车经销部,江西省,,
江西省抚州市黎川县日峰镇建设路12号,抚州市,黎川县,116.910887,27.291039,黎川县黄氏车行,江西省,,
江西乐安县迎宾大道新车站对面,抚州市,临川区,116.400496,27.965205,乐安县好朋友车行,江西省,,
江西省东乡县孝岗镇洪鑫商贸城10号,抚州市,东乡区,116.604339,28.22931,东乡县志华车行,江西省,,
江西省吉安市峡江县水边新县城,吉安市,峡江县,115.316566,27.582901,峡江县新日电动车,江西省,,
江西省余江县安仁大道新日专卖店,鹰潭市,余江区,116.825805,28.213041,余江县老熊车行,江西省,,
江西省泰和县工农兵大道100号,吉安市,泰和县,114.895603,26.791642,泰和县文明电动商行,江西省,,
江西省金溪县秀谷镇景秀华城县粮食局对面,抚州市,金溪县,116.779776,27.916793,金溪县星华车行,江西省,,
江西省上高县敖山大道43号农贸市场斜对面,宜春市,上高县,114.930444,28.231694,上高县绍北电动车经销店,江西省,,
丰城市摩托车大市场新日专卖店,宜春市,丰城市,115.781735,28.177882,丰城市一帆车行,江西省,,
江西省安福县泸潇市场平一小学前,吉安市,安福县,114.614465,27.381781,罗春文,江西省,,
铜鼓县城南路粮食局1楼,宜春市,铜鼓县,114.376212,28.520907,铜鼓县新日电动车行,江西省,,
江西省萍乡市莲花县永安北路38号,萍乡市,莲花县,113.961265,27.129777,莲花县银华摩托电器城,江西省,,
江西省新余市分宜县钤山路东兴嘉园,新余市,分宜县,114.68427,27.81613,袁金根,江西省,,
抚州市临川区瑶平南路（光明眼科医院对面）,抚州市,临川区,116.363819,27.986139,抚州市临川区八达摩托车行,江西省,,
抚州市临川区上顿渡镇宾馆路（原杰宝大王电动车专卖店）,抚州市,临川区,116.358143,27.990833,抚州市临川区祥和电动自行车行,江西省,,
抚州市宜黄县凤岗镇沿江路风神巷,抚州市,宜黄县,116.222377,27.547415,宜黄县宗仁电动车经营部,江西省,,
萍乡市建设中路111号江峰电动车行,萍乡市,安源区,113.847106,27.64491,萍乡市金陵西路剑宏电动车行,江西省,,
江西省新余市电动车一条街新日电动车专卖店,新余市,渝水区,114.934427,27.806616,渝水区锦龙路万丰车业,江西省,,
江西省宜丰县城东南路629号,宜春市,宜丰县,114.78404,28.388367,宜丰县新日电动车行,江西省,,
江西省靖安县沿河中路9号,宜春市,靖安县,115.363377,28.86337,靖安县新日电动车专卖店,江西省,,
江西省芦溪县站前二路100号新日专卖店,萍乡市,芦溪县,114.048559,27.636339,芦溪县芦溪镇荣鑫电动车行,江西省,,
江西省上栗县平安北路83号,萍乡市,上栗县,113.797366,27.881268,上栗县新日电动车店,江西省,,
江西省宜春市万载县阳乐电影院对面,宜春市,万载县,114.452888,28.099125,万载县神风车行,江西省,,
江西省樟树市樟中门面18号,宜春市,樟树市,115.546385,28.054814,樟中丁氏电动车行,江西省,,
江西省宜春市朝阳路北京新日专卖店,宜春市,丰城市,115.781735,28.177882,袁州区城西新旺车行,江西省,,
江西省高安市筠泉路北京新日电动车专卖店,宜春市,高安市,115.38225,28.412625,高安市城南王牌车行,江西省,,
江西省永新县义山西路茗园街新日电动车专卖店,吉安市,永新县,114.238509,26.947763,永新县新日电动车,江西省,,
江西省新建县长征西路226号新日电动车专卖店,南昌市,新建区,115.822014,28.679951,新建区小邓车行,江西省,,
江西省南昌市进贤县城胜利南路33号,南昌市,进贤县,116.263109,28.362788,进贤县新日电动车专卖店,江西省,,
江西省九江市永修县新城桥头,九江市,永修县,115.832453,29.012297,永修县涂埠镇新城小陈二轮电动车店,江西省,,
江西省共青城南湖大道新日旗舰店,九江市,共青城市,115.806268,29.245708,共青城新日电动车经销部,江西省,,
江西省安义县潦河大市场新日电动车专卖店,南昌市,安义县,115.549184,28.840025,安义县新时代摩托车销售部,江西省,,
江西省九江市德安县义锋路500号新日专卖店,九江市,共青城市,115.767484,29.298738,德安县新日电动车专卖店,江西省,,
江西修水县站前路11号-1,九江市,修水县,114.576118,29.031908,冷员华,江西省,,
湖口县钟山大道（农牧局对面）,九江市,湖口县,116.251947,29.731101,湖口县传波电动助力车行,江西省,,
江西省武宁县交通东路147-1.2号,九江市,武宁县,115.112634,29.263,武宁县许传明摩托车行,江西省,,
江西省南昌市东湖区青山南路481号,南昌市,东湖区,115.913089,28.698639,新建县东升汇车行,江西省,,
江西省九江市星子县白鹿大道256号,九江市,庐山市,116.045664,29.459586,星子县周霞车行,江西省,,
江西省都昌县万里大道芙蓉小区旁,九江市,都昌县,116.209574,29.277859,都昌县张志宝电动车行,江西省,,
九江市庐山路231号,九江市,浔阳区,115.982869,29.715615,九江云兴商贸有限公司,江西省,,
江西省武宁县建昌东路51号,九江市,武宁县,115.114618,29.255618,武宁县新日专卖店,江西省,,
九江市浔阳区庐山路385号,九江市,浔阳区,115.983229,29.713514,九江市新日专卖店(直营),江西省,,
江西省南昌市洪城路180号。江西省南昌市站南街5号（配件发送地址）,南昌市,西湖区,115.903919,28.654595,南昌赣锡贸易有限公司,江西省,,
江西省瑞昌市柳湖公园对面新日专卖店,九江市,瑞昌市,115.666125,29.674396,瑞昌市新日专卖店(直营),江西省,,
江西省九江市都昌县万里大道83号,九江市,都昌县,116.210533,29.279881,江西都昌（黄秀生）(直营),江西省,,
江西九江市彭泽县龙城镇龙城大道96号,九江市,彭泽县,116.566427,29.905069,江西彭泽县正喜汽车销售服务部(直营),江西省,,
江西南昌县莲塘中大道莲塘新日专卖店交通局正对面,南昌市,南昌县,115.946197,28.546079,江西南昌县莲塘新日专卖店,江西省,,
江西省九江市湖口县三里大道新日专卖店,九江市,湖口县,116.240889,29.727937,江西省湖口县三里大道新日专卖店(直营),江西省,,
江西省九江市武宁县建昌路新日电动车专卖店,九江市,武宁县,115.11232,29.262884,江西九江市武宁县球仔车行(直营),江西省,,
江西省九江市瑞昌市人民南路新日专卖,九江市,瑞昌市,115.668064,29.671172,江西省瑞昌新日专卖店(直营),江西省,,
南昌市洪都南大道244号,南昌市,青云谱区,115.916605,28.639356,南昌华申商贸有限公司(直营),江西省,,
江西省九江市浔阳区庐山路191号,九江市,浔阳区,115.98239,29.7173,江西九江饶阳林电动车行(直营),江西省,,
江西省上高县敖山大道58号新日电动车,宜春市,上高县,114.930444,28.231694,江西上高县欧阳车行(直营),江西省,,
江西省丰城市河州摩托车大市场新日专卖店,宜春市,丰城市,115.781735,28.177882,江西丰城新日专卖店(直营),江西省,,
江西萍乡市建设中路,萍乡市,安源区,113.847667,27.644656,江西萍乡市广寒寨江发车行,江西省,,
江西省于都县城乐都摩托车市场新日专卖店,赣州市,于都县,115.409709,25.956778,江西于都新日专卖店(直营),江西省,,
江西省萍乡市上栗县平安北路83号（公安局对面）,萍乡市,上栗县,113.797366,27.881268,上栗县新日专卖店(直营),江西省,,
江西省宜春市奉新县建设南路385号,宜春市,奉新县,115.385952,28.704941,奉新新日专卖店,江西省,,
江西省安福县武功山大道（隆鑫专卖店）,吉安市,安福县,114.567024,27.388341,江西省吉安市安福县新日专卖店,江西省,,
江西省新余市分宜县永康时代城B栋一楼,新余市,分宜县,114.684116,27.821668,分宜新日电动车专卖店(直营),江西省,,
江西省莲花县广场北路79号,萍乡市,莲花县,113.952427,27.131086,莲花县新日电动车专卖店(直营),江西省,,
江西铜鼓县柳林街40号,宜春市,铜鼓县,114.373509,28.523208,江西铜鼓县新日电动车专卖店(直营),江西省,,
萍乡市湘东区砚田桥南路57号,萍乡市,湘东区,113.74593,27.638577,萍乡市湘东区新日专卖店,江西省,,
莲花县康达西路206号,萍乡市,莲花县,113.952408,27.131937,莲花县新日专卖店(直营),江西省,,
江西省分宜县安仁路环保公寓1号-3号凤凤车行,新余市,分宜县,114.683507,27.809313,分宜县安仁路凤凤车行(直营),江西省,,
江西省抚州市宜黄县县政府对面,抚州市,宜黄县,116.236201,27.554886,江西省宜黄(邓阳乙)(直营),江西省,,
江西井冈山市新城区金都花园小李子车行,吉安市,井冈山市,114.282301,26.749418,江西井冈山市新城区小李子车行,江西省,,
江西省吉安市永苏路滨江一期1幢,吉安市,吉州区,114.991117,27.106434,吉安车行(直营),江西省,,
江西省抚州市瑶坪路金城广场5号,抚州市,临川区,116.363078,27.986027,江西省抚州市周氏电动车行(直营),江西省,,
江西省金溪县秀谷镇锦秀华城,抚州市,金溪县,116.783597,27.909708,江西省金溪县新日专卖店(直营),江西省,,
江西省抚州市宜黄县沿江路,抚州市,宜黄县,116.223862,27.54741,江西省宜黄县（黄志军）(直营),江西省,,
江西省抚州市资溪县建设西路6号新日专卖店,抚州市,资溪县,117.063381,27.705938,资溪阳光摩托销售中心,江西省,,
江西省抚州市南丰县南广路185号,抚州市,南丰县,116.52306,27.21633,南丰新日专卖店(直营),江西省,,
江西省抚州市临川县河滨路1-16号,抚州市,临川区,116.372133,27.983967,抚州市临川区范氏电动车行(直营),江西省,,
江西省都昌县万里大道99号,九江市,都昌县,116.198471,29.279975,江西省都昌县张化鹤电动车门市部(直营),江西省,,
江西省九江市修水县站前路3号（老桥头）,九江市,修水县,114.576431,29.031423,江西修水新日专卖店(直营),江西省,,
江西省吉安市泰和县工民兵大道100号文达电动车商行,吉安市,泰和县,114.908869,26.78996,江西省泰和(梁文会)(直营),江西省,,
江西省永丰县贸易广场龙凤车行,吉安市,永丰县,115.43744,27.328147,江西省永丰县龙凤车行,江西省,,
江西省余干县迎宾大道新日专卖店,上饶市,余干县,116.692116,28.703072,江西云川贸易有限公司(直营),江西省,,
江西省鄱阳县田畈镇富田大街F区42-88号,上饶市,鄱阳县,116.699746,29.011699,江西省鄱阳县田畈镇（曹伟华）(直营),江西省,,
江西省景德镇马鞍山路新日专卖店,景德镇市,珠山区,117.218333,29.292744,江西景德镇永庆电动车商行(直营),江西省,,
江西省贵溪市雄石中路国税局正对面,鹰潭市,月湖区,117.056524,28.24765,贵溪市江彬车行(直营),江西省,,
兴国县城北街381号,赣州市,兴国县,115.347461,26.327593,兴国新日电动车专卖店(直营),江西省,,
南康市金赣大道57-58号,赣州市,南康区,114.758125,25.655958,南康向阳车业(直营),江西省,,
上饶县唯义路信芳学校门口五羊本田店,上饶市,上饶县,117.928794,28.431973,上饶县东富电动车行(直营),江西省,,
江西省上饶市上饶县旭日北大道169号,上饶市,上饶县,117.914954,28.444949,江西省上饶市上饶县新日专卖店(直营),江西省,,
江西赣州市寻乌县城北综合市场7号楼北15-16号,赣州市,寻乌县,115.643688,24.964775,寻乌新日电动车专卖店(直营),江西省,,
江西省吉安市万安县凤凰路352号,吉安市,万安县,114.778305,26.47324,万安新日电动车专卖店(直营),江西省,,
江西省赣州市于都县乐都摩托车市场,赣州市,于都县,115.409709,25.956778,于都县都都摩托车行(直营),江西省,,
江西省赣州市崇义县章源大道621号,赣州市,崇义县,114.304855,25.688768,元生太阳能经营部,江西省,,
江西兴国县潋江镇城北街162号,赣州市,兴国县,115.347461,26.327593,江西兴国快乐电动车行(直营),江西省,,
江西省宁都县国税局旁金谷楼正对面,赣州市,宁都县,116.022701,26.479571,江西宁都新日电动车店(直营),江西省,,
江西省吉安市万安县凤凰路352号,吉安市,万安县,114.778305,26.47324,江西省万安县快乐电动车城(直营),江西省,,
江西省赣州南康市蓉江金赣大道新日电动车专卖店,赣州市,章贡区,114.84586,25.743047,江西南康新日电动车(直营),江西省,,
寮塘乡,吉安市,安福县,114.5962965488434,27.2727700378446,安福寮塘乡新日电动车专卖店,江西省,,
宣风镇,萍乡市,芦溪县,114.13156762719154,27.69049779510777,宣风镇新日电动车专卖店,江西省,,
嘉定镇,赣州市,信丰县,114.93342205882074,25.37634408381691,信丰县新日专卖店,江西省,,
罗家巷与邓家街交叉口西50米,抚州市,临川区,116.29809,27.938821,抚州市临川区祥和电动自行车,江西省,,
龙潭镇,宜春市,高安市,115.24309515953065,28.38708341292837,龙潭新日电动车专卖店,江西省,,
江西省吉安市吉安县敦厚镇庐陵大道附35号,吉安市,吉安县,114.918907,27.039226,吉安县新日电动车,江西省,,
桐木镇,萍乡市,上栗县,113.931460082531,27.95314238254554,桐木镇新日电动车专卖店,江西省,,
江西省兴国县城北街工商局旁,赣州市,兴国县,115.347461,26.327593,兴国县刘冬生摩托车经营部,江西省,,
秀谷镇秀谷中大道商贸城A栋36号,抚州市,金溪县,116.775189,27.908438,金溪县新日电动车专卖店,江西省,,
赣江街道,赣州市,章贡区,114.93596613407135,25.85194622072634,赣州市环城路店,江西省,,
安仁大道开心人大药房旁,鹰潭市,余江区,116.822175,28.212851,余江县新日电动车专卖店,江西省,,
江西省上饶市鄱阳县鄱阳镇建设路文庙广场A121-123B 新日电动车,上饶市,鄱阳县,116.673015,28.991878,鄱阳县昆林电动车销售中心店,江西省,,
平定乡,鹰潭市,余江区,116.885568,28.292227,平定新日电动车,江西省,,
二纬路与湘惠东路交叉口东50米,吉安市,新干县,115.396857,27.748419,新干县新日电动车专卖店,江西省,,
大秀路与玉笥大道交叉口东北50米,吉安市,峡江县,115.318707,27.578597,峡江县新日电动车,江西省,,
孝岗镇恒安东路,抚州市,东乡区,116.604339,28.22931,东乡县志华车行,江西省,,
爱莲名苑C19号,抚州市,广昌县,116.328897,26.843184,广昌县新日电动车专卖店,江西省,,
瑶坪路253号,抚州市,临川区,116.363888,27.986204,抚州市新日电动车,江西省,,
风神街与208省道交叉口西北50米,抚州市,宜黄县,116.223405,27.548395,宜黄县新日电动车专卖店,江西省,,
澄江镇工农兵大道农贸市场旁,吉安市,泰和县,114.89607,26.791554,泰和县新日电动车,江西省,,
南外街道,赣州市,章贡区,114.93717178702356,25.8454457224389,赣州市文明大道店,江西省,,
商贸南大道与221省道交叉口东北50米,抚州市,乐安县,115.831482,27.418878,乐安县新日电动车,江西省,,
江西省九江市瑞昌市五里桥新日电动车专卖店,九江市,瑞昌市,115.683398,29.681379,瑞昌市金桥三和装材料店,江西省,,
蓝坊镇,宜春市,高安市,115.47609061002731,28.39197493510283,高安市蓝坊新日电动车专卖店,江西省,,
蓝坊镇,宜春市,高安市,115.44873610138895,28.39908647061645,高安市漆溪新日电动车专卖店,江西省,,
泉江镇,吉安市,遂川县,114.52115043997766,26.32091550440676,遂川县新日专卖店,江西省,,
芙蓉镇,吉安市,万安县,114.77749049663545,26.474274128036537,万安县新日专卖店,江西省,,
梅林镇,赣州市,赣县区,115.01107066869736,25.86336890048816,赣县新日专卖店,江西省,,
象湖镇,赣州市,瑞金市,116.03588640689848,25.87719049598799,瑞金市新日专卖店,江西省,,
欣山镇,赣州市,安远县,115.39345443248749,25.130005308798484,安远县新日专卖店,江西省,,
龙南镇,赣州市,龙南县,114.79431599378586,24.90655455998692,龙南县新日专卖店,江西省,,
红旗大道和九洲大道交汇处,赣州市,会昌县,115.79874,25.600558,会昌县新日专卖店,江西省,,
登高中路282附近,抚州市,南城县,116.646311,27.565884,南城县新日电动车专卖店,江西省,,
文峰镇龙华中大道436号,吉安市,吉水县,115.138197,27.209186,吉水县新日电动车专卖店,江西省,,
皂头镇,上饶市,上饶县,118.01513671875,28.384855843237666,皂头新日电动车,江西省,,
202省道东50米,上饶市,上饶县,117.910999,28.387703,水南街新日电动车,江西省,,
锦绣花园玉兰苑B栋6号,吉安市,井冈山市,114.282948,26.746709,井冈山新日电动车,江西省,,
160乡道与960县道交汇口西南150米,抚州市,东乡区,116.798726,28.106111,瑶圩镇新日电动车,江西省,,
麦石段东50米,吉安市,新干县,115.533712,27.620659,麦斜新日,江西省,,
春涛乡坞桥乡,鹰潭市,余江区,116.841341,28.279975,乌桥新日电动车,江西省,,
荣塘镇,宜春市,丰城市,115.72094142436981,28.107780808939587,荣塘镇新日电动车专卖店,江西省,,
张巷镇,宜春市,丰城市,115.94574809074402,28.126712068951367,张巷镇新日电动车专卖店,江西省,,
临江镇,宜春市,樟树市,115.39854258298877,28.007039492597105,临江镇新日电动车专卖店,江西省,,
小港镇,宜春市,丰城市,115.88066697120668,28.26534220609076,小港新日电动车专卖店,江西省,,
同田乡,宜春市,丰城市,115.81504136323933,28.326802199659124,同田新日电动车专卖店,江西省,,
张家山街道,宜春市,樟树市,115.49374625086784,28.077453077897815,张家山新日电动车专卖店,江西省,,
曲江镇,宜春市,丰城市,115.783173,28.244679,曲江新日电动车专卖店,江西省,,
刘公庙镇,宜春市,樟树市,115.31887158751488,28.106751647487588,刘公庙新日电动车专卖店,江西省,,
荷湖乡,宜春市,丰城市,115.73201894760132,27.934592888855402,荷湖新日电动车专卖店,江西省,,
江西省抚州市南丰县交通路（电力公司旁）,抚州市,南丰县,116.530664,27.211729,南丰县辉达车行,江西省,,
江西省万年县万昌大道76号,上饶市,万年县,117.070434,28.686046,万年县华珠电动车行,江西省,,
河洲街道,宜春市,丰城市,115.78181013464929,28.17791438967516,丰城市新日电动车专卖店,江西省,,
琴城镇,抚州市,南丰县,116.53071,27.211544,南丰县新日电动车专卖店,江西省,,
分宜镇岭北路,新余市,分宜县,114.683633,27.821667,分宜县新日电动车专卖店,江西省,,
965县道马圩镇,抚州市,东乡区,116.472839,28.132173,马圩镇新日电动车专卖店,江西省,,
981县道西150米,抚州市,东乡区,116.577562,28.174872,虎圩镇新日电动车专卖店,江西省,,
小璜镇,抚州市,东乡区,116.705496,28.301127,小潢新日电动车专卖店,江西省,,
319国道西100米,吉安市,永新县,114.248965,26.981389,永新县新日电动车专卖店,江西省,,
康乐街道,宜春市,万载县,114.45229545235635,28.09921599216058,万载县新日电动车专卖店,江西省,,
新昌镇,宜春市,宜丰县,114.79805901646615,28.385556683239074,宜丰新日电动车专卖店,江西省,,
筠阳街道,宜春市,高安市,115.3811712563038,28.413779929864265,高安市新日电动车专卖店,江西省,,
凤凰街街道,萍乡市,安源区,113.86229395866397,27.642649716037756,萍乡市新日电动车专卖店,江西省,,
城南街道,新余市,渝水区,114.93667557835579,27.80631927886176,新余新日电动车专卖店,江西省,,
石鼻镇罗田村,南昌市,安义县,115.602947,28.747228,万埠镇,江西省,,
文港二路,南昌市,进贤县,116.127095,28.290058,文港镇,江西省,,
芦溪镇,萍乡市,芦溪县,114.0479698777199,27.63611061021019,芦溪县新日电动车专卖店,江西省,,
南昌县,南昌市,南昌县,116.014325,28.681341,太子殿,江西省,,
湾里区,南昌市,湾里区,115.730847,28.714796,湾里,江西省,,
南昌县,南昌市,南昌县,116.022751,28.290697,下罗,江西省,,
118路;131路(A线);131路(B线短班);131路(B线长班);131路(C线短班);131路(C线长班);132路;133路;137路;573路,南昌市,新建区,115.890884,28.841034,江桥,江西省,,
上栗镇,萍乡市,上栗县,113.79741132259369,27.881262991806143,上栗县新日电动车专卖店,江西省,,
三汊港镇三汊港街,九江市,都昌县,116.399921,29.275249,都昌三叉乡,江西省,,
周溪镇附近,九江市,都昌县,116.393725,29.182081,周溪,江西省,,
616乡道与679乡道交叉口西北100米,九江市,都昌县,116.427747,29.213603,西源,江西省,,
619乡道西50米,九江市,都昌县,116.29518,29.229942,和合镇,江西省,,
都昌县,九江市,都昌县,116.243691,29.454192,前山,江西省,,
王家湾路与209省道交叉口西100米,九江市,都昌县,116.336253,29.265395,大沙,江西省,,
创业路与北京路交叉口西南100米,九江市,共青城市,115.797343,29.252172,苏家档,江西省,,
创业路甘露派出所(创业路)附近,九江市,共青城市,115.772099,29.258239,甘露镇,江西省,,
江益镇232县道东100米,九江市,共青城市,115.776756,29.210013,江益,江西省,,
前进路与和平路交叉口西100米,南昌市,安义县,115.547147,28.841555,蛟塘,江西省,,
南康镇南康大道97号,九江市,庐山市,116.046807,29.450984,横塘镇,江西省,,
义宁大道199号,九江市,修水县,114.5465,29.026227,何市,江西省,,
秀水大道,九江市,修水县,114.535766,29.019617,扎津,江西省,,
白莲路附近,九江市,永修县,115.816433,29.020149,三角,江西省,,
新城大道29号-3,九江市,永修县,115.810751,29.024596,立新,江西省,,
新城大道61号,九江市,永修县,115.806153,29.015353,军山,江西省,,
建昌东路县委大院内,九江市,永修县,115.812721,29.021785,艾城,江西省,,
广兴巷与新城大道交叉口西南100米,九江市,永修县,115.807312,29.017402,吴城,江西省,,
云山垦殖场燕山地区,九江市,永修县,115.489601,29.067254,扎津,江西省,,
府前大道,九江市,共青城市,115.767447,29.298696,枫林镇,江西省,,
敖阳街道,宜春市,上高县,114.92843851447107,28.23119307093036,上高县新日电动车专卖店,江西省,,
江西省上饶县稻花路第五小学东南门斜对过,上饶市,上饶县,117.917047,28.443815,上饶县海洋电动车行,江西省,,
阁山镇,宜春市,樟树市,115.59227585792544,28.002287804660895,阁山镇新日电动车专卖店,江西省,,
昌付镇,宜春市,樟树市,115.312458,27.930076,双金镇新日电动车专卖店,江西省,,
省双金园艺场,宜春市,樟树市,115.30474305152893,27.92784144272253,昌傅新日电动车专卖店,江西省,,
石脑镇,宜春市,高安市,115.29902860522272,28.39135082435776,石脑新日电动车专卖店,江西省,,
高安市新世纪工业城管委会,宜春市,高安市,115.55551618337633,28.54299699482441,大成新日电动车专卖店,江西省,,
潋江镇,赣州市,兴国县,115.3459069132805,26.32897026186236,兴国县新日专卖店,江西省,,
南安镇,赣州市,大余县,114.36325013637541,25.3944589180713,大余新日,江西省,,
潭口镇,赣州市,章贡区,114.84586000442506,25.743051425880566,潭口新日,江西省,,
东山镇,赣州市,上犹县,114.55184027552606,25.779060103668233,上犹新日,江西省,,
乐安县,抚州市,乐安县,115.879782,27.253878,忘先新日电动车,江西省,,
221省道与496乡道交叉口东150米,抚州市,乐安县,115.880867,27.165307,招携新日电动车,江西省,,
万万段西50米,抚州市,乐安县,115.710422,27.210818,万崇新日,江西省,,
湖坪乡,抚州市,乐安县,115.753626,27.187695,湖平新日电动车,江西省,,
村前镇,宜春市,宜丰县,115.13831466436386,28.466177777835874,村前镇新日电动车专卖店,江西省,,
伍桥镇,宜春市,高安市,115.24640634655954,28.583565471090328,伍桥镇新日电动车专卖店,江西省,,
灰埠镇,宜春市,高安市,115.26145085692409,28.288684816588123,灰埠镇新日电动车专卖店,江西省,,
田南镇,宜春市,高安市,115.1255352795124,28.127525783890412,田南镇新日电动车专卖店,江西省,,
建山镇,宜春市,高安市,115.18928602337839,28.125634596786796,建山镇新日电动车专卖店,江西省,,
相城镇,宜春市,高安市,115.16916409134865,28.196702057298904,相城镇新日电动车专卖店,江西省,,
南上段与158乡道交叉口东南150米,抚州市,南城县,116.654592,27.378527,上塘新日电动车专卖店,江西省,,
太阳镇,宜春市,高安市,115.27996480464935,28.191515506298416,太阳镇新日电动车专卖店,江西省,,
赤山镇,萍乡市,上栗县,113.90893623232841,27.705090114748593,赤山镇新日电动车专卖店,江西省,,
站前路28,抚州市,临川区,116.258348,27.960668,温泉镇新日电动车,江西省,,
罗湖镇华溪街,抚州市,临川区,116.349706,28.065905,罗湖新日电动车,江西省,,
万魁塔路与梦山东路交叉口西150米,抚州市,临川区,116.263796,28.023903,展坪新日电动车,江西省,,
嵩湖乡,抚州市,临川区,116.478877,27.906685,嵩湖新日电动车专卖店,江西省,,
320国道东50米,鹰潭市,余江区,116.75172,28.23524,杨溪新日电动车专卖店,江西省,,
新田镇,宜春市,袁州区,114.27978515625001,27.823450886527343,新田镇新日电动车专卖店,江西省,,
洪塘镇,宜春市,袁州区,114.29549485445025,27.900016011805665,洪塘镇新日电动车专卖店,江西省,,
秀江街道,宜春市,袁州区,114.4025418162346,27.807739206692077,袁州区摩托车市场新日电动车专卖店,江西省,,
南港镇,宜春市,上高县,114.85062897205356,28.087429970703145,南港新日电动车专卖店,江西省,,
棠浦镇,宜春市,宜丰县,114.98805060982703,28.440894247957466,棠浦镇新日电动车专卖店,江西省,,
新庄镇,宜春市,宜丰县,115.08965134620667,28.45714063903477,新庄镇新日电动车专卖店,江西省,,
黄岗镇,宜春市,宜丰县,114.54947859048843,28.482113799583487,黄岗镇新日电动车专卖店,江西省,,
芳溪镇,宜春市,宜丰县,114.64223071932794,28.349289803548,芳溪镇新日电动车专卖店,江西省,,
洲湖镇,吉安市,安福县,114.51553925871849,27.163798200835725,洲湖镇新日电动车专卖店,江西省,,
严田镇,吉安市,安福县,114.38151195645332,27.357534447144538,严田新日电动车专卖店,江西省,,
竹江乡,吉安市,安福县,114.70766186714172,27.274242173742724,竹江乡新日电动车专卖店,江西省,,
马荃镇洪岩街永胜超市隔壁,鹰潭市,余江区,116.87179,28.155585,马荃新日,江西省,,
邓埠镇,鹰潭市,余江区,116.837688,28.345456,春涛新日电动车,江西省,,
百花路6号,吉安市,峡江县,115.172341,27.572826,巴邱新日电动车专卖店,江西省,,
马市镇,吉安市,泰和县,114.769392,26.736567,马市新日电动车,江西省,,
碧溪镇,吉安市,泰和县,114.388257,26.781268,碧溪新日电动车专卖店,江西省,,
工业园,吉安市,泰和县,114.919045,26.817783,永昌新日电动车,江西省,,
工农兵大道与319国道交叉口东北50米,吉安市,泰和县,114.879074,26.786896,大桥新日电动车,江西省,,
大洋州镇,吉安市,新干县,115.455558,27.895558,大洋洲新日电动车专卖店,江西省,,
七琴镇,吉安市,新干县,115.61408,27.703623,七琴新日电动车专卖店,江西省,,
新干县,吉安市,新干县,115.422442,27.867408,白马新日电动车专卖店,江西省,,
枚江乡,吉安市,遂川县,114.58518147468568,26.344407481475383,枚江新日,江西省,,
雩田镇,吉安市,遂川县,114.601086974144,26.399658817699713,于田新日,江西省,,
云石山乡,赣州市,会昌县,115.88883563876152,25.837282782416057,黄安新日,江西省,,
拖船镇,宜春市,丰城市,115.66660121083258,28.14916620475284,拖船镇新日电动车专卖店,江西省,,
侯家岗乡,上饶市,鄱阳县,116.81343600153922,29.490897751971403,石门街新日,江西省,,
站前路,南昌市,南昌县,115.962047,28.442381,向塘,江西省,,
江西省上饶市横峰县人民大道55号,上饶市,横峰县,117.60825,28.409134,李福州,江西省,,
上栗镇,萍乡市,上栗县,113.80060717463495,27.87591658305435,上栗县城区新日电动车专卖店,江西省,,
升坊镇,萍乡市,莲花县,113.91750052571297,27.053371480425564,莲花县升坊镇新日电动车专卖店,江西省,,
南义镇王家铺村,九江市,瑞昌市,115.332569,29.443719,瑞昌市南义镇,江西省,,
何市镇,九江市,修水县,114.619868,28.831716,何市,江西省,,
21路,抚州市,临川区,116.36377,27.986437,抚州临川区新日电动车专卖店,江西省,,
313县道与316县道交叉口西北100米,鹰潭市,余江区,116.92658,28.216081,刘家站新日电动车,江西省,,
214省道南100米,抚州市,临川区,116.229531,28.07663,桐源新日电动车,江西省,,
金屯镇,鹰潭市,贵溪市,117.23830327391626,28.135527773483435,金屯新日,江西省,,
夏埠乡,鹰潭市,月湖区,117.042189,28.272638,开发区新日,江西省,,
桂田大道德安陆路物流港14-B栋106号(105国道旁),九江市,德安县,115.735778,29.300891,林泉乡,江西省,,
黄沙岗镇,宜春市,高安市,115.37227973341942,28.312714185547886,黄沙岗镇新日电动车专卖店,江西省,,
祥符镇,宜春市,高安市,115.4775457084179,28.486290153311536,祥符镇新日电动车专卖店,江西省,,
汪家圩乡,宜春市,高安市,115.32312154769897,28.478035123689533,燕溪乡新日电动车专卖店,江西省,,
上湖乡,宜春市,高安市,115.33519282937051,28.34386398789018,上湖乡新日电动车专卖店,江西省,,
江西省抚州市东乡区恒安东路127号,抚州市,东乡区,116.608356,28.231606,愉怡乡新日,江西省,,
琴城路七琴镇政府,吉安市,新干县,115.61408,27.703623,七琴新日电动车,江西省,,
码头镇,九江市,瑞昌市,115.573539,29.822939,瑞昌码头镇绿风,江西省,,
经楼镇,宜春市,樟树市,115.42663335800172,28.020180435587434,经楼新日专卖店,江西省,,
太阳镇,宜春市,高安市,115.2607534825802,28.161453850810982,丁家村新日专卖店,江西省,,
江西省南昌市西湖区洪城路105号,南昌市,西湖区,115.903268,28.655275,南昌众成电动车有限公司,江西省,,
江西省赣州市寻乌县长宁镇岳家庄大道28号,赣州市,寻乌县,115.654798,24.952946,寻乌县金煌车行,江西省,,
江西省安远县欣山镇廉江路富春花园11-12号,赣州市,安远县,115.388129,25.135697,安远县欣山镇骏辉电动车车行,江西省,,
江西省九江市德安县宝塔乡隆鑫三轮车德安专卖店,九江市,德安县,115.738841,29.301634,德安新日,江西省,,
江西省赣州市南康区蓉江街道办事处金赣大道芙蓉花园A栋13号,赣州市,南康区,114.762736,25.658285,南康区明胜摩托车销售服务中心,江西省,,
江西省南昌市西湖区洪城路119号,南昌市,西湖区,115.904096,28.655273,青山湖区众成电动车经营部,江西省,,
象湖湿地花卉公园内,南昌市,青云谱区,115.896098,28.615744,象湖,江西省,,
三眼井街32号,南昌市,西湖区,115.898116,28.668258,莲塘,江西省,,
江西省抚州市临川区龙溪镇龙溪镇初级中学,抚州市,临川区,116.295639,27.71432,龙溪新日,江西省,,
江西省抚州市临川区崇岗镇崇岗镇人民政府,抚州市,临川区,116.379799,27.908836,崇岗新日,江西省,,
江西省抚州市东乡区红星综合垦殖场,抚州市,东乡区,116.546325,28.224964,红星新日电动车,江西省,,
福州路3号,南昌市,东湖区,115.904257,28.681479,向塘新日,江西省,,
江西省九江市德安县宝塔乡隆鑫三轮车德安专卖店,九江市,德安县,115.738854,29.301433,德安,江西省,,
蓉江街道,赣州市,南康区,114.76336330175401,25.65843952322938,南康区新日,江西省,,
朝阳路319号,宜春市,袁州区,114.379768,27.792399,宜春朝阳路专卖店,江西省,,
江西省南昌市青山湖区蛟桥镇南天·阳光南天·阳光西区,南昌市,青山湖区,115.821636,28.709545,南天阳光,江西省,,
江西省南昌市西湖区桃花镇洪城大市场洪城大市场B区,南昌市,西湖区,115.889067,28.652948,洪城大市场店,江西省,,
江西省南昌市青山湖区京东镇高新大道883号黑石汽车装潢配件城,南昌市,青山湖区,115.96257,28.66404,高新南大道店,江西省,,
江西省南昌市进贤县温圳镇进贤县温圳镇人民政府,南昌市,进贤县,116.086648,28.348403,温圳(流程已走近期装修220平),江西省,,
江西省南昌市西湖区桃花镇招商银行(洪城支行)洪大服装世界,南昌市,西湖区,115.889072,28.654038,东新店,江西省,,
江西省吉安市峡江县仁和镇峡江县仁和镇财政所,吉安市,峡江县,115.267826,27.654743,仁和新日,江西省,,
湛郎街道,宜春市,袁州区,114.40854996442796,27.788320055795808,市区东门,江西省,,
南庙镇,宜春市,袁州区,114.41931366920471,27.68351383277217,南庙,江西省,,
农牧实验场,宜春市,袁州区,114.34078797698022,27.784825924978882,源仙台,江西省,,
江西省抚州市东乡区珀玕汽车站,抚州市,东乡区,116.790083,28.32217,柏杆新日电动车,江西省,,
江西省抚州市东乡区东乡县王桥中学,抚州市,东乡区,116.716244,28.170273,王桥新日电动车,江西省,,
江西省抚州市东乡区邓家乡人民政府,抚州市,东乡区,116.565149,28.24897,邓家新日电动车,江西省,,
鄱阳镇,上饶市,鄱阳县,116.67342737317085,28.991940668138973,鄱阳洪伟车行,江西省,,
鄱阳镇,上饶市,鄱阳县,116.69957488775255,28.986877669561856,鄱阳城东店,江西省,,
江西省吉安市吉州区文山街道下后巷4-9号,吉安市,吉州区,114.989356,27.104959,吉安市吉州区吉庆车行,江西省,,
永丰街道,上饶市,广丰区,118.19164618849756,28.43911121434222,广丰新日一店,江西省,,
孙渡街道,宜春市,丰城市,115.77333435416224,28.133926477246895,孙渡新日,江西省,,
梅江镇,赣州市,宁都县,116.0214440524578,26.48434082112958,宁都县新日专卖店,江西省,,
江西省南昌市青山湖区湖坊镇高新南大道南昌安定医院,南昌市,青云谱区,115.956184,28.636389,高新南大道,江西省,,
江西省南昌市南昌县广福镇广福镇人民政府,南昌市,南昌县,115.911799,28.363827,广福店,江西省,,
丰溪街道,上饶市,广丰区,118.17991152405737,28.429055144054768,广丰二店,江西省,,
洋口镇,上饶市,广丰区,118.11729401350023,28.385367905243356,广丰洋口镇,江西省,,
玉亭镇,上饶市,余干县,116.6899162530899,28.690799415118786,余干二店,江西省,,
北门街道,上饶市,信州区,117.9761575162411,28.458921010599102,信州区,江西省,,
江西省南昌市西湖区十字街街道洪城路119号锦都皇冠酒店,南昌市,西湖区,115.904144,28.655292,南昌众成电动车有限公司洪城路店,江西省,,
洪家嘴乡,上饶市,余干县,116.67869389057158,28.70070463927287,余干一店,江西省,,
南岩镇,上饶市,弋阳县,117.53586620092393,28.3432761843888,南岩镇,江西省,,
圭峰镇,上饶市,弋阳县,117.39416375756265,28.331011831351113,圭峰镇,江西省,,
港口镇,上饶市,弋阳县,117.34736323356628,28.177443887276826,港口镇,江西省,,
叠山镇,上饶市,弋阳县,117.5106266140938,28.21536942948934,叠山镇,江西省,,
罗河镇,鹰潭市,贵溪市,117.16323629021646,28.218595558228916,罗河镇,江西省,,
江西省南昌市新建区长堎镇长征西路兄弟宾馆(新城花园二期东南),南昌市,新建区,115.809177,28.67712,新建县长征西路二店,江西省,,
三塘乡,上饶市,余干县,116.56792268157007,28.732293921509157,三塘新日,江西省,,
鹅湖镇,景德镇市,浮梁县,117.45613485574725,29.475682630408453,鹅湖镇,江西省,,
枫岭头镇,上饶市,上饶县,117.8487177193165,28.456966137426907,枫头领镇,江西省,,
横水镇,赣州市,崇义县,114.30466264486313,25.68867048740754,崇义新日,江西省,,
唐江镇,赣州市,南康区,114.74516585469244,25.806901270782703,唐江新日,江西省,,
王母渡镇石埠头附近,赣州市,赣县区,114.993005,25.618673,王母渡新日,江西省,,
鼎龙乡,赣州市,兴国县,115.42110532522203,26.41418457894515,杨村新日,江西省,,
高家岭镇,上饶市,鄱阳县,116.79092288017273,29.164952612757645,高家岭,江西省,,
铁路镇,宜春市,丰城市,115.79145267605783,27.872427642327597,丰城铁路,江西省,,
泉港镇,宜春市,丰城市,115.59862866997719,28.154946019949335,丰城泉港,江西省,,
慈化镇,宜春市,袁州区,114.07618135213853,28.017392307535065,宜春伯塘,江西省,,
城北街道,新余市,渝水区,114.9317054450512,27.823944286129237,新余沙新路,江西省,,
城北街道,新余市,渝水区,114.92545992136003,27.81712781958574,新余腾达车行,江西省,,
城北街道,新余市,渝水区,114.94620949029924,27.814647596563212,新余一中店,江西省,,
罗坊镇,新余市,渝水区,115.1136825978756,27.85457455252874,新余摩托车市场,江西省,,
饶丰镇,上饶市,鄱阳县,116.82293102145195,28.955389078099987,饶丰,江西省,,
斗柏路708号附近,南昌市,南昌县,115.918998,28.544127,莲溪路口,江西省,,
江西省九江市濂溪区五里街道九江宏大汽配城九江五金商贸城,九江市,濂溪区,116.015437,29.707346,九江洪大汽摩城店250平米大店直营店,江西省,,
水北镇,新余市,渝水区,115.05757078528404,28.041195032987915,新余水北店,江西省,,
东山街道,赣州市,南康区,114.80428576469423,25.617275577610457,南康东山北路,江西省,,
竟成镇,景德镇市,珠山区,117.23812758922575,29.285938033327064,景德镇陶玉南路店,江西省,,
石口镇,上饶市,余干县,116.63395196199419,28.83002160707468,余干县石口镇新日,江西省,,
东山街道,赣州市,南康区,114.7707635164261,25.67021686460114,南康东山南路,江西省,,
新厂街道,景德镇市,珠山区,117.25418731570244,29.29477237328903,景德镇下窑路店,江西省,,
江西省南昌市新建区生米镇生米镇人民政府,南昌市,新建区,115.797955,28.570492,生米镇,江西省,,
江西省九江市瑞昌市桂林街道林安国际商贸物流产业园,九江市,瑞昌市,115.649819,29.649263,瑞昌直营店,江西省,,
里村街道,景德镇市,珠山区,117.23046854138374,29.292607428314767,景德镇新厂西路店,江西省,,
新厂街道,景德镇市,珠山区,117.27556049823761,29.306270023294974,吴俊电动车行,江西省,,
江西省赣州市南康区镜坝镇连城大道,赣州市,南康区,114.742022,25.701468,赣州南康镜坝新日,江西省,,
江西省宜春市奉新县冯川镇应星南大道,宜春市,奉新县,115.397187,28.688446,江西奉新二店,江西省,,
江西省吉安市青原区天玉镇龙华南大道105国道180号临江华庭,吉安市,青原区,115.059444,27.140201,天玉镇新日电动车,江西省,,
江西省吉安市吉州区樟山镇樟山步行街,吉安市,吉州区,115.047769,27.181834,吉安市樟山新日电动车,江西省,,
里村街道,景德镇市,珠山区,117.23260760307315,29.294785238843208,小赵新日电动车专卖店,江西省,,
304省道北100米,九江市,柴桑区,115.844794,29.710602,华哥车行,江西省,,
江西省上饶市婺源县赋春镇赋春镇鸳鸯湖景区,上饶市,婺源县,117.544627,29.320458,婺源县赋春镇新日电动车,江西省,,
瑞南线张家渡,九江市,柴桑区,115.880326,29.70606,大神车行,江西省,,
城南街道,新余市,渝水区,114.93787452578545,27.808046440096135,站前西路新日店,江西省,,
罗坊镇,新余市,渝水区,115.11723786592482,27.85416192145215,新余步行街新日,江西省,,
大桥街道,宜春市,樟树市,115.58147326111792,28.05054090110662,樟树小桥镇,江西省,,
八都镇文明路26号焦娇,吉安市,吉水县,115.26386,27.446926,新日电动车,江西省,,
大港镇,九江市,都昌县,116.48783460259438,29.54121289872467,小夏新日电动车,江西省,,
都昌镇,九江市,都昌县,116.21829539537431,29.27039391634531,小黄新日电动车,江西省,,
江西省赣州市于都县贡江镇金岭路凤仪花园,赣州市,于都县,115.420132,25.963813,赣州金岭路新日,江西省,,
江西省吉安市吉水县阜田镇莫坑村,吉安市,吉水县,114.948954,27.448305,沃狼电动车,江西省,,
江西省吉安市吉水县枫江镇763县道,吉安市,吉水县,114.989669,27.408967,枫江王野电动车,江西省,,
江西省吉安市吉水县文峰镇葛山幼儿园,吉安市,吉水县,115.137201,27.148722,葛山超威修理部,江西省,,
江西省吉安市吉水县金滩镇解放街,吉安市,吉水县,115.125387,27.26638,东溪强仔车行,江西省,,
江西省吉安市吉水县螺田镇吉水县螺田中学,吉安市,吉水县,115.533811,27.014711,三雅摩托车,江西省,,
319国道与845乡道交叉口东150米高桥中心小学附近,吉安市,永新县,114.368161,27.01923,高桥龙辉车行,江西省,,
490乡道与805县道交叉口东南200米,吉安市,泰和县,115.172998,26.798495,五羊本田,江西省,,
105国道与582乡道交叉口北100米,吉安市,遂川县,114.630139,26.244266,巾石乡电动车专卖店,江西省,,
江西省吉安市遂川县大汾镇大汾中学,吉安市,遂川县,114.216931,26.24677,优弧电动车,江西省,,
界脑段北50米,吉安市,新干县,115.35339,27.752474,小欧车行,江西省,,
鄱阳镇,上饶市,鄱阳县,116.67317658662797,28.994927204896747,鄱阳县城西小王车行,江西省,,
鄱阳镇,上饶市,鄱阳县,116.69841885566711,29.01387668177973,鄱阳县城北华景车行,江西省,,
双港镇,上饶市,鄱阳县,116.62684947252272,29.067423345871735,鄱阳县双港镇老四车行,江西省,,
江西省吉安市井冈山市古城镇阳光幼儿园,吉安市,井冈山市,114.005557,26.754385,王野摩托车,江西省,,
江西省吉安市青原区天玉镇中共桥上村支部委员会,吉安市,青原区,115.052984,27.083621,王野电动车,江西省,,
江西省吉安市青原区富田镇吉安市青原区富田卫生院吉安市青原区富田防保站,吉安市,青原区,115.255858,26.812444,宝路达电动汽车,江西省,,
江西省吉安市吉州区长塘镇长塘中心小学,吉安市,吉州区,114.973593,27.183701,雅马哈摩托车,江西省,,
江西省吉安市吉安县浬田镇冻官段,吉安市,吉安县,114.726054,27.203752,福田五星三轮电动车,江西省,,
江西省吉安市吉水县黄桥镇中国邮政储蓄银行(黄桥镇支行),吉安市,吉水县,115.047901,27.31504,福田五星三轮电动车,江西省,,
江西省吉安市吉安县凤凰镇吉安县凤凰镇财政所,吉安市,吉安县,114.924671,26.968514,王野电动车,江西省,,
江西省吉安市吉州区白塘街道万家·阳明花园,吉安市,吉州区,114.966317,27.110493,刘勇维修,江西省,,
江西省吉安市青原区滨江街道幸福365,吉安市,青原区,115.005601,27.082045,新蕾电动车,江西省,,
江西省吉安市永丰县佐龙乡223省道,吉安市,永丰县,115.48343,27.308192,王野电动车修理,江西省,,
苏山乡,九江市,都昌县,116.23762875795364,29.477640539393658,小徐新日电动车,江西省,,
孝岗镇,抚州市,东乡区,116.60355985164644,28.247693669049546,东乡小璜镇,江西省,,
孝岗镇,抚州市,东乡区,116.60355985164644,28.247693669049546,东乡红岭村委会,江西省,,
孝岗镇,抚州市,东乡区,116.60355985164644,28.247693669049546,东乡孝岗镇加盟店,江西省,,
孝岗镇,抚州市,东乡区,116.60355985164644,28.247693669049546,东乡速修店,江西省,,
孝岗镇,抚州市,东乡区,116.60355985164644,28.247693669049546,东乡瑜怡乡店,江西省,,
孝岗镇,抚州市,东乡区,116.60355985164644,28.247693669049546,东乡市区速修店,江西省,,
孝岗镇,抚州市,东乡区,116.60355985164644,28.247693669049546,东乡市区速修,江西省,,
河洲街道,宜春市,丰城市,115.77109336853029,28.15913879207608,小塘店,江西省,,
河洲街道,宜春市,丰城市,115.77109336853029,28.15913879207608,围里店,江西省,,
江西省抚州市东乡区孝岗镇三江口路碧桂花园,抚州市,东乡区,116.608108,28.238754,东乡小邓车行,江西省,,
邓埠镇,鹰潭市,余江区,116.8227633833885,28.20617974621185,余江磨力州,江西省,,
邓埠镇,鹰潭市,余江区,116.8227633833885,28.20617974621185,马荃店,江西省,,
邓埠镇,鹰潭市,余江区,116.8227633833885,28.20617974621185,刘家站,江西省,,
邓埠镇,鹰潭市,余江区,116.8227633833885,28.20617974621185,锦江站,江西省,,
马影镇,九江市,湖口县,116.29483088850976,29.683074307373033,陈老细车行,江西省,,
