address,city,districd,lat,lon,name,province,street,town
"河南省开封尉氏县人民路东段259号""电动车大世界”",开封市,尉氏县,114.207213,34.407401,尉氏县金源商贸有限公司,河南省,,
河南省通许县通棉路中段58号,开封市,通许县,114.467467,34.480433,通许县华阳车行专卖店,河南省,,
河南省开封市东京车业广场东京大市场南区,开封市,顺河回族区,114.378275,34.812,开封市东京车业广场,河南省,,
河南省息县城关镇息夫人大道中段息夫人像南200米,信阳市,息县,114.749771,32.366727,息县惠万家电动车销售有限公司,河南省,,
河南省淮滨县防洪通道南段路西,信阳市,淮滨县,115.419538,32.473258,淮滨县新日电动车门市部,河南省,,
河南省商城县西大畈黎明公司新日专卖店,信阳市,商城县,115.406862,31.798378,商城县黎明商贸有限公司,河南省,,
柘城县湖东路和华景路交汇处69新日专卖店,商丘市,柘城县,115.315196,34.083466,柘城县阳光车业,河南省,,
河南省信阳市光山县新日专卖,信阳市,光山县,114.919033,32.011103,光山县新日电动车销售部,河南省,,
河南省永城市新城电动车大市场,商丘市,永城市,116.435972,33.929142,刘允,河南省,,
河南省固始县绿洲水岸苑,信阳市,固始县,115.680232,32.170146,固始新日电动车销售部,河南省,,
河南省开封县县府西街56号（顺发摩托销售中心）,郑州市,新密市,113.38996,34.540109,开封县城关镇顺发摩托车销售中心,河南省,,
河南省南阳市桐柏县淮源大道中段八一路口东100米,南阳市,桐柏县,113.401075,32.358392,桐柏县城关鑫华电动车行,河南省,,
河南方城裕州南路新日专卖店,南阳市,方城县,113.294688,33.245177,朱聚峰,河南省,,
河南省南阳市新野县人民路中段,南阳市,新野县,112.376714,32.524496,新野县新日旗舰店,河南省,,
河南省南阳市淅川县丹江大道新日电动车专卖,南阳市,淅川县,111.489186,33.130933,淅川县城关新日电动车行,河南省,,
河南省南阳市社旗县综合大市场东区502号13837780107老板娘,南阳市,社旗县,112.943926,33.043222,周爱敏,河南省,,
河南省南阳市南召县黄洋路中段新日专卖店,南阳市,南召县,112.440048,33.486075,新日电动车经营部,河南省,,
河南省南阳市唐河县城关人民路南段国税局对面,南阳市,唐河县,112.835116,32.681546,陈永祥,河南省,,
河南沈丘世衡桥南50米路西新日电动车专卖店,周口市,沈丘县,115.117311,33.228608,沈丘县华伟新日电动车门市部,河南省,,
河南省郑州市航海东路摩托城东三排1号,郑州市,管城回族区,113.716833,34.720819,郑州江统贸易有限公司,河南省,,
西峡县紫金路132号,南阳市,西峡县,111.477241,33.301284,西峡县新日电动车专卖店,河南省,,
邓州市构林镇新日专卖,南阳市,邓州市,112.123727,32.503372,杨晓玲,河南省,,
郑州市鸿泰路郑蔚路交叉口（鸿泰物流隔壁）,郑州市,管城回族区,113.725052,34.689307,郑州市乐统仓储服务有限公司,河南省,,
内乡县城渚阳大街北173号,南阳市,内乡县,111.84152,33.041774,内乡县城关镇新日电动车店,河南省,,
河南省镇平县紫荆城路南段五金机电城东大门口,南阳市,镇平县,112.220621,33.024897,镇平县翠平车行,河南省,,
中牟县建设路北段新日电动车,郑州市,中牟县,114.019147,34.732766,中牟县彦胜电动车店,河南省,,
河南省新县京九路马氏宾馆87号新日专卖店,信阳市,新县,114.879404,31.631981,王新河,河南省,,
河南省商丘市睢县中心大街南段路东,商丘市,睢县,115.079002,34.412847,睢县隆鑫电动车门市部,河南省,,
河南省虞城县城关镇义和路南段,商丘市,虞城县,115.870142,34.37964,范恩华,河南省,,
河南省兰考县中山南街东侧,开封市,兰考县,114.81739,34.822769,兰考新日电动车商行,河南省,,
河南夏邑县汽车站向南300米路西,商丘市,夏邑县,116.156019,34.234458,夏邑县新日电动车销售部,河南省,,
河南省罗山县江淮中路138号,信阳市,罗山县,114.539754,32.195561,罗山县宏发摩托车行,河南省,,
河南省信阳市浉河区解放路成功花园16号,信阳市,浉河区,114.079288,32.119544,信阳市浉河区成功车业,河南省,,
南阳市车站北路与高新路交叉口四福井仓库5号库,南阳市,卧龙区,112.53698,33.031246,南阳市五交化自行车经销有限公司,河南省,,
河南省新郑市仿古街华联小区楼下,郑州市,新郑市,113.732404,34.398797,新郑市新建路新新电动车销售店,河南省,,
河南省荥阳市万山路北段21号,郑州市,荥阳市,113.385066,34.792632,荥阳市万山路新日电动车行,河南省,,
河南省登封市区少林路西段,郑州市,登封市,113.026638,34.455585,登封市市区新日电动车门市,河南省,,
河南省郑州市上街区汝南路37号,郑州市,上街区,113.295522,34.814557,郑州市赫日商贸有限公司,河南省,,
洛阳市伊川县城关镇酒城北路450号,洛阳市,伊川县,112.429944,34.428367,伊川县通源电动车店,河南省,,
河南洛阳市新安县老城慕蓉街广电局家属楼下北京新日电动车专卖店,洛阳市,新安县,112.136792,34.72975,新安县城关富祥电动车行,河南省,,
河南省驻马店遂平县建设路中段,驻马店市,遂平县,113.998152,33.144151,遂平县辉达电动自行车店,河南省,,
河南省汝南县天中综合市场新日电动车专卖店,驻马店市,汝南县,114.35124,33.001745,何艳莲,河南省,,
河南济源市济源济水大街鸿运楼西200米,,济源市,112.592046,35.087823,济源市东城玉中电动车商行,河南省,,
孟津县城关镇桂花东路（老汽车站对面）,洛阳市,孟津县,112.449583,34.82426,王万晓,河南省,,
河南省栾川县城伊水路新日专卖,洛阳市,栾川县,111.635361,33.780611,栾川县栾川乡新日电动车行,河南省,,
河南省灵宝市新华街城关医院斜对面新日专卖,三门峡市,灵宝市,110.879968,34.521811,赵艳勤,河南省,,
河南省驻马店正阳县南环路新日专卖店,驻马店市,正阳县,114.3762,32.596191,正阳县邱卫兵电动车销售部,河南省,,
洛阳市涧西区建设路,洛阳市,涧西区,112.41351,34.662595,洛阳市涧西区腾飞电动自行车经销部,河南省,,
汝阳县滨河路滨河小区南门,洛阳市,汝阳县,112.477708,34.147361,汝阳县城关镇鑫诚电动车商行,河南省,,
河南省驻马店平舆县挚地大道北段,驻马店市,平舆县,114.641172,32.96313,平舆县广源汽车销售服务有限公司,河南省,,
河南偃师市影剧院西剧院,洛阳市,偃师市,112.784114,34.727893,偃师市城关镇民主路新悦电动车店,河南省,,
河南省驻马店市雪松路东段贸易广场9栋9号孙芳:13603426502,驻马店市,驿城区,114.047856,32.98588,驻马店市顺力德商贸有限公司,河南省,,
河南省沁阳市建设南路老消防队,焦作市,沁阳市,112.933447,35.086809,沁阳市建设南路开开电动车经销部,河南省,,
舞阳县东大街中段汽车站对面,漯河市,舞阳县,113.600231,33.43103,舞阳县徐向电车行,河南省,,
河南省扶沟县新建东路新日专卖店,周口市,扶沟县,114.397698,34.058638,扶沟县城关镇新日电动车专卖店,河南省,,
舞钢市李辉庄新日专卖店,平顶山市,舞钢市,113.491732,33.277654,舞钢市李辉庄新日电动车专卖店,河南省,,
长垣县金贝山新日电动车专卖店,新乡市,长垣县,114.693452,35.20328,王仕俊,河南省,,
河南省濮阳市台前县金水路北头新日专卖店,濮阳市,台前县,115.85431,35.99108,台前县金水路新日电动车销售部,河南省,,
漯河市燕山南路民营工业园标兵商贸有限公司院内,漯河市,召陵区,114.083192,33.543887,漯河市大前商贸有限公司,河南省,,
河南省武陟县沁河路中段,焦作市,武陟县,113.412306,35.103965,武陟县卫星小鸟电动车销售部,河南省,,
河南省周口市川汇区交通路中段,周口市,郸城县,115.186899,33.638111,周口市川汇区天成商贸,河南省,,
河南省新乡市延津县卫生路中段,新乡市,延津县,114.061471,35.206736,延津县佳昕电动车城,河南省,,
河南省三门峡市渑池县仰韶大街新市场西出口新日电动车,三门峡市,渑池县,111.784454,34.760231,渑池县仰韶东街海涛摩托车配件店,河南省,,
河南省驻马店市新蔡县驻新路,驻马店市,新蔡县,114.975529,32.751036,陈大玲,河南省,,
河南省驻马店市泌阳县花园路白云宾馆对面永照车城,驻马店市,泌阳县,113.317579,32.72934,陶荣照,河南省,,
洛阳市宜阳县红旗西路矿口向东50米路北,洛阳市,宜阳县,112.172889,34.515506,宜阳县城关镇和平者酷车店,河南省,,
上蔡县兴业路,驻马店市,上蔡县,114.284794,33.267465,上蔡县源动力商贸有限公司,河南省,,
确山县107国道爱家量贩北20米,驻马店市,汝南县,114.265407,32.933431,确山县实德福日用品商行,河南省,,
河南武陟县詹店镇马营桥新日电动车专卖店,焦作市,武陟县,113.598909,35.035526,武陟县赵辉电动车销售部,河南省,,
河南省新乡县小冀镇冀源路东段新日专卖,新乡市,新乡县,113.772367,35.178149,新乡县小冀镇金圣蓝电动车经销部,河南省,,
河南省焦作市博爱县中山路幸福之家商场,焦作市,博爱县,113.065802,35.171295,焦作市金凤新能源汽车销售有限公司,河南省,,
河南省鹿邑县卫真路西段新日专卖店,周口市,鹿邑县,115.482834,33.866967,鹿邑县新日电动车专卖店,河南省,,
河南郸城县人民路南段新日专卖店,周口市,郸城县,115.19359,33.63749,郸城县兴隆摩托城,河南省,,
河南省漯河市临颖县邢庄后街摩托车一条街中段路北电动车大卖场,漯河市,源汇区,114.016539,33.581412,临颍县韩霞电动车商行,河南省,,
河南省商水县备战路中段,周口市,商水县,114.608578,33.531562,何新峰,河南省,,
河南省西华县长平路中段新日专卖店,周口市,西华县,114.554589,33.652025,苏建辉,河南省,,
河南省项城县青年路中段,郑州市,中牟县,114.005107,34.723768,项城市水寨新日电动车经营部,河南省,,
河南省太康县谢安路中段新日专卖店,周口市,太康县,114.854782,34.062759,太康县航宇车业经营部,河南省,,
河南省温县新洛路大名广场,焦作市,温县,113.07977,34.95429,任志波,河南省,,
河南省淮阳县大同街陈州商城新日电动车专卖店,周口市,淮阳县,114.875917,33.730792,李亮,河南省,,
河南省新乡辉县新建街光乾电器行,新乡市,辉县市,113.805274,35.45844,辉县市九山路新日电动车行,河南省,,
河南省新乡市西大街东头北京新日电动车专卖店,新乡市,红旗区,113.878086,35.303312,新乡市红旗区新日电动车专卖店,河南省,,
河南省新乡封丘县文化路宏盛商厦北100米路东518号新日专卖店,新乡市,封丘县,114.431222,35.040618,张学军,河南省,,
河南省新乡市原阳县城新飞电动行,新乡市,原阳县,113.940115,35.065587,原阳县新日电动车行,河南省,,
河南省卫辉市仿古街中段,新乡市,卫辉市,114.06905,35.414124,卫辉市仿古街宝隆车业,河南省,,
河南省焦作市辉龙街,焦作市,解放区,113.229521,35.240333,焦作市顺程车业有限公司,河南省,,
河南省孟州市会昌路中段,焦作市,孟州市,112.782229,34.895012,孟州市永胜车行,河南省,,
河南省汝州市老二门街市公安局南50米路西（新日电动车专卖店）,平顶山市,汝州市,112.843929,34.161768,王佳宁,河南省,,
河南省南乐县商贸步行街120号,濮阳市,南乐县,115.204752,36.069664,南乐县名优电动车商行,河南省,,
河南省清丰县正通大道移动大厅南500米路西,濮阳市,清丰县,115.099784,35.867362,清丰县城关镇新日洪都电动车门市,河南省,,
河南省许昌市鄢陵县水泥厂对面新日电动车专卖店,许昌市,鄢陵县,114.199555,34.092887,鄢陵县志晔电动车销售部,河南省,,
河南宝丰县南大街中段路西,平顶山市,宝丰县,113.067984,33.874249,宝丰县城关镇军功电动车行,河南省,,
鹤壁市淇县107国道农行对面医药公司楼下,鹤壁市,淇县,114.191937,35.610045,淇县朝歌新日电动车门市,河南省,,
河南省浚县北关新日专卖店,鹤壁市,浚县,114.550813,35.67624,浚县卫溪办事处永资电动车门市部,河南省,,
河南省鹤壁市山城区长风路中段,鹤壁市,山城区,114.187355,35.896759,鹤壁市山城区长风路天佑车行,河南省,,
濮阳县老城（范县濮城镇采油二厂）,濮阳市,濮阳县,115.351362,35.714459,范县濮州中华摩托维修部,河南省,,
河南省安阳市龙安区文峰大道与中州路交叉口西北角,安阳市,龙安区,114.325788,36.099365,安阳市龙安区新珍电动车行,河南省,,
河南省汤阴县工业开发区南陈王新日电动车仓库,安阳市,汤阴县,114.399411,35.916871,汤阴县城关向阳路振国电动车门市,河南省,,
河南省许昌禹州市客运站对面,许昌市,禹州市,113.488478,34.140701,刘秀贞,河南省,,
河南省许昌市魏都区劳动路七彩城2栋一层南楼,许昌市,魏都区,113.82099,34.026616,许昌魏都区扬旗电动车商行,河南省,,
滑县白道口镇白道口集路北,安阳市,滑县,114.747121,35.634832,滑县白道口镇智勇电动车行,河南省,,
河南省郏县复兴路中段,平顶山市,郏县,113.234641,33.9674,吕朝许,河南省,,
河南内黄楚旺镇新日专卖店,安阳市,内黄县,114.856029,36.075973,内黄县楚旺镇新日电动车专卖店,河南省,,
河南省长葛市人民路北段八七摩托城新日电动车,许昌市,长葛市,113.775143,34.227525,长葛市世华新日电动车专卖店,河南省,,
濮阳市黄河中路路南127号,濮阳市,华龙区,115.032809,35.772123,濮阳市黄河路龙腾电动车商行,河南省,,
叶县昆阳大道新日专卖店,平顶山市,叶县,113.356778,33.619921,叶县昆阳镇新阳光电动车行,河南省,,
林州市东环路新日电动车专卖店,安阳市,林州市,113.822247,36.070978,林州市龙山区新日电动车经销部,河南省,,
平顶山市开源路新日专卖店,平顶山市,新华区,113.309765,33.743006,平顶山市卫东区张棉电动车经营部,河南省,,
襄城县五星之光机械有限公司,许昌市,襄城县,113.488847,33.866442,襄城新日专卖店,河南省,,
滑县汽车站斜对面新日专卖店,安阳市,滑县,114.537019,35.568778,滑县新日电动车专卖店(直营),河南省,,
河南内黄县电动车一条街,安阳市,内黄县,114.782463,35.881883,河南内黄新日专卖店(直营),河南省,,
许昌市魏都区湖滨路北段棉麻厂院内,许昌市,魏都区,113.819353,34.027778,许昌市魏都区联统科技贸易有限公司,河南省,,
河南滑县白道口镇,安阳市,滑县,114.747605,35.633105,滑县白道口镇八方电动车车行(直营),河南省,,
河南襄城县中心路中段,许昌市,襄城县,113.48677,33.849791,许昌襄城县新日专卖店(直营),河南省,,
郏县昆阳大道新日专卖店,平顶山市,郏县,113.212609,33.971787,郏县新日专卖店(直营),河南省,,
河南省濮阳市黄河路与金堤路交叉路口向西50米,濮阳市,范县,115.507209,35.864336,濮阳大唐电动车经营部(直营),河南省,,
河南省滑县道口文明路中段路东,安阳市,滑县,114.535038,35.561971,滑县城关密景新日电动车车行,河南省,,
河南省林州县党校路中段西,郑州市,金水区,113.753602,34.765515,河南省林州县新日电动车专卖店(直营),河南省,,
河南省内黄县党校中段路西,安阳市,内黄县,114.925783,35.948915,河南省内黄县新日电动车专卖店(直营),河南省,,
河南省禹州市大禹像北300米路东,许昌市,禹州市,113.47558,34.14502,禹州市新日电动车专卖店(直营),河南省,,
河南省鲁山县墨公路中段,平顶山市,鲁山县,112.910768,33.744399,北京新日电动车鲁山销售处(直营),河南省,,
河南省平顶山开源路与建设路交叉北新日电动车专卖店老板娘13213844934,平顶山市,新华区,113.315329,33.758636,河南平顶山市新日电动车专卖,河南省,,
河南省叶县昆阳大道中段汽车站北150米路东新日专卖,平顶山市,叶县,113.356778,33.619921,叶县大胜电动车专卖店(直营),河南省,,
河南省襄城县中心路中段大洋摩托,许昌市,襄城县,113.48677,33.849791,襄城县天河摩托车销售中心(直营),河南省,,
河南省许昌市工人文化宫,许昌市,魏都区,113.815375,34.038566,许昌市魏都区联统科技贸易公司(直营),河南省,,
河南省长葛市人民路北段摩托城门口（名优电动车超市）,许昌市,长葛市,113.775075,34.227635,长葛市众祥电动自行车经营部(直营),河南省,,
河南省濮阳市范县新区人民路中段路西,濮阳市,华龙区,115.021068,35.761635,范县新区阳光车业(直营),河南省,,
河南省郏县复兴路新汽车站北30米路东,平顶山市,郏县,113.234641,33.9674,郏县新日专卖店(直营),河南省,,
老汽车站对过（原中央商城）,信阳市,光山县,114.906228,32.020268,临沭县诚信商贸有限公司(直营),河南省,,
河南省舞阳县人民路中段(商贸城东88米),漯河市,舞阳县,113.604968,33.437346,鑫胜电动车行(直营),河南省,,
"河南焦作市修武县环城南路粮食局楼下""新日专卖店""",焦作市,修武县,113.44674,35.223785,修武县万通车行(直营),河南省,,
河南省武陟县城黄河大道林业局楼下,焦作市,武陟县,113.414004,35.091737,河南省武陟（吕慧芳）(直营),河南省,,
河南省长垣县春兰大卖场新日专卖店,新乡市,长垣县,114.668936,35.201548,长垣县玺冰阳商贸有限公司(直营),河南省,,
河南省获嘉县东环路新日专卖,新乡市,获嘉县,113.671608,35.262904,获嘉县飞龙摩托车销售有限公司(直营),河南省,,
河南省延津县卫生路中段北关口向西100米路南,新乡市,延津县,114.061471,35.206736,杨红艳,河南省,,
河南武陟县黄河大道中段,焦作市,武陟县,113.413964,35.095793,武陟县新日电动车专卖店(直营),河南省,,
河南省周口市中州路百胜电动车大世界,周口市,沈丘县,115.145972,33.18333,周口市中州商贸有限公司,河南省,,
河南省淮阳县大同街中段,周口市,淮阳县,114.881029,33.730876,河南淮阳（夏玉霞）(直营),河南省,,
河南省临颍县后环西段,漯河市,临颍县,113.931203,33.827304,临颍县新日电动车三轮车专卖店(直营),河南省,,
河南省沁阳市建设南路中心岗楼向南50米路东,焦作市,沁阳市,112.931137,35.080135,沁阳市屹峰车行(直营),河南省,,
河南扶沟县新建路新日专卖店,周口市,扶沟县,114.393036,34.05965,河南扶沟县谢留成(直营),河南省,,
河南省驻马店泌阳县花园路中段新日专卖店,驻马店市,泌阳县,113.328912,32.728665,泌阳县照华电动车门市部(直营),河南省,,
河南省延津县丰庄镇信用社向东200米路北,新乡市,延津县,114.36393,35.459707,丰庄镇新日电动车(直营),河南省,,
获嘉县东环路新日专卖店,新乡市,获嘉县,113.671608,35.262904,获嘉县新日专卖店(直营),河南省,,
长垣县金贝山新日电动车专卖店,新乡市,长垣县,114.693452,35.20328,长垣县新日电动车专卖店(直营),河南省,,
修武县七贤大道,焦作市,修武县,113.444883,35.222611,修武新日电动车(直营),河南省,,
洛阳市嵩县县城文化东路新日专卖,洛阳市,嵩县,112.085634,34.134517,嵩县宋红伟电动车行(直营),河南省,,
永宁大道与京宁公路交叉口，洛宁县自来水公司楼下,洛阳市,洛宁县,111.657889,34.384303,洛宁县城区小斌电动车门市,河南省,,
洛阳市吉利区坡底口高举摩电大楼,洛阳市,吉利区,112.625544,34.89919,洛阳精汇商贸有限公司(直营),河南省,,
河南西平县步行街西段709号新日电动车专卖店,驻马店市,正阳县,114.391023,32.598491,西平五交化商店（张大成）,河南省,,
宜阳县锦屏镇政府斜对面,洛阳市,宜阳县,112.195107,34.516268,宜阳新日专卖店(直营),河南省,,
三门峡卢氏县南环路中段新日专卖店,三门峡市,卢氏县,111.048817,34.049184,卢氏新日专卖店,河南省,,
河南省三门峡市建设路与春秋路交叉口,三门峡市,湖滨区,111.20924,34.779122,三门峡市百姓车行(直营),河南省,,
河南省宜阳县城关镇水么头村,洛阳市,宜阳县,112.184318,34.515194,宜阳县万融商贸有限公司(直营),河南省,,
河南省洛阳市建设路39号,洛阳市,涧西区,112.413193,34.662418,洛阳市得久商贸有限公司(直营),河南省,,
河南省汝阳县杜鹃大道中段新日电动车专卖店,洛阳市,汝阳县,112.476875,34.148536,汝阳新日电动车专卖店(直营),河南省,,
河南省义马市狂口新村6号楼,三门峡市,义马市,111.855482,34.750343,义马新日专卖店,河南省,,
河南三门峡市卢氏县南环路东段新日电动车专卖店,三门峡市,卢氏县,111.053545,34.051279,河南三门峡市卢氏县（郭双波）(直营),河南省,,
河南三门峡市建设路铁路桥西200米 王派电动车,三门峡市,湖滨区,111.211727,34.77795,王派电动车售后服务站(直营),河南省,,
河南省上蔡县白云大道北段新日电动车专卖,驻马店市,上蔡县,114.275542,33.266641,上蔡县卫东电动车销售部,河南省,,
河南省正阳县南环路中段新日电动车专卖店,驻马店市,正阳县,114.391023,32.598491,河南省正阳县新跃商贸有限责任公司(直营),河南省,,
河南省平舆县挚地大道新日专卖店,驻马店市,平舆县,114.640855,32.964612,河南省平舆县新日电动车零售店(直营),河南省,,
河南省西平县经贸路柏城商场,驻马店市,西平县,114.028114,33.38359,河南西平县柏城商贸有限责任公司(直营),河南省,,
河南省新蔡县驻新路西段新日专卖店,驻马店市,新蔡县,114.975529,32.751036,河南大洪河商贸有限公司,河南省,,
河南省泌阳县人民路中段铜山市场对面新日专卖,驻马店市,泌阳县,113.327748,32.726851,河南省泌阳县祥峰电动车商贸城(直营),河南省,,
河南省中牟县建设路北段路西,郑州市,中牟县,114.018803,34.730057,中牟县航宇电动车商行,河南省,,
河南省巩义市通桥路中段新日专卖店,郑州市,巩义市,112.977271,34.753792,河南省巩义市(赵根峰),河南省,,
河南信阳市平桥区平西大道,信阳市,平桥区,114.125656,32.101031,河南信阳市平桥区新日电动车商行(直营),河南省,,
河南省民权县县府路中段新日专卖店,商丘市,民权县,115.15882,34.641972,民权县电动车经营门市部,河南省,,
杞县电动车一条街,开封市,杞县,114.704723,34.660635,杞县新日电动车专卖店,河南省,,
河南省睢县中心大街南段路东新日专卖店,商丘市,睢县,115.079002,34.412847,睢县新日专门蒂娜,河南省,,
镇平县城老汽车站对面,南阳市,镇平县,112.235772,33.029944,镇平新日专卖(直营),河南省,,
中牟县建设路北段路西,郑州市,中牟县,114.018803,34.730057,郑州振昌商贸有限公司,河南省,,
巩义市城区金运摩托车商行,郑州市,巩义市,112.991432,34.743359,巩义市城区金运摩托车商行(直营),河南省,,
邓州市顺和摩托商行三孔桥,南阳市,邓州市,112.087278,32.687938,邓州市顺和摩托商行(直营),河南省,,
镇平县紫禁城路南段五金机电城,南阳市,镇平县,112.220621,33.024897,镇平新日专卖店(直营),河南省,,
巩义市通桥路14号,郑州市,巩义市,112.982567,34.758015,巩义新日电动车(直营),河南省,,
南阳邓州市赵集镇,南阳市,邓州市,112.000614,32.849364,邓州赵集镇新日专卖店(直营),河南省,,
邓州市穰东镇新日专卖,南阳市,邓州市,112.286816,32.850203,穰东新日专卖(直营),河南省,,
河南省内乡县马山口镇利民街,南阳市,内乡县,112.010203,33.20363,内乡县银燕摩托城(直营),河南省,,
河南南阳市西峡县城紫金路北段,南阳市,西峡县,111.476257,33.310787,西峡新日电动车专卖店(直营),河南省,,
河南南阳油田中南路新日专卖店,南阳市,方城县,113.294688,33.245177,河南油田新日电动车专卖店,河南省,,
河南邓州市新华西路邓州树新摩托大楼,南阳市,邓州市,112.071911,32.690516,邓州树新摩托大楼(直营),河南省,,
河南省南阳市镇平县城关镇卫生路中段,南阳市,镇平县,112.234616,33.032118,华龙摩托车经营有限公司,河南省,,
民权县和平路东段新日专卖店,商丘市,民权县,115.15882,34.641972,民权新日电动车行,河南省,,
明港镇杨楼路口南200米,信阳市,平桥区,114.05584,32.466827,信阳市明港鑫源摩托车行(直营),河南省,,
河南省杞县电动车批发市场,开封市,杞县,114.704723,34.660635,杞县诚信家电商场(直营),河南省,,
潢川县环城路717号,信阳市,潢川县,115.045465,32.136851,潢川新日电动车专卖店,河南省,,
河南省信阳市明港镇杨楼路口南200米,信阳市,平桥区,114.051965,32.495505,信阳市明港镇谢景文新日专卖店(直营),河南省,,
虞城县城关镇义合路（步行街）南段西侧,商丘市,虞城县,115.869928,34.398743,虞城新日专卖店,河南省,,
河南省商丘宁陵县张弓路54号(银鹰公司),商丘市,宁陵县,115.318391,34.447601,宁陵县银鹰摩托销售有限公司,河南省,,
河南省夏邑县县府路中段路南“北京新日专卖店”,商丘市,夏邑县,116.044331,34.04765,河南省夏邑县北京新日电动车销售部(直营),河南省,,
河南省民权县地下道南150米路东万发电动车自行车销售有限公司,商丘市,民权县,115.179594,34.647758,河南省民权县(杨海松)(直营),河南省,,
河南省商丘市睢县睢州大道中段豫安宾馆东侧,商丘市,睢县,115.082813,34.429831,睢县万祥摩托车有限公司(直营),河南省,,
河南兰考县中山南街南段,开封市,兰考县,114.81739,34.822769,兰考县阿伟电动车店,河南省,,
河南省信阳市民权路东关口菜场口对面,信阳市,浉河区,114.078813,32.111576,河南省信阳市,河南省,,
河南省信阳市罗山县江淮路运政大楼对面,信阳市,罗山县,114.538757,32.19571,罗山县思同车业有限公司(直营),河南省,,
京唐港商业街华龙市场10-2,濮阳市,华龙区,115.040992,35.757777,京唐港小鸟电动车(直营),河南省,,
兰考2路,开封市,兰考县,114.81739,34.822769,兰考县新日电动车商行,河南省,,
雁鸣湖镇,郑州市,中牟县,114.0850245952606,34.87176596155026,中牟-雁鸣湖新日专卖店,河南省,,
韩寺镇,郑州市,中牟县,114.08345952630043,34.675097199355356,中牟-韩诗新日专卖店,河南省,,
姚家镇,郑州市,中牟县,114.00988519191745,34.672164502290556,中牟-姚家新日专卖店,河南省,,
白鹤镇白鹤广场,洛阳市,孟津县,112.550725,34.862352,孟津白鹤新日电动车专卖店,河南省,,
孟庄镇,郑州市,新郑市,113.73746395111085,34.59845897740948,郑州华南城新日专卖店,河南省,,
新华路街道,郑州市,新密市,113.3961756527424,34.53894897176586,郑州-新密新日,河南省,,
016县道朱砂粮管所旁,开封市,通许县,114.534035,34.51667,朱砂镇新日电动车,河南省,,
011县道与013县道交叉口东150米,濮阳市,范县,115.675282,35.837421,张庄新日电动车,河南省,,
大梁路56号,开封市,龙亭区,114.326851,34.801998,开封新日电动车,河南省,,
青年路街道,郑州市,中牟县,114.01894032955171,34.73227229801385,中牟县彦胜电动车店,河南省,,
航海东路街道,郑州市,管城回族区,113.71508091688159,34.720880783767264,郑州美林河畔新日专卖店,河南省,,
031乡道与212省道交叉口北100米,濮阳市,濮阳县,115.025937,35.517102,庆祖芳战新日电动车行,河南省,,
梁庄乡人民路49号,濮阳市,濮阳县,115.18885,35.590524,梁庄新日电动车,河南省,,
徐镇镇昆吾大道,濮阳市,濮阳县,115.219264,35.53114,徐镇新日电动车,河南省,,
004乡道北50米,濮阳市,濮阳县,115.345826,35.616443,王称堌新日电动车,河南省,,
Z020附近,濮阳市,濮阳县,115.131831,35.724813,清河头新日电动车,河南省,,
西夏亭镇,周口市,西华县,114.3539871275425,33.74521223115895,西夏亭新日专卖店,河南省,,
刘寨街道,郑州市,中原区,113.61430361866952,34.80760740559362,郑州兴隆铺新日专卖店,河南省,,
华夏路梁园市场,商丘市,睢阳区,115.645302,34.428509,商丘新日电动车北店,河南省,,
222省道,鹤壁市,浚县,114.439232,35.591936,小河镇新日电动车,河南省,,
城关回族镇,周口市,淮阳县,114.87603351473811,33.73087689655348,淮阳新日电动车专卖店,河南省,,
人民路,鹤壁市,浚县,114.679292,35.756121,善堂镇新日电动车,河南省,,
民主路41号、老检查员西隔壁尚康分公司,洛阳市,偃师市,112.786076,34.728013,偃师新日,河南省,,
013乡道与215省道交叉口西200米,安阳市,内黄县,114.715117,35.825437,井店镇新日电动车,河南省,,
207省道西50米,商丘市,睢阳区,115.554527,34.178875,高辛镇新日电动车,河南省,,
洺南街道,周口市,郸城县,115.1951426267624,33.637911297503805,郸城县新日专卖店,河南省,,
梁庄镇南大街口,安阳市,内黄县,114.83593,35.70573,梁庄镇新日电动车,河南省,,
207省道东50米,商丘市,柘城县,115.546684,34.097282,十字河新日电动车,河南省,,
天桥街街道,漯河市,召陵区,114.05412286520004,33.568575118053914,漯河新日人民路店,河南省,,
206省道附近,商丘市,柘城县,115.466118,34.206638,四和新日电动车,河南省,,
206省道与327省道交叉口旁,商丘市,睢阳区,115.51442,34.267906,毛古堆新日电动车,河南省,,
长顺路南段东50米,安阳市,内黄县,114.760913,36.080498,田氏镇新日电动车,河南省,,
政府路北100米,商丘市,睢阳区,115.558662,34.331814,路河新日电动车c,河南省,,
325省道西50米,商丘市,睢阳区,115.670448,34.339561,曹吴镇新日电动车,河南省,,
泌水镇,驻马店市,泌阳县,113.329221,32.734016,泌阳新日电动车,河南省,,
东城街道,周口市,商水县,114.61370006203654,33.545098955480114,商水新日电动车专卖店,河南省,,
陈州回族街道,周口市,川汇区,114.64529916644098,33.61699702260226,周口市新日电动车专卖店,河南省,,
颍河路南50米,漯河市,临颍县,113.940147,33.815372,临颖新日电动车专卖店,河南省,,
真阳镇,驻马店市,正阳县,114.39091846346857,32.59860052719865,正阳新日电动车,河南省,,
瞿阳街道,驻马店市,遂平县,114.00161191821097,33.14534775244885,遂平新日电动车,河南省,,
柏城街道,驻马店市,西平县,114.03503090143202,33.38484943477132,西平新日电动车,河南省,,
新华街道,驻马店市,驿城区,114.04194027185439,32.982853858384004,驻马店新日电动车,河南省,,
汉城街道,南阳市,新野县,112.37401932477951,32.52070756631044,新野新日旗舰店,河南省,,
桂花大道486号,洛阳市,孟津县,112.450114,34.824215,孟津新日,河南省,,
G105(京珠线),商丘市,梁园区,115.695114,34.513649,双八新日电动车,河南省,,
302省道西50米,安阳市,汤阴县,114.640066,35.959851,任固镇新日电动车,河南省,,
刘口乡105国道东50米,商丘市,梁园区,115.725388,34.542507,刘口新日电动车,河南省,,
城关镇,濮阳市,台前县,115.8571667969227,35.998698649764464,台前县新日,河南省,,
凯旋路与022县道交叉口东50米,商丘市,梁园区,115.646904,34.505058,大乔庄新日电动车,河南省,,
丹江大道南50米,南阳市,淅川县,111.48983,33.130853,淅川城关新日电动车行,河南省,,
富民北路北侧(东方超市对面),商丘市,梁园区,115.481697,34.523216,谢集新日电动车,河南省,,
人民中路292号,南阳市,唐河县,112.834907,32.682022,唐河新日电动车专卖店,河南省,,
南二环路157号附近,南阳市,方城县,113.011492,33.24371,方城新日专卖店,河南省,,
325省道北50米,商丘市,梁园区,115.429733,34.421124,观堂新日电动车,河南省,,
后方乡,濮阳市,台前县,115.84660962224008,35.9293424804331,焦庙新日,河南省,,
清水河乡,濮阳市,台前县,115.74706748127937,35.8829132852676,台前清河乡镇新日,河南省,,
016乡道与325省道交叉口西100米,商丘市,梁园区,115.512283,34.407055,水池铺镇新日电动车,河南省,,
002乡道,濮阳市,清丰县,115.306762,35.847738,瓦屋头镇新日电动车,河南省,,
博爱县月山镇,焦作市,博爱县,113.05447429418565,35.19640067012783,月山新日电动车,河南省,,
侯庙镇,濮阳市,台前县,115.7579304277897,35.92690557640723,候庙新日,河南省,,
文昌中路849号3层,,济源市,112.593658,35.08797,济源新日,河南省,,
民生街道,焦作市,解放区,113.22874411940576,35.23896620690827,焦作大杨树店,河南省,,
打渔陈镇,濮阳市,台前县,115.93282654881477,35.99588629454753,台前打渔陈新日,河南省,,
015县道与Z042交叉口东南100米,濮阳市,清丰县,115.0692,35.829017,马庄桥镇新日电动车,河南省,,
小董乡,焦作市,武陟县,113.224558532238,35.07859770041164,小董镇新日电动车店,河南省,,
城关镇,周口市,扶沟县,114.39658060669899,34.058526018056725,扶沟新日电动车专卖店,河南省,,
箕子台街道,周口市,西华县,114.52069848775866,33.79367632363564,西华新日电动车专卖店,河南省,,
水寨街道,周口市,项城市,114.89198729395866,33.44256336104935,项城新日电动车专卖店,河南省,,
洺南街道,周口市,郸城县,115.1980420947075,33.641134697153944,郸城新日电动车专卖店,河南省,,
舞泉镇,漯河市,舞阳县,113.60969424247742,33.4303142808224,舞阳新日电动车专卖店,河南省,,
院岭街道,平顶山市,舞钢市,113.49457249045373,33.27947395613958,舞钢新日电动车专卖店,河南省,,
古槐街道,驻马店市,平舆县,114.64186996221542,32.96371165634686,平舆新日电动车,河南省,,
汝宁街道,驻马店市,汝南县,114.3468175828457,33.00270048131264,汝南新日电动车,河南省,,
盘龙街道,驻马店市,确山县,114.03351947665216,32.80838124925374,确山新日电动车,河南省,,
东风街道,驻马店市,驿城区,114.04615938663483,32.985845085417964,驻马店贸易广场新日电动车,河南省,,
天桥街街道,漯河市,源汇区,114.04730066657068,33.568722620180935,漯河新日人民路西店,河南省,,
城关镇,漯河市,郾城区,113.99646341800693,33.59088083400217,漯河新日郾城店,河南省,,
鹤源路与003乡道交叉口东南150米,鹤壁市,鹤山区,114.156431,35.972921,鹤壁集镇新日电动车,河南省,,
花洲街道,南阳市,邓州市,112.09589704871179,32.67972314370991,邓州新日专卖店,河南省,,
苟堂镇,郑州市,新密市,113.4950888156891,34.39486152143047,郑州-苟堂新日专卖店,河南省,,
城关街道,新乡市,辉县市,113.8060949742794,35.452389525102255,辉县灶君庙新日专卖店,河南省,,
丰鸣路与010乡道交叉口东北50米,洛阳市,伊川县,112.38121,34.468725,伊川雅岭新日专卖店,河南省,,
来集镇,郑州市,新密市,113.46173152327538,34.49058453409964,郑州-来集新日专卖店,河南省,,
彭婆镇彭江路,洛阳市,伊川县,112.487354,34.485607,伊川彭婆新日专卖店,河南省,,
豫港大道东段北50米,洛阳市,伊川县,112.475935,34.42451,伊川水寨新日专卖店,河南省,,
034县道西50米,开封市,尉氏县,114.147766,34.271545,蔡庄新日电动车,河南省,,
紫金南路173号附近,南阳市,西峡县,111.477537,33.300313,西峡新日电动车专卖店,河南省,,
040乡道东50米,安阳市,安阳县,114.730965,36.10891,辛庄村新日电动车,河南省,,
米河镇,郑州市,巩义市,113.23910549283029,34.72218038851983,郑州-米河新日专卖店,河南省,,
城关镇滨河小区南门,洛阳市,汝阳县,112.478111,34.146651,汝阳新日县城总店,河南省,,
213省道西50米,濮阳市,南乐县,115.091548,36.141537,梁村镇新日电动车,河南省,,
罗葛路南50米,洛阳市,汝阳县,112.502785,34.263527,汝阳陶营新日电动车专卖店,河南省,,
054乡道北200米,濮阳市,南乐县,115.071935,36.104618,元村镇新日电动车,河南省,,
内埠镇内埠村人民中路208号,洛阳市,汝阳县,112.531053,34.299792,汝阳内埠新日电动车专卖店,河南省,,
张良镇,平顶山市,鲁山县,113.04848626255989,33.676733677351095,张良镇新日专卖店,河南省,,
012县道西50米,濮阳市,南乐县,115.154782,36.091426,近德固镇新日电动车,河南省,,
马楼乡,平顶山市,鲁山县,112.99349159002305,33.680829444736624,鲁山县马楼乡新日专卖店,河南省,,
238省道西50米,洛阳市,汝阳县,112.57012,34.31971,汝阳大安新日专卖店,河南省,,
露峰街道,平顶山市,鲁山县,112.91150048375131,33.74672101570384,鲁山县新日专卖店,河南省,,
新华路街道,郑州市,巩义市,112.98333942890169,34.75789333286768,郑州-巩义市新日专卖店,河南省,,
玉皇庙乡,驻马店市,平舆县,114.63346660137175,33.03865801499881,玉皇庙新日专卖店,河南省,,
铜钟镇,驻马店市,正阳县,114.51509535312653,32.41155274587879,铜钟镇新日专卖店,河南省,,
涧头乡,驻马店市,新蔡县,115.09534165263177,32.76061312915537,涧头新日专卖店,河南省,,
化庄乡,驻马店市,新蔡县,115.11874660849573,32.816173112518086,化庄新日专卖店,河南省,,
宋岗乡,驻马店市,新蔡县,115.06223246455194,32.678301960314165,宋岗新日专卖店,河南省,,
小柏路附近,洛阳市,汝阳县,112.581542,34.088955,汝阳刘店镇卫晓车行,河南省,,
016县道与218省道交叉口北200米,开封市,通许县,114.471619,34.363625,邸阁新日电动车,河南省,,
326省道西50米,开封市,通许县,114.55661,34.362488,练城新日电动车,河南省,,
243省道南50米,洛阳市,汝阳县,112.424074,34.112747,汝阳上店新日专卖店,河南省,,
016县道与020县道交叉口西北50米,开封市,通许县,114.439247,34.512424,冯庄镇新日电动车,河南省,,
301省道兄弟拉面对面,安阳市,安阳县,114.575518,36.089289,永河镇新日电动车,河南省,,
兴太路与建设路交叉口西100米,南阳市,社旗县,112.942,32.869989,社旗太和新日专卖店,河南省,,
河南街,南阳市,社旗县,112.943936,33.043186,社旗新日专卖店,河南省,,
紫金城路西50米,南阳市,镇平县,112.220672,33.025981,镇平新日专卖店,河南省,,
崔桥镇,周口市,扶沟县,114.57659840583803,34.209507509888624,扶沟县崔桥新日店,河南省,,
五里口乡,周口市,太康县,114.75493580102922,33.920394583022414,太康县五里口新日店,河南省,,
柴岗乡,周口市,扶沟县,114.32692095637323,33.994119013215695,扶沟县汴岗新店,河南省,,
大新镇,周口市,太康县,114.60631594061852,34.04500334657551,扶沟县大新新日店,河南省,,
练集镇,周口市,商水县,114.73959758877756,33.53515380556497,商水县练集新日店,河南省,,
吕河乡,驻马店市,正阳县,114.45710867643356,32.54414066258639,吕河新日专卖店,河南省,,
油坊店乡,驻马店市,正阳县,114.63123366236688,32.64431551167786,油坊店新日专卖店,河南省,,
龙山街道,平顶山市,郏县,113.23253676295282,33.97523569067683,郏县新日专卖店,河南省,,
蓼城街道,信阳市,固始县,115.68386122584346,32.1831369944214,固始新日专卖店,河南省,,
宝河公路与027乡道交叉口西50米,安阳市,龙安区,114.263952,36.01245,马投涧镇新日电动车,河南省,,
中兴路街道,平顶山市,新华区,113.30940887331963,33.739572732710855,平顶山新日专卖店,河南省,,
尉州大道竖岗镇中心卫生院向西100米路南,开封市,通许县,114.344704,34.442451,竖岗新日电动车,河南省,,
安濮南线与303省道交叉口西150米,安阳市,安阳县,114.451409,36.038787,高庄镇新日电动车,河南省,,
福华街街道,郑州市,二七区,113.65694001317026,34.73597874829808,郑州京广路新日专卖店,河南省,,
025县道往北100米路东,开封市,尉氏县,114.352951,34.291981,永兴镇新日电动车,河南省,,
小扶线东50米,开封市,尉氏县,114.263161,34.321991,小陈镇新日电动车,河南省,,
城关镇酒城北路467号金奥KTV向南20米,洛阳市,伊川县,112.429589,34.428475,伊川新日,河南省,,
032县道东50米,开封市,尉氏县,114.303719,34.38015,郭家镇新日电动车,河南省,,
032县道与325省道交叉口东南50米,开封市,尉氏县,114.288139,34.429352,十八里新日电动车,河南省,,
水坡镇十字路口向南200米,开封市,尉氏县,114.268394,34.492218,水坡镇新日电动车,河南省,,
人民路北50米,开封市,尉氏县,114.17955,34.516834,庄头新日电动车,河南省,,
102省道北50米,开封市,尉氏县,114.054947,34.423523,大营新日电动车,河南省,,
向阳路与毅然路交叉口南150米,南阳市,邓州市,112.126585,32.496172,邓州构林新日专卖店,河南省,,
慎水乡,驻马店市,正阳县,114.44401279091838,32.59750345132325,王牌寺新日专卖店,河南省,,
尚店镇王东村,平顶山市,舞钢市,113.399151,33.183146,舞阳县王店新日店,河南省,,
真阳镇,驻马店市,正阳县,114.39372941851619,32.60248368372213,张店新日电动车,河南省,,
址坊镇,周口市,西华县,114.16106522083284,33.68396977291373,西华县址坊新日店,河南省,,
皮店乡,驻马店市,正阳县,114.45276349782944,32.359406138952,皮店新日专卖店,河南省,,
王勿桥乡,驻马店市,正阳县,114.6223944425583,32.54869880594514,王勿桥新日电动车,河南省,,
裴城镇,漯河市,郾城区,113.78052413463591,33.67168345035352,漯河市三丁新日店,河南省,,
邓襄镇,漯河市,召陵区,114.12873387336732,33.52136820641197,漯河市邓襄新日店,河南省,,
留庄镇,驻马店市,确山县,114.17603060603142,32.66079550636094,留庄新日专卖店,河南省,,
郝岗乡,周口市,商水县,114.30997610092166,33.69059377055174,商水县郝岗新日店,河南省,,
巨陵镇,漯河市,临颍县,114.03685078024866,33.84428504997083,临颖县巨陵新日店,河南省,,
008乡道与249省道交叉口东150米附近,南阳市,邓州市,111.883492,32.901701,邓州十林新日专卖店,河南省,,
赵堤镇,新乡市,长垣县,114.90358650684358,35.324703216582826,赵堤新日电动车店,河南省,,
方里镇,新乡市,长垣县,114.84047815203668,35.272685042065774,长垣方里新日电动车店,河南省,,
孟扣路与207国道交叉口旁,洛阳市,孟津县,112.625179,34.813486,洛阳会盟新日专卖,河南省,,
恼里镇,新乡市,长垣县,114.74804922938347,35.059279198418935,长垣恼里镇新日电动车店,河南省,,
竹沟镇,驻马店市,确山县,113.73116478323938,32.785041022472086,竹沟新日专卖店,河南省,,
023县道北50米,开封市,尉氏县,114.106041,34.366402,门楼任新日电动车,河南省,,
038县道,开封市,尉氏县,114.006927,34.367729,大马新日电动车,河南省,,
老君庙镇,驻马店市,汝南县,114.26287785172464,32.93720004763366,老君庙新日专卖店,河南省,,
棉纺路街道,郑州市,中原区,113.62735256552695,34.75473438577836,郑州建设路新日专卖店,河南省,,
220省道3a号附近,开封市,尉氏县,114.000061,34.28598,洧川镇新日电动车,河南省,,
南阳路街道沙口路与二环支路交叉口像西300米京沙新生活广场后面,郑州市,中原区,113.63425,34.766889,郑州二环路新日专卖店,河南省,,
长兴路街道,郑州市,惠济区,113.61123248934747,34.83523931531978,郑州江山路新日专卖店,河南省,,
城关镇,信阳市,罗山县,114.53961074352266,32.19860746104309,罗山新日电动车,河南省,,
丰庆路街道,郑州市,金水区,113.65169361233714,34.82983432798888,郑州三全路新日专卖店,河南省,,
五里堡街道,郑州市,二七区,113.64329963922502,34.752823753619445,郑州大学路新日专卖店,河南省,,
常村镇,新乡市,辉县市,113.87012600898743,35.465297005899224,辉县常村镇新日电动车店,河南省,,
新集镇,信阳市,新县,114.8794037103653,31.631977367690094,新县新日电动车,河南省,,
民权街道,信阳市,浉河区,114.08002361655237,32.121487807718246,信阳新日电动车,河南省,,
滨湖街道,信阳市,淮滨县,115.41682049632071,32.45394318853851,淮滨新日电动车,河南省,,
淮河街道,信阳市,息县,114.74988251924518,32.35381086500903,息县新日电动车,河南省,,
曹里乡,周口市,扶沟县,114.42321896553041,34.263751599813375,扶沟县曹里新日店,河南省,,
江村镇,周口市,扶沟县,114.50442552566528,34.29068048476291,扶沟县江村新日店,河南省,,
吴台镇,周口市,郸城县,115.25188878178595,33.76556910617216,郸城县吴台新日店,河南省,,
韭园镇,周口市,扶沟县,114.33704629540445,34.06473550160034,扶沟县韭园新日店,河南省,,
新华路街道,郑州市,巩义市,112.98477709293365,34.76018726752771,郑州-巩义新日专卖店（2店）,河南省,,
白沙镇,郑州市,中牟县,113.90137106180192,34.72972077934757,中牟-白沙新日专卖店,河南省,,
任店镇,驻马店市,确山县,113.98437604308128,32.6622022908282,任店新日专卖店,河南省,,
永兴镇,驻马店市,正阳县,114.54038053750992,32.49970813012119,永兴新日电动车,河南省,,
黄店镇,郑州市,中牟县,114.01069521903993,34.54889198703388,中牟-黄店新日专卖店,河南省,,
东姚路东50米,安阳市,林州市,113.95814,35.919504,东姚镇新日电动车,河南省,,
兴林街北50米,安阳市,林州市,113.889297,35.774542,临淇镇新日电动车,河南省,,
林州市,安阳市,林州市,113.862528,35.954287,采桑镇西岗新日电动车,河南省,,
政府路南50米,安阳市,林州市,113.819274,35.927251,桂林镇新日电动车,河南省,,
商业路东50米,安阳市,林州市,113.750604,35.911903,原康镇新日电动车,河南省,,
昌平路与228省道交叉口西南150米,安阳市,林州市,113.737475,35.962879,合涧镇新日电动车,河南省,,
002县道南50米,,济源市,112.606145,35.166428,济源大社新开乡镇,河南省,,
羊册镇,驻马店市,泌阳县,113.25843885540964,32.98031477945528,羊册新日电动车,河南省,,
吕潭乡,周口市,扶沟县,114.53094586730003,34.0697525297264,扶沟县吕潭新日店,河南省,,
白寺镇,周口市,商水县,114.50944125652313,33.47018207418857,商水县白寺新日店,河南省,,
双河镇杨店乡杨店街,驻马店市,确山县,114.185174,32.520005,杨店新日电动车,河南省,,
石滚河镇,驻马店市,确山县,113.78411829471591,32.74965939007049,石滚河新日电动车,河南省,,
兴宝大道南50米,安阳市,文峰区,114.365956,36.006981,宝莲寺镇新日电动车,河南省,,
瓦岗镇,驻马店市,确山县,113.83415356278421,32.782586470535975,瓦岗新日电动车,河南省,,
美合商业街与320省道交叉口西100米,洛阳市,偃师市,112.708182,34.634669,偃师高龙镇新日电动车专卖店,河南省,,
泼陂河镇,信阳市,光山县,114.91197645664217,31.80873594755218,泼河新日电动车,河南省,,
白雀园镇,信阳市,光山县,115.10143831372264,31.78580373632654,白雀镇新日电动车,河南省,,
寨河镇,信阳市,光山县,114.8518104851246,32.123520887971175,寨河镇新日电动车,河南省,,
鲇鱼山街道,信阳市,商城县,115.39476469159126,31.80465121848043,商城新日电动车,河南省,,
府金路南50米,洛阳市,偃师市,112.850319,34.57748,偃师付店镇新日电动车专卖,河南省,,
003乡道与004县道交叉口东北50米,南阳市,唐河县,112.96987,32.68807,唐河古城新日专卖店,河南省,,
桐寨铺镇,南阳市,唐河县,112.72462,32.799721,唐河桶寨铺新日专卖店,河南省,,
河南省南阳市唐河县源潭镇240省道,南阳市,唐河县,112.851472,32.785579,唐河刘岗新日专卖店,河南省,,
惠苑街与平原路交叉口向东100你路北,安阳市,文峰区,114.378966,36.094051,华中市场新日电动车,河南省,,
平原路东方玻璃大全斜对面,安阳市,文峰区,114.377959,36.102667,平原路新日电动车,河南省,,
310国道,洛阳市,偃师市,112.812306,34.667657,偃师顾县镇新日电动车专卖店,河南省,,
内宝线与005乡道交汇处,安阳市,内黄县,114.798815,35.967741,东庄乡新日电动车,河南省,,
内高线与吕辛路交叉口东100米,安阳市,安阳县,114.640651,36.021575,辛村镇新日电动车,河南省,,
化工路535号附近,安阳市,北关区,114.367207,36.133326,北晨路新日电动车,河南省,,
钢城购物中心,安阳市,殷都区,114.297803,36.103139,安钢新日电动车,河南省,,
城关镇老城后路,洛阳市,新安县,112.153481,34.720849,新安新日,河南省,,
中心街与通政街交叉口南200米,南阳市,社旗县,113.126584,33.045295,社旗下洼新日专卖店,河南省,,
G234国道,南阳市,社旗县,112.887253,32.85397,社旗李店新日专卖店,河南省,,
建设路与西环路交叉口东南50米,南阳市,社旗县,113.041576,33.093672,社旗陌坡新日专卖店,河南省,,
赵村乡,周口市,鹿邑县,115.34800171852113,33.87890459985138,鹿邑县赵村新日店,河南省,,
邱集乡,周口市,鹿邑县,115.20805478096008,33.873404184400954,鹿邑县邱集新日店,河南省,,
范集镇,周口市,项城市,114.79120597243309,33.31663614765353,项城市范集新日店,河南省,,
寨河镇,信阳市,光山县,114.80222046375275,32.12415806190132,耿寨新日电动车,河南省,,
鄢望路附近,许昌市,鄢陵县,114.191567,34.088608,鄢陵新日专卖店,河南省,,
曲梁镇,郑州市,新密市,113.60899284482004,34.46687331411096,郑州-曲梁新日专卖店,河南省,,
安辛路附近,安阳市,北关区,114.39109,36.197768,辛店集新日电动车,河南省,,
107国道373号附近,安阳市,安阳县,114.340989,36.191519,柏庄镇新日电动车,河南省,,
018县道东50米,安阳市,安阳县,114.282194,36.226568,安丰镇新日电动车,河南省,,
平桥街道,信阳市,平桥区,114.12527918815614,32.10087958625993,平桥新日电动车,河南省,,
文化路与昆阳大道交叉口,平顶山市,叶县,113.358808,33.624039,叶县昆阳镇新阳光电动车行,河南省,,
府前街与206省道交叉口东南100米,商丘市,柘城县,115.439934,34.171303,胡襄镇,河南省,,
g207邓州龙堰乡客运站西南侧50米,南阳市,邓州市,112.093118,32.598763,邓州龙堰新日专卖店,河南省,,
文清线附近,南阳市,邓州市,111.954583,32.7408,邓州文渠新日专卖,河南省,,
335省道北100米,南阳市,淅川县,111.794917,32.701008,邓州九重新日专卖,河南省,,
231省道东200米,南阳市,邓州市,111.99403,32.611,邓州陶营新日专卖店,河南省,,
阳城镇,驻马店市,平舆县,114.54694256186487,33.09615820308665,后刘镇新日电动车,河南省,,
永丰镇,周口市,项城市,114.85736131668091,33.339984861628956,项城市永丰新日店,河南省,,
南顿镇,周口市,项城市,114.85145241022111,33.37470557327613,项城市南顿新日店,河南省,,
006县道南50米,开封市,兰考县,114.790222,34.926277,坝头镇新日电动车,河南省,,
220国道北50米,开封市,兰考县,115.060402,34.970554,孟寨镇新日电动车,河南省,,
三义寨乡薛楼村,开封市,兰考县,114.785767,34.85313,薛楼镇新日电动车,河南省,,
兰考10路,开封市,兰考县,115.125397,34.845001,张君墓镇新日电动车,河南省,,
234省道,平顶山市,叶县,113.222732,33.527627,叶县夏李乡新日分销,河南省,,
大封镇,焦作市,武陟县,113.22164833545686,34.98421311087179,武陟大封新日电动车店,河南省,,
辛店镇,郑州市,新郑市,113.61113458871843,34.38092344552555,辛店新日专卖店,河南省,,
谢旗营镇,焦作市,武陟县,113.50397229194643,35.137160768650666,武陟谢旗营新日专卖店,河南省,,
南寨镇,新乡市,辉县市,113.71064990758896,35.767367555935664,辉县南寨新日电动车店,河南省,,
南村镇,新乡市,辉县市,113.75421434640886,35.68818682657446,辉县南村镇新日专卖店,河南省,,
姚集乡,周口市,商水县,114.54546198248863,33.465061573061796,商水县姚集新日店,河南省,,
晋庄镇南阳路139号,南阳市,社旗县,112.819572,32.919619,社旗晋庄新日专卖店,河南省,,
毕店镇,南阳市,唐河县,113.063841,32.636689,唐河毕店新日专卖店,河南省,,
胡吉镇,周口市,商水县,114.68619480729105,33.36226098494847,商水县胡吉新日店,河南省,,
大武乡,周口市,商水县,114.38223212957382,33.47965817470864,商水县舒庄新日店,河南省,,
大武乡,周口市,商水县,114.33454513549805,33.493273709844004,商水县大武乡新日店,河南省,,
谭庄镇,周口市,商水县,114.34787169098855,33.58062588143825,商水县谭庄新日店,河南省,,
郝岗乡,周口市,商水县,114.29195702075958,33.70186432888685,商水县郝岗新日店,河南省,,
孟庄镇,郑州市,新郑市,113.8165730237961,34.57954315076035,港区新日专卖店,河南省,,
薄壁镇,新乡市,辉县市,113.51443693041801,35.44274579625329,辉县薄壁新日电动车店,河南省,,
高庄乡,新乡市,辉县市,113.7566390633583,35.55288003788328,辉县高庄新日电动车店,河南省,,
吴村镇,新乡市,辉县市,113.49542409181596,35.360591295217255,辉县吴村新日电动车店,河南省,,
古固寨镇,新乡市,新乡县,114.00263786315918,35.25033624546274,新乡县古固寨新日店,河南省,,
朗公庙镇,新乡市,新乡县,113.91353890299798,35.200538778531154,新乡县朗公庙新日店,河南省,,
小店镇,新乡市,红旗区,114.01192501187326,35.298407707122266,新乡县小店新日店,河南省,,
牧野乡,新乡市,牧野区,113.93253564834595,35.34965240416209,前辛庄新日店,河南省,,
宝西街道,新乡市,凤泉区,113.90582352876665,35.383308739206065,新乡县北站新日店,河南省,,
新建路街道,郑州市,新郑市,113.73379603028299,34.39869369815551,新郑市新建路新新电动车店,河南省,,
薛店镇,郑州市,新郑市,113.80188122391701,34.489747769233624,薛店新日专卖店,河南省,,
百泉镇,新乡市,辉县市,113.80894616246225,35.481311593180195,辉县市城北新日店,河南省,,
院岭街道,平顶山市,舞钢市,113.49403202533722,33.28023634754256,舞阳县李辉庄新日店,河南省,,
尹集镇,平顶山市,舞钢市,113.57986137270929,33.29516666502301,舞钢市尹集新日店,河南省,,
朱兰街道,平顶山市,舞钢市,113.52792441844939,33.32200633437624,舞钢市朱兰新日店,河南省,,
鲁台镇,周口市,淮阳县,115.04871144890785,33.48997096758718,淮阳县鲁台新日店,河南省,,
大连乡,周口市,郸城县,115.09477972984317,33.67772917881573,淮阳县大连新日店,河南省,,
四通镇,周口市,淮阳县,115.03961071372034,33.893304210693636,淮阳县四通新日店,河南省,,
刘振屯乡,周口市,淮阳县,114.90375682711604,33.62983049585969,淮阳县刘振屯新日店,河南省,,
朱集乡,周口市,淮阳县,114.94540080428122,33.53101086647304,淮阳县朱集新日店,河南省,,
新安店镇,驻马店市,确山县,114.04763326048854,32.60031108008301,新安店新日专卖店,河南省,,
新安店镇顺山店乡,驻马店市,确山县,114.146419,32.584601,顺山店新日专卖店,河南省,,
唐庄乡,郑州市,登封市,113.14490363001822,34.49357891184508,唐庄新日专卖店,河南省,,
豫龙镇,郑州市,荥阳市,113.4293478727341,34.76846451425546,作废（豫龙新日专卖店),河南省,,
嵩阳街道,郑州市,登封市,113.02977651357651,34.455081527482335,登封新日专卖店,河南省,,
紫荆山南路街道,郑州市,管城回族区,113.68920832872391,34.72066032291923,郑州航母城新日专卖店,河南省,,
大金店镇,郑州市,登封市,112.9675291478634,34.369212517327604,登封-大金店梅村新日,河南省,,
京城路街道,郑州市,荥阳市,113.4158456325531,34.789972880233734,做废(冯寨新日专卖店),河南省,,
丰庆路街道,郑州市,金水区,113.6689308285713,34.814153454238436,陈寨新日专卖店,河南省,,
大许寨乡,周口市,太康县,114.78791356086731,33.99451373786198,太康县大许寨新日店,河南省,,
符草楼镇,周口市,太康县,114.91015791893007,34.0059432786202,太康县付草楼新日,河南省,,
杨庙乡,周口市,太康县,114.91201400756837,34.15961426115747,太康县杨庙新日店,河南省,,
芝麻洼乡,周口市,太康县,114.72664117813113,34.12250775366773,太康县芝麻洼新日店,河南省,,
安岭镇,周口市,淮阳县,114.8650351166725,33.90548754002822,太康县老冢新日店,河南省,,
人民路与八一路交叉口向南100米路东,许昌市,长葛市,113.775547,34.227197,长葛市世华新日专卖店,河南省,,
劳动路1060号,许昌市,魏都区,113.825899,34.038887,许昌市魏都区扬旗电动车商行,河南省,,
政府路18,许昌市,长葛市,113.93315,34.22684,长葛董村新日专卖,河南省,,
长葛市,许昌市,长葛市,113.833592,34.188842,长葛台庙新日分销商,河南省,,
古桥乡德星路600,许昌市,长葛市,114.021801,34.23008,长葛古桥镇新日分销商,河南省,,
坡胡镇坡中村,许昌市,长葛市,113.659861,34.214569,长葛坡胡镇新日分销商,河南省,,
天宝路236号,许昌市,长葛市,113.676571,34.16288,长葛石固镇新日分销,河南省,,
长葛市,许昌市,长葛市,113.706535,34.182694,长葛朝阳新日分销,河南省,,
008乡道北50米,许昌市,长葛市,113.84927,34.230114,长葛老城镇新日分销,河南省,,
坡胡镇水磨河村,许昌市,长葛市,113.6051,34.232956,长葛水磨河村新日分销,河南省,,
南席镇民主路,许昌市,长葛市,114.099617,34.214075,长葛南席镇新日分销,河南省,,
永康大道083号,安阳市,安阳县,114.476127,36.139621,崔家桥镇新日电动车,河南省,,
上屯镇长秋村,南阳市,唐河县,112.691505,32.571772,唐河长秋新日专卖,河南省,,
上屯镇丁岗街,南阳市,唐河县,112.762921,32.560369,唐河丁岗新日专卖,河南省,,
都司镇都司村,南阳市,邓州市,112.011257,32.496318,邓州都司新日专卖,河南省,,
孟庙镇,漯河市,郾城区,114.02388498187067,33.630510531735844,漯河孟庙新日店,河南省,,
黑龙潭乡,漯河市,郾城区,114.0638203918934,33.61176012163725,漯河市黑龙潭新日店,河南省,,
老窝镇,漯河市,召陵区,114.20601904392242,33.65570157389729,漯河市五七新日店,河南省,,
李楼乡,周口市,郸城县,115.12090310454369,33.73055790979004,郸城县李楼新日店,河南省,,
谷旦镇,焦作市,孟州市,112.81319215893747,34.970688204812845,孟州谷旦新日店,河南省,,
城伯镇,焦作市,孟州市,112.84800454974174,34.95684670973432,孟州城伯新日电动车店,河南省,,
309省道附近,焦作市,孟州市,112.7344,35.008562,孟州墙冶新日店,河南省,,
郭楼镇,驻马店市,平舆县,114.5949849486351,33.0060678001351,丁字庙新日电动车,河南省,,
222省道北100米,安阳市,滑县,114.68868,35.509075,留固镇新日电动车,河南省,,
郭楼镇,驻马店市,平舆县,114.55861821770671,32.977044356205354,郭楼镇新日电动车,河南省,,
老爷庙乡老庙乡,安阳市,滑县,114.853361,35.411349,老庙乡新日电动车,河南省,,
五星乡,濮阳市,濮阳县,115.058847,35.623499,五星乡新日电动车,河南省,,
101省道南50米,安阳市,滑县,114.634852,35.580725,枣村乡新日电动车,河南省,,
府前街与林清线交叉口西北50米,安阳市,安阳县,114.14413,36.245956,伦掌镇新日电动车,河南省,,
301省道南50米,安阳市,安阳县,114.627899,36.090972,吕村镇新日电动车,河南省,,
002乡道与301省道交叉口东南50米,安阳市,安阳县,114.713972,36.083765,北郭乡新日电动车,河南省,,
铜冶镇南铜冶,安阳市,安阳县,114.075396,36.229125,铜冶镇新日电动车,河南省,,
马堽集乡,信阳市,固始县,115.41952013969421,32.08155643291284,马罡镇新日电动车,河南省,,
陈淋子镇,信阳市,固始县,115.88290929794313,31.845074559046928,陈淋子镇新日电动车,河南省,,
胡族铺镇,信阳市,固始县,115.4756735265255,32.183114293543575,胡族铺镇新日电动车,河南省,,
画圣路西50米,许昌市,禹州市,113.47571,34.145683,禹州新日专卖,河南省,,
G311(徐峡线),平顶山市,鲁山县,113.04864,33.679073,鲁山县张良镇新日分销,河南省,,
彭新镇,信阳市,罗山县,114.3529799580574,31.898430165087888,彭新镇新日电动车,河南省,,
双庙乡,驻马店市,平舆县,114.74015280604365,32.92296526292144,双庙新日电动车,河南省,,
尤店乡,信阳市,罗山县,114.4771608710289,32.263077035196574,尤店新日电动车,河南省,,
011县道南50米,平顶山市,宝丰县,112.91948,33.973765,宝丰县前营镇新日分销,河南省,,
杨店乡,信阳市,息县,114.81738433241847,32.429145217667475,杨寨新日电动车,河南省,,
定远乡,信阳市,罗山县,114.51201349496843,31.795474735839353,定远乡新日电动车,河南省,,
008乡道北50米,平顶山市,宝丰县,113.275284,33.839367,宝丰县李庄乡新日分销,河南省,,
南关大街178号,平顶山市,宝丰县,113.067391,33.871548,宝丰县城关镇如意电动车门市部,河南省,,
御花园大酒店对面,平顶山市,郏县,113.23489,33.971762,郏县新日专卖店,河南省,,
王集乡辛庄村238省道北50米,平顶山市,郏县,113.282923,33.962628,郏县王集乡新日分销,河南省,,
卫东区,平顶山市,新华区,113.309943,33.744392,平顶山市卫东区张棉电动车经营部,河南省,,
纸坊镇,平顶山市,汝州市,112.963565,34.098469,汝州市纸坊镇新日分销,河南省,,
向阳北路156,平顶山市,汝州市,112.934914,34.180123,汝州市米庙镇新日分销,河南省,,
汝州市,平顶山市,汝州市,112.782011,34.103915,汝州市胡庄村新日分销,河南省,,
城关镇范县新区建设路北段,濮阳市,范县,115.509364,35.863568,新区新日电动车,河南省,,
安陵镇未来大道尚客优快捷酒店东,许昌市,鄢陵县,114.18472,34.077003,汝州新日专卖 王佳宁,河南省,,
张老埠乡,信阳市,固始县,115.78052401542664,32.04350263941585,张老埠新日电动车,河南省,,
平氏镇,南阳市,桐柏县,113.0862329900265,32.52815254758253,平氏镇新日电动车,河南省,,
陈集镇,信阳市,固始县,115.88217169046402,32.28365763649611,陈集新日电动车,河南省,,
洪埠乡,信阳市,固始县,115.67619144916537,32.253018623705124,洪埠新日电动车,河南省,,
竹竿镇,信阳市,罗山县,114.65307354927063,32.168971681743145,竹竿镇新日电动车,河南省,,
徐集乡,信阳市,固始县,115.8275753259659,32.3891292605001,徐集新日电动车,河南省,,
吴城镇,南阳市,桐柏县,113.50176349282266,32.42287390631755,吴城新日电动车,河南省,,
毛集镇,南阳市,桐柏县,113.69009613990784,32.527402875851486,毛集新日电动车,河南省,,
石佛店镇,信阳市,固始县,115.79741388559341,32.07851221208519,石佛镇新日电动车,河南省,,
杨店乡,信阳市,息县,114.81738433241847,32.429145217667475,杨店新日电动车,河南省,,
赵集镇,信阳市,淮滨县,115.26627212762833,32.570640675095994,赵集新日电动车,河南省,,
黎集镇,信阳市,固始县,115.84942057728766,31.984935142143524,黎集新日电动车,河南省,,
淮滨县台头乡,信阳市,淮滨县,115.3374418616295,32.438910162202205,台头新日电动车,河南省,,
段集镇,信阳市,固始县,115.67130580544472,31.913742781088317,段集新日电动车,河南省,,
项店镇,信阳市,息县,114.87431555986406,32.376394889348084,项店新日电动车,河南省,,
子路镇,信阳市,罗山县,114.4560894370079,32.095539910180534,子路镇新日电动车,河南省,,
新集乡,南阳市,桐柏县,113.16525354981422,32.48240999568908,新集新日电动车,河南省,,
国营农牧场,周口市,扶沟县,114.44421261548997,34.055678324960446,扶沟县农牧场新日店,河南省,,
李寨镇,周口市,项城市,114.75725054740906,33.157843486792096,项城市李寨新日店,河南省,,
王明口镇,周口市,项城市,114.98772069811822,33.3200250519162,项城市孙店镇新日店,河南省,,
千佛阁街道,周口市,项城市,114.92453858256343,33.39368543330585,项城市韩腰庄新日店,河南省,,
王岗镇,漯河市,临颍县,114.02430072426796,33.90488203238262,临颖县王岗新日店,河南省,,
王孟乡,漯河市,临颍县,114.00539517402649,33.92913125301115,临颖县王孟新日店,河南省,,
秋渠乡,周口市,郸城县,115.36708831787111,33.57176088445352,郸城县秋渠乡杨桥集新日店,河南省,,
宜路镇,周口市,郸城县,115.23522019386292,33.561557301446555,郸城县宜路新日店,河南省,,
夏集乡,南阳市,邓州市,112.155168,32.786306,邓州夏集新日专卖店,河南省,,
桑庄镇二广高速入口处,南阳市,邓州市,112.237486,32.59322,邓州桑庄新日专卖店,河南省,,
002乡道与005乡道交叉口东100米,南阳市,邓州市,112.24932,32.537884,邓州小杨营新日专卖,河南省,,
经济路北50米,南阳市,方城县,112.849481,33.185994,方城赵河新日专卖店,河南省,,
103省道北50米,南阳市,方城县,113.160157,33.316478,方城独树新日专卖店,河南省,,
博望镇附近,南阳市,方城县,112.741243,33.163323,方城博望新日专卖店,河南省,,
广阳大道与018乡道交叉口东50米,南阳市,方城县,112.708134,33.280431,方城广阳新日专卖,河南省,,
晁陂镇,南阳市,镇平县,112.11188,33.03985,镇平晁陂新日专卖店,河南省,,
十字路乡,驻马店市,平舆县,114.66423019766809,33.13884149619924,十字路新日电动车,河南省,,
高杨店镇,驻马店市,平舆县,114.78696137666704,33.05609793075837,高杨店新日电动车,河南省,,
人民路,平顶山市,鲁山县,112.91166,33.747242,鲁山县新日电动车专卖店,河南省,,
西洋店镇,驻马店市,平舆县,114.61833089590074,32.83259882193123,西洋店新日,河南省,,
齐街镇,新乡市,原阳县,114.2201690375805,35.056165857510685,原阳县齐街新日店,河南省,,
蒋庄乡,新乡市,原阳县,113.82960990071297,34.935306083931934,原阳蒋庄新日店,河南省,,
太平镇,新乡市,原阳县,114.10715281963348,35.03038731505546,原阳太平镇新日店,河南省,,
原阳服务区,新乡市,原阳县,113.956017,34.97466,原阳包厂新日店,河南省,,
原武镇,新乡市,原阳县,113.77867072820665,35.00082608346346,原阳原武新日店,河南省,,
魏庄街道,新乡市,长垣县,114.79102760553359,35.09732788889689,长垣张庄新日店,河南省,,
满村镇,新乡市,长垣县,114.73677322268486,35.25565982389884,长垣满村新日店,河南省,,
慈周寨乡,安阳市,滑县,114.63846489787102,35.35695573580064,长垣慈周寨新日店,河南省,,
常村镇,新乡市,长垣县,114.561824798584,35.17944274483504,长垣常村镇新日店,河南省,,
芦岗乡中心街,新乡市,长垣县,114.813051,35.166987,长垣芦岗新日店,河南省,,
002乡道西50米附近,新乡市,长垣县,114.770867,35.109206,长垣总管新日店,河南省,,
佘家乡,新乡市,长垣县,114.86194521188739,35.37489132361606,长垣老岸新日店,河南省,,
汪棚镇,信阳市,固始县,115.61700582504272,32.10605763780451,汪棚新日电动车,河南省,,
郭陆滩镇,信阳市,固始县,115.66385060548784,32.03377809652822,郭陆滩新日电动车,河南省,,
紫水街道,信阳市,光山县,114.90128517150879,32.00479274363671,光山县新日电动车,河南省,,
007乡道北50米,开封市,祥符区,114.621605,34.864334,刘店新日电动车,河南省,,
013乡道东150米,开封市,祥符区,114.508492,34.863728,袁坊新日电动车,河南省,,
罗庄镇新集开发区(罗庄镇新集开发区十字路口北50米路东88号),商丘市,夏邑县,115.967598,34.116871,罗庄新日电动车,河南省,,
038县道南50米,洛阳市,伊川县,112.295312,34.314258,伊川县鸣皋新日电动车专卖店,河南省,,
010县道西100米,商丘市,夏邑县,115.965149,34.112759,新集镇新日电动车,河南省,,
202省道东50米,商丘市,夏邑县,116.044777,34.048058,业庙新日电动车,河南省,,
河南省济源市济源市王屋镇王屋大街,,济源市,112.275937,35.113232,济源王屋镇新日电动车专卖店,河南省,,
021县道与210省道交叉口东北150米,商丘市,宁陵县,115.319527,34.365009,程楼新日电动车,河南省,,
渠村乡渠村集,濮阳市,濮阳县,115.02132,35.39308,渠村镇新日电动车,河南省,,
平安街与行政路交叉口南150米中共河顺镇委员会附近,安阳市,林州市,113.92771,36.160946,河顺镇新日电动车,河南省,,
白衣阁乡,濮阳市,范县,115.490638,35.821383,白衣阁新日电动车,河南省,,
君山东路9号附近,洛阳市,栾川县,111.628796,33.778103,栾川新日,河南省,,
仰韶大街与澧泉路交叉口东北50米,三门峡市,渑池县,111.783148,34.756898,渑池县新日,河南省,,
南大桥乡,信阳市,固始县,115.69193467497827,32.09626362499001,南大桥新日电动车,河南省,,
万金店镇,驻马店市,平舆县,114.69742253422739,32.87707666509927,万冢新日电动车,河南省,,
万金店镇,驻马店市,平舆县,114.69742253422739,32.87707666509927,万金新日电动车,河南省,,
沈寨镇,驻马店市,遂平县,113.883014023304,33.23558823683863,沈寨新日电动车,河南省,,
张店街,驻马店市,遂平县,114.05343,33.227649,张店新日电动车,河南省,,
冯村乡,新乡市,封丘县,114.52124565839767,35.082906419724964,封丘冯村新日店,河南省,,
蚁蜂镇,驻马店市,驿城区,113.8065978884697,32.92258814393598,蚁蜂镇新日电动车,河南省,,
高新区县王什镇东王什村,濮阳市,华龙区,114.999172,35.837758,王什镇新日电动车,河南省,,
赵岗镇,新乡市,封丘县,114.58240807056428,35.12457598615863,封丘赵岗新日店,河南省,,
老君庙镇,驻马店市,汝南县,114.26287785172464,32.93720004763366,老君庙新日电动车,河南省,,
应举镇311省道,新乡市,封丘县,114.295312,35.044465,封丘獐鹿市新日店,河南省,,
梁祝镇,驻马店市,汝南县,114.35492053627968,32.78141498159007,马乡新日电动车,河南省,,
塔桥镇,驻马店市,上蔡县,114.4512386620045,33.277632977682536,塔桥新日电动车,河南省,,
叶埠口乡,周口市,西华县,114.48764562606813,33.66936303668205,西华县叶埠口新日店,河南省,,
李大庄乡,周口市,西华县,114.56980571150783,33.65478172756658,西华县李大庄新日店,河南省,,
奉母镇,周口市,西华县,114.14433360099792,33.76750452492343,西华县奉母新日店,河南省,,
长葛市,许昌市,长葛市,113.927416,34.270036,长葛市李河口村新日分销,河南省,,
长安路,许昌市,长葛市,113.872551,34.277752,长葛市大周镇新日分销,河南省,,
秋渠乡,周口市,郸城县,115.28808921575545,33.505025216255355,郸城县关帝庙新日店,河南省,,
宋集乡,驻马店市,西平县,113.98278549313545,33.46220863916172,宋集新日电动车,河南省,,
二郎乡,驻马店市,西平县,114.0108159184456,33.30396693402254,二郎新日电动车,河南省,,
重渠乡,驻马店市,西平县,114.10079330205917,33.317555109580795,重渠新日电动车,河南省,,
206省道东50米,周口市,川汇区,114.741927,33.664434,周口市搬口新日店,河南省,,
权寨镇,驻马店市,西平县,113.86305436491966,33.44145435608894,权寨新日电动车,河南省,,
许湾乡,周口市,川汇区,114.77394461631775,33.626296232811235,周口市许湾新日店,河南省,,
001乡道与004乡道交叉口东北200米,安阳市,内黄县,114.88821,36.123791,宋村乡新日电动车,河南省,,
张完集乡,周口市,郸城县,115.52499532699588,33.68770587747263,郸城县张集新日店,河南省,,
038乡道西100米,濮阳市,濮阳县,115.10913,35.437106,坝头镇新日电动车,河南省,,
张弓中心卫生院西250米,商丘市,宁陵县,115.247749,34.337074,张弓新日电动车,河南省,,
010乡道东50米,商丘市,永城市,116.469963,34.002857,丁集镇新日电动车,河南省,,
002县道,商丘市,永城市,116.342636,34.064339,顺河新日电动车,河南省,,
红旗东路与矿口路交叉口,洛阳市,宜阳县,112.193411,34.517469,宜阳新日,河南省,,
夏邑县,商丘市,夏邑县,116.136238,34.219044,孔组大道新日电动车,河南省,,
丹水镇兴隆街,南阳市,西峡县,111.67626,33.206466,西峡丹水新日专卖店,河南省,,
站集镇中学旁,商丘市,虞城县,115.877388,34.230247,占集镇新日电动车,河南省,,
008乡道与033县道交叉口南150米,商丘市,柘城县,115.374657,34.193501,马集镇新日电动车,河南省,,
202省道西50米,商丘市,夏邑县,116.081261,34.10001,会亭镇新日电动车,河南省,,
河南省南阳市新华西路梅溪桥头向西50米,南阳市,邓州市,112.071911,32.690516,韦氏车业,河南省,,
河南省商丘市夏邑县城关镇孔祖大道北段25号,商丘市,夏邑县,116.141747,34.238056,夏邑县新日电动车专卖店,河南省,,
周党镇,信阳市,罗山县,114.51986029744148,31.891146385986573,罗山县周党镇新日专卖店,河南省,,
定远乡,信阳市,罗山县,114.51334923505785,31.78302102771479,罗山县定远乡新日专卖店,河南省,,
G311(徐峡线),平顶山市,鲁山县,112.993995,33.680681,鲁山地区马楼乡镇分销,河南省,,
242省道南50米,平顶山市,鲁山县,113.022709,33.748425,鲁山地区程村新日专卖,河南省,,
梁洼镇梁洼街中段鸿祥超市东北侧45米,平顶山市,鲁山县,112.930628,33.844015,鲁山地区梁洼镇新日分销,河南省,,
002乡道西50米,平顶山市,鲁山县,113.181335,33.647975,鲁山地区张官营乡镇分销,河南省,,
陈州回族街道,周口市,川汇区,114.64517846703528,33.609973091790465,周口市交通路店,河南省,,
河南省焦作市温县大明广场,焦作市,温县,113.07977,34.95429,温泉镇大明广场欧派电动车店,河南省,,
桂花街与莲花街交叉口东南50米,商丘市,永城市,116.442253,33.928726,永城新日电动车二店,河南省,,
济水大道,,济源市,112.583305,35.090103,济源二店,河南省,,
八千乡,郑州市,新郑市,113.82800996303558,34.373206371344736,八千新日电动车,河南省,,
新村镇,郑州市,新郑市,113.7109261751175,34.426699886958474,新村新日电动车,河南省,,
龙湖镇,郑州市,新郑市,113.67865785956384,34.6051948996046,龙湖新日社区店2店,河南省,,
春水镇,驻马店市,泌阳县,113.48089054226874,33.031059993707714,春水新日,河南省,,
新城街道,焦作市,山阳区,113.30927073955537,35.24920927978495,焦作市葡萄园新日店,河南省,,
待王街道,焦作市,马村区,113.33054333925247,35.25615481898067,焦作市马村区新日店,河南省,,
濮阳县柳屯镇,濮阳市,濮阳县,115.22406354546548,35.725108215978466,柳屯镇新日电动车,河南省,,
赊湾镇,驻马店市,泌阳县,113.24880033731462,32.732816742219306,赊湾镇新日,河南省,,
官渡镇,郑州市,中牟县,114.0919715166092,34.73311543913435,中牟-官渡新日专卖店,河南省,,
江彭线与郑卢路交叉口北50米,洛阳市,伊川县,112.68752,34.409363,伊川县江左新日电动车专卖店,河南省,,
城关镇,安阳市,内黄县,114.90176126360895,35.95140151409681,内黄县楚旺镇新日电动车专卖店,河南省,,
新安大道与龙山大道交叉口西100米,洛阳市,新安县,112.105638,34.82723,新安县石寺新日电动车专卖店,河南省,,
梁园区,商丘市,梁园区,115.774918,34.346516,周集镇新日电动车,河南省,,
016县道东50米,商丘市,虞城县,115.775269,34.165459,杜集镇新日电动车,河南省,,
王楼乡,商丘市,梁园区,115.507401,34.454433,王楼镇新日电动车,河南省,,
325省道东50米,商丘市,虞城县,115.787148,34.267559,谷熟镇新日电动车,河南省,,
棠村镇,驻马店市,新蔡县,115.08731111884119,32.86244019346807,棠村新日,河南省,,
练村镇,驻马店市,新蔡县,115.13797804713252,32.656416945592994,练村新日,河南省,,
梁北镇商贸街郭村小学西100米路南,许昌市,禹州市,113.44166,34.121908,梁北镇新日分销,河南省,,
栎城乡,驻马店市,新蔡县,115.0194874405861,32.82200895427608,栎城新日,河南省,,
顺店镇,许昌市,禹州市,113.34200039505959,34.22693262522773,顺店新日分销,河南省,,
鸿畅镇,许昌市,禹州市,113.31567,34.088771,哄畅镇新日分销,河南省,,
濮阳县海通乡,安阳市,滑县,114.94964405894282,35.48605102835864,濮阳市两门镇新日电动车,河南省,,
西村乡,焦作市,修武县,113.28041687607765,35.3225137096046,西村乡新日专卖店,河南省,,
淮河路街道,周口市,川汇区,114.67056021094324,33.60146632187884,周口吴楼新日店,河南省,,
召陵镇,漯河市,召陵区,114.1609525680542,33.58445696776152,漯河黄庄新日店,河南省,,
柴岗乡,周口市,扶沟县,114.35631394386293,34.00699720940123,扶沟柴岗新日店,河南省,,
济阳镇镇政府对面,商丘市,夏邑县,115.986008,34.165485,济阳镇新日电动车专卖店,河南省,,
会亭镇202省道朱土楼村路段路西,商丘市,夏邑县,116.061615,34.074219,会亭新日电动车,河南省,,
建设中路与新华南街交叉口西北150米,焦作市,解放区,113.226243,35.230465,焦作摩配城新日店,河南省,,
太公镇,新乡市,卫辉市,114.01253923773768,35.50412929734447,太公泉新日店,河南省,,
029县道与237省道交叉口西200米,焦作市,温县,113.093736,35.034099,赵堡南孟丰电动车城,河南省,,
峪河镇,新乡市,辉县市,113.59482407569887,35.35129535586714,红刚车行,河南省,,
七贤镇方庄(厚和庄园对面),焦作市,修武县,113.407897,35.363926,焦作市方庄新日店,河南省,,
石象乡石东村,许昌市,长葛市,113.942543,34.189006,石象镇新日分销,河南省,,
长葛市,许昌市,长葛市,113.788455,34.270867,九牛站乡新日分销,河南省,,
大流乡,濮阳市,清丰县,115.09736940264702,36.00297992082637,清丰县刘庄村新日专卖店,河南省,,
曲沟镇,安阳市,安阳县,114.21356678009035,36.11012789818115,安阳曲沟镇新日专卖店,河南省,,
洪河屯乡,安阳市,安阳县,114.3027475476265,36.18938082162234,安阳洪河屯乡新日专卖店,河南省,,
北京路长虹桥南400米路东一楼门面,南阳市,社旗县,112.928211,33.046256,安皋新日专卖,河南省,,
万金镇,漯河市,召陵区,114.11116003990175,33.64314772550523,漯河市万金新日店,河南省,,
付集镇,周口市,项城市,115.01054897904396,33.208702918417515,项城付集新日店,河南省,,
九州路街道,鹤壁市,淇滨区,114.28050532937051,35.7536467510007,鹤壁市新日电动车专卖店,河南省,,
固墙镇,周口市,商水县,114.64528039097789,33.39936884257775,商水县固墙新日店,河南省,,
汝州市,平顶山市,汝州市,112.782011,34.103915,胡庄新日分销,河南省,,
汝州市,平顶山市,汝州市,112.866697,34.283908,朱洼新日分销,河南省,,
兴陵路69号,平顶山市,汝州市,112.78082,34.260272,陵头镇新日分销,河南省,,
十字路乡,驻马店市,平舆县,114.66424494981764,33.13968372085762,十字路新日,河南省,,
板桥镇,驻马店市,驿城区,113.62929850816727,32.994585322202404,板桥新日,河南省,,
阳光大道111,平顶山市,郏县,113.324594,33.831512,郏县李口新日分销,河南省,,
郭楼镇,驻马店市,平舆县,114.5949849486351,33.0060678001351,丁字庙新日,河南省,,
大刘镇,漯河市,源汇区,113.92898038029672,33.51580124686439,漯河大刘新日分销,河南省,,
阴阳赵镇,漯河市,源汇区,113.89895975589752,33.589590513171984,漯河新日阴阳赵分销,河南省,,
裴城镇,漯河市,郾城区,113.7782657146454,33.681822666833156,漯河裴新日分销,河南省,,
钱店镇,周口市,郸城县,115.15424966812135,33.52366465452916,郸城新品钱店分销,河南省,,
巴集乡,周口市,郸城县,115.09935021400453,33.59854415998745,郸城巴集新日分销,河南省,,
梧桐街道,郑州市,中原区,113.50600004196167,34.79848170955697,梧桐街新日专卖店,河南省,,
航海东路街道,郑州市,管城回族区,113.69052127003673,34.727155955285596,航海路新日专卖店,河南省,,
长兴路街道,郑州市,惠济区,113.63066375255585,34.819312849552965,长兴路新日专卖店,河南省,,
国基路街道,郑州市,金水区,113.66933986544612,34.828308538228924,三全路新日专卖店,河南省,,
棉纺路街道,郑州市,中原区,113.62988725304604,34.761752879901046,郑州嵩山路新日专卖店,河南省,,
固城乡,濮阳市,清丰县,115.04212394356729,35.86224700366608,清丰县古城乡,河南省,,
采桑镇,安阳市,林州市,113.9068052172661,35.9954989368397,林州市采桑镇,河南省,,
任村镇,安阳市,林州市,113.81417647004129,36.27480635627691,林州市任村镇,河南省,,
谷金楼乡,濮阳市,南乐县,115.25230452418329,36.1219377986817,南乐谷金楼,河南省,,
双庙乡,濮阳市,清丰县,115.1779255270958,35.81760218780177,清丰县双庙乡,河南省,,
石婆固乡,新乡市,延津县,114.2250157892704,35.24184692810432,延津县石婆固乡,河南省,,
嘉应观乡,焦作市,武陟县,113.49880769848826,35.03571321935647,武陟嘉应观乡,河南省,,
陈固乡,新乡市,封丘县,114.32613909244537,35.132914142970144,封丘陈固乡,河南省,,
黄陵镇,新乡市,封丘县,114.64737117290495,35.000498712700924,封丘黄陵镇,河南省,,
唐河县,南阳市,唐河县,112.744831,32.490051,唐河黑龙镇新日分销,河南省,,
大河屯镇,南阳市,唐河县,113.056727,32.737335,唐河大河屯新日分销,河南省,,
穰东镇仲景路,南阳市,邓州市,112.286816,32.850203,邓州穰东镇新日分销,河南省,,
240省道西100米,南阳市,唐河县,112.760255,32.561223,唐河丁岗新日分销,河南省,,
河南省南阳市宛城区瓦店镇荀营村,南阳市,宛城区,112.497048,32.708124,南阳界中新日分销,河南省,,
玉皇庙镇004乡道东50米,开封市,通许县,114.56797,34.32827,玉皇庙镇新日电动车,河南省,,
练城乡欧阳岗村016县道东侧,开封市,通许县,114.609985,34.37994,欧阳岗镇新日电动车,河南省,,
大岗李乡016县道东100米,开封市,通许县,114.419449,34.382469,大岗李镇新日电动车,河南省,,
清凉寺村,商丘市,梁园区,115.571609,34.444592,商丘市清凉寺新日电动车l,河南省,,
310国道附近,商丘市,梁园区,115.684868,34.462852,310新日电动车,河南省,,
焦南街道,焦作市,解放区,113.23330789804459,35.231056293791916,焦作新日铜马店,河南省,,
西村镇,郑州市,巩义市,112.96940803527832,34.645080402351404,郑州-巩义市西村镇,河南省,,
小关镇,郑州市,巩义市,113.17203551530838,34.69914602891379,郑州-巩义市小关镇,河南省,,
回郭镇,郑州市,巩义市,112.87475556135179,34.68075053742446,郑州-巩义市回郭镇,河南省,,
郑港街道,郑州市,新郑市,113.86116743087771,34.578992161256494,郑州-港区,河南省,,
西大街街道,郑州市,新密市,113.29916015267372,34.52524817813106,郑州-新密市王庄,河南省,,
超化镇,郑州市,新密市,113.40493574738504,34.44715231755508,郑州-新密市超化,河南省,,
华夏路与株州路交叉口南150米,商丘市,睢阳区,115.645332,34.42807,商丘市新日电动车南店,河南省,,
城关镇济阳镇,商丘市,夏邑县,115.976616,34.153797,济阳新日电动车,河南省,,
大冶镇,郑州市,登封市,113.25986847281457,34.4388562533416,登封-大冶镇,河南省,,
嵩阳街道,郑州市,登封市,113.02835226058961,34.45534139819063,登封-东华镇,河南省,,
东华镇,郑州市,登封市,113.03615614771843,34.40900528833476,登封-告城镇,河南省,,
嵩阳街道,郑州市,登封市,113.02835226058961,34.45534139819063,登封-宣化镇,河南省,,
大金店镇,郑州市,登封市,112.93325453996657,34.43645941004207,登封-送表乡,河南省,,
君召乡,郑州市,登封市,112.85888224840164,34.45223395503919,登封-石道乡,河南省,,
广惠街街道,郑州市,中牟县,113.99386167526244,34.743629182353736,中牟-新县城新日专卖店,河南省,,
青年路街道,郑州市,中牟县,114.00793924927711,34.73095631938902,中牟-九龙新日专卖店,河南省,,
张庄镇,郑州市,中牟县,113.8888317346573,34.594543236976776,中牟-三官庙,河南省,,
城关乡,郑州市,荥阳市,113.321902602911,34.77364219146381,荥阳-大王村新日专卖店,河南省,,
广武镇,郑州市,荥阳市,113.46673116087914,34.881774666322194,荥阳-广武新日专卖店,河南省,,
桐柏县八一路口东20米新日电动车,南阳市,桐柏县,113.406459,32.364273,桐柏芮一服装有限公司,河南省,,
河南省周口市太康县谢安路,周口市,太康县,114.853102,34.063223,周帅伟,河南省,,
河南省新乡市红旗区西大街,新乡市,红旗区,113.878086,35.303312,新乡市红旗区喜扬扬车行,河南省,,
龙湖镇,郑州市,新郑市,113.7213009595871,34.62365572229882,登封-大金店三里屯,河南省,,
苗寨镇,新乡市,长垣县,114.87615823745726,35.25349144698704,苗寨新日电动车店,河南省,,
河南省信阳市潢川县航空路三环路168号,信阳市,潢川县,115.049157,32.144582,潢川县春亮电动车销售商行,河南省,,
河南省三门峡市卢氏县南环路新日电动车专卖店,三门峡市,卢氏县,111.048817,34.049184,卢氏县城关镇王炯电动车经销部,河南省,,
洛阳市洛宁县西花坛摩托车电动车市场,洛阳市,洛宁县,111.644407,34.386974,洛宁县城区贺勤摩托车门市,河南省,,
梁村乡,濮阳市,南乐县,115.12080252170566,36.17416887074908,南乐县后翟村,河南省,,
青年路街道,郑州市,中牟县,114.03863176703454,34.74148576570956,中牟临时仓库,河南省,,
上蔡县兴业路西段北侧,驻马店市,上蔡县,114.284794,33.267465,上蔡县凯博电动车经营部,河南省,,
河南省洛阳市涧西区建设路新日电动车专卖店,洛阳市,涧西区,112.413642,34.662588,洛阳市涧西区鑫铭车行,河南省,,
确山县盘龙镇铁北路东段（县搬运公司楼下）,驻马店市,确山县,114.03324,32.796051,确山县峰源酒业有限公司,河南省,,
张果屯镇,濮阳市,南乐县,115.31448617577554,36.039374352230254,张果屯新日电动车,河南省,,
福坎镇,濮阳市,南乐县,115.41040197014809,36.11024274477058,福坎镇新日电动车,河南省,,
南阳路街道,郑州市,中原区,113.63569155335425,34.77470302437621,郑州-旧货市场新日专卖店,河南省,,
建设路50号里外文化创意产业园B02西,洛阳市,涧西区,112.413387,34.662658,洛阳市涧西区鑫铭车行,河南省,,
王褚街道,焦作市,解放区,113.22465240955353,35.2036224965835,焦作市金土地店,河南省,,
李封街道,焦作市,中站区,113.17042753100395,35.239833720028166,焦作市中站区新日店,河南省,,
阳庙镇,焦作市,山阳区,113.1486627459526,35.15147504697215,焦作市阳庙新日店,河南省,,
城关镇,焦作市,修武县,113.44023630023004,35.237962859455074,焦作市修武县新日店,河南省,,
河南省郑州市金水区龙子湖街道博学路,郑州市,金水区,113.793615,34.808551,姚桥新日电动车,河南省,,
马楼镇,濮阳市,台前县,115.82452163100244,35.914543973518825,台前马楼新日,河南省,,
河南省商丘市睢阳区勒马乡勒马镇人民政府,商丘市,睢阳区,115.423447,34.267666,勒马镇新日电动车专卖店,河南省,,
河南省商丘市梁园区观堂乡观堂镇人民政府,商丘市,梁园区,115.431183,34.420673,观塘镇苏堂新日电动车专卖店,河南省,,
河南省商丘市梁园区孙福集乡孙福集村,商丘市,梁园区,115.46946,34.594948,孙付集新日电动车专卖店,河南省,,
王助镇,濮阳市,华龙区,114.98091593384744,35.70069588422266,濮阳市南环路店,河南省,,
大金店镇,郑州市,登封市,112.94966295361522,34.381750232726084,登封-大金店镇新日电动车专卖店,河南省,,
徐庄镇郑庄村登徐线(徐庄镇人口和计划生育服务中心附近),郑州市,登封市,113.185154,34.322783,登封-徐庄镇,河南省,,
张三寨镇,新乡市,长垣县,114.7072407603264,35.29904144754908,长垣县张三寨新日店,河南省,,
河南省许昌市建安区许昌县河街乡人民政府,许昌市,建安区,113.767149,34.06711,许昌河街镇新日分销,河南省,,
河南省许昌市长葛市和尚桥镇长葛市和尚桥镇太平学校,许昌市,长葛市,113.721019,34.226358,长葛市和尚桥镇太平新日分销,河南省,,
河南省郑州市中原区枫杨街道莲花街裕华满园,郑州市,中原区,113.531597,34.827349,莲花街新日,河南省,,
河南省郑州市登封市卢店镇郑州朱屯米粉,郑州市,登封市,113.158928,34.458008,登封-卢店新日专卖店,河南省,,
刘寨街道,郑州市,金水区,113.63243266940117,34.800894550654846,郑州丰乐路新日专卖店,河南省,,
龙湖镇,郑州市,新郑市,113.72181862592699,34.61941228186742,大孟新日电动车,河南省,,
龙湖镇,郑州市,新郑市,113.72181862592699,34.61941228186742,万滩新日电动车,河南省,,
京城路街道,郑州市,荥阳市,113.38539585471153,34.794166831808745,荥阳-高村新日专卖店,河南省,,
京城路街道,郑州市,荥阳市,113.38539585471153,34.794166831808745,荥阳-刘河新日电动车专卖店,河南省,,
三阳乡,焦作市,武陟县,113.28877866268158,35.11233263884501,三阳乡新日电动车店,河南省,,
南关街道,许昌市,魏都区,113.82285743951797,34.020904979770634,五女店镇新日,河南省,,
南关街道,许昌市,魏都区,113.82078945636749,34.019631131242626,尚集镇新日电动车,河南省,,
河南省洛阳市宜阳县香鹿山镇323省道锦龙商务,洛阳市,宜阳县,112.204047,34.541393,宜阳县后庄新日电动车专卖店,河南省,,
河南省洛阳市宜阳县柳泉镇323省道,洛阳市,宜阳县,112.100724,34.522257,宜阳水兑新日电动车专卖店,河南省,,
工字路西50米,焦作市,山阳区,113.253112,35.249332,焦作工字路店,河南省,,
东姚镇,安阳市,林州市,113.9508926868439,35.91123766126157,东姚镇后街,河南省,,
合涧镇,安阳市,林州市,113.74236032366754,35.96927245877719,新商家合涧镇新日电动车,河南省,,
柳格镇,濮阳市,清丰县,115.14024451375008,35.833669170255256,清丰县柳格镇新日,河南省,,
河南省开封市兰考县堌阳镇固阳镇人民政府,开封市,兰考县,114.962105,34.95829,固阳镇新日电动车,河南省,,
河南省开封市兰考县爪营乡爪营二村,开封市,兰考县,114.88607,34.916042,爪营镇新日电动车,河南省,,
商都路街道,郑州市,管城回族区,113.74182522296904,34.745922411280866,中牟_刘集新日专卖店,河南省,,
杨楼乡,南阳市,方城县,113.28175261616707,33.295677824535844,方城县杨楼乡,河南省,,
券桥乡,南阳市,方城县,112.96572268009186,33.152425032188724,方城县券桥乡,河南省,,
拐河镇,南阳市,方城县,113.00268620252609,33.51475691288009,方城拐河镇,河南省,,
小史店镇,南阳市,方城县,113.32594603300095,33.15682404348555,方城县小史店,河南省,,
古庄店乡,南阳市,方城县,113.14915627241135,33.24122363706225,方城县古庄店,河南省,,
四里店乡,南阳市,方城县,112.85234168171881,33.41276301988316,方城县双桥,河南省,,
二郎庙乡,南阳市,方城县,113.07945236563681,33.1758872434666,方城县二郎庙,河南省,,
河南省郑州市中原区须水街道西四环410号,郑州市,中原区,113.528849,34.761204,郑州须水新日专卖店,河南省,,
棉纺路街道,郑州市,中原区,113.62525910139084,34.75503739431433,登封中岳庙新日电动车,河南省,,
大块镇,新乡市,凤泉区,113.79493832588197,35.36706577303079,新乡 市大块镇店,河南省,,
七百间街道,焦作市,解放区,113.21329995989801,35.24818196408981,焦作市太行路店,河南省,,
西陶镇,焦作市,武陟县,113.23277145624162,35.03854184719064,焦作市西陶镇店,河南省,,
赵河街道,南阳市,社旗县,112.92894691228865,33.049404082469124,社旗北京路店,河南省,,
河南省郑州市管城回族区紫荆山南路街道航海东路,郑州市,管城回族区,113.682246,34.720048,紫航新日专卖店,河南省,,
鸠山镇,许昌市,禹州市,113.17372664809228,34.218397397259174,鸠山镇新日电动车专卖店,河南省,,
范湖乡,许昌市,襄城县,113.68471160531047,33.84444099023514,范湖镇新日电动车,河南省,,
神垕镇,许昌市,禹州市,113.22987467050554,34.12234122050389,神垕镇新日电动车,河南省,,
洗耳河街道,平顶山市,汝州市,112.84488648176192,34.163411680532256,汝州市新日电动车专卖店,河南省,,
亳城乡,安阳市,内黄县,114.75080251693726,35.89349482922703,河村新日电动车,河南省,,
寺庄乡,濮阳市,南乐县,115.17737567424776,36.12679298232813,寺庄乡新日电动车,河南省,,
城关镇,濮阳市,濮阳县,115.02380982041359,35.70991767498952,濮阳县新日电动车,河南省,,
芳林街与中州路交叉口西250米,安阳市,龙安区,114.322669,36.109153,芳林街速修店,河南省,,
河南省三门峡市卢氏县城关镇伏牛路157号,三门峡市,卢氏县,111.054092,34.051719,卢氏县城关镇王炯电动车销售部,河南省,,
河南省洛阳市涧西区重庆路街道武汉路涧西区二号街坊,洛阳市,涧西区,112.367827,34.670083,洛阳武汉路新日专卖店,河南省,,
河南省开封市兰考县南彰镇兰考县南彰镇民政所,开封市,兰考县,115.141411,34.935425,南漳镇新日电动车,河南省,,
河南省商丘市梁园区张阁镇张阁镇政府,商丘市,梁园区,115.771248,34.401424,张阁新日电动车,河南省,,
观音寺镇,郑州市,新郑市,113.68921771645546,34.329028716372925,新郑观音寺新日专卖店,河南省,,
青山镇,信阳市,罗山县,114.30038049817085,32.06392945453262,青山镇雅马哈专卖,河南省,,
朱堂乡,信阳市,罗山县,114.24431160092357,31.984623464437373,朱堂新日电动车,河南省,,
灵山镇,信阳市,罗山县,114.31379154324532,31.965183603808047,涩港新日电动车,河南省,,
彭新镇,信阳市,罗山县,114.34975460171702,31.89774359928582,彭新新日电动车,河南省,,
铁铺镇,信阳市,罗山县,114.2798160016537,31.820987911518323,铁铺新日电动车,河南省,,
西向镇,焦作市,沁阳市,112.87847578525543,35.16833794637842,沁阳西向专卖店,河南省,,
蒋村镇,安阳市,安阳县,114.17986616492273,36.17562059050303,蒋村镇新日电动车,河南省,,
辛庄镇,濮阳市,范县,115.4220736026764,35.68346151922521,辛庄镇新日电动车,河南省,,
千口乡,濮阳市,南乐县,115.38747176527977,36.06588972860361,千口乡新日电动车,河南省,,
黄河路街道,濮阳市,华龙区,115.03846004605295,35.77170813951314,金堤路店,河南省,,
冀屯镇,新乡市,辉县市,113.59690949320795,35.45814877206314,\'辉县市冀屯新日店,河南省,,
潘店镇,新乡市,封丘县,114.55115899443626,35.021168837059676,封丘潘店乡新日店,河南省,,
河南省南阳市唐河县桐河乡007乡道,南阳市,唐河县,112.825963,32.865007,小河陈村新日,河南省,,
河南省商丘市民权县老颜集乡老颜集乡政府,商丘市,民权县,115.410408,34.670612,颜集镇新日电动车,河南省,,
河南省洛阳市偃师市缑氏镇缑氏镇人民政府,洛阳市,偃师市,112.786579,34.613603,缑氏新日电动车专卖店,河南省,,
河南省洛阳市涧西区武汉路街道中州西路353号金桂苑,洛阳市,涧西区,112.356972,34.676621,洛阳市谷水镇新日电动车专卖店,河南省,,
汲滩镇,南阳市,邓州市,112.2783623635769,32.7640731118408,邓州元庄店,河南省,,
厚坡镇,南阳市,淅川县,111.76330715417862,32.77829619761387,邓州厚坡店,河南省,,
独山大道南段(万正世家西南),南阳市,宛城区,112.573515,32.973318,南阳商苑街店,河南省,,
蒲山镇,南阳市,卧龙区,112.57149025797845,33.11932657268093,南阳白庙岗店,河南省,,
卧龙岗街道,南阳市,卧龙区,112.51119822263716,32.97425534437039,南阳车站南路店,河南省,,
河南省开封市杞县柿园乡016乡道,开封市,杞县,114.780876,34.643887,柿园镇新日电动车,河南省,,
河南省开封市杞县阳堌镇中国邮政储蓄银行(阳固镇支行),开封市,杞县,114.809044,34.705238,阳固镇新日电动车u,河南省,,
河南省开封市兰考县城关乡城关乡工商所兰考县产业集聚区管理委员会,开封市,兰考县,114.815369,34.794041,城关乡新日电动车,河南省,,
河南省开封市兰考县堌阳镇崔寺村,开封市,兰考县,115.010216,34.967335,崔寺镇新日电动车,河南省,,
河南省洛阳市汝阳县小店镇观音寺,洛阳市,汝阳县,112.611952,34.147408,汝阳县下寺新日电动车专卖店,河南省,,
河南省洛阳市洛龙区李村镇李村镇人民政府(李村花园南),洛阳市,洛龙区,112.59575,34.601932,洛阳市李村新日电动车专卖店,河南省,,
濮阳县徐镇镇,濮阳市,濮阳县,115.21216928958896,35.5205181854995,徐镇二店,河南省,,
河南省济源市济源市王屋镇王屋大街1号,,济源市,112.276467,35.113142,济源王屋新日电动车专卖店,河南省,,
河南省济源市济源市邵原镇邵原镇人民政府,,济源市,112.133528,35.16096,济源邵原新日电动车专卖店,河南省,,
河南省济源市济源市梨林镇022乡道,,济源市,112.727314,35.052953,济源梨林新日电动车专卖店,河南省,,
司寨乡,新乡市,延津县,114.23850059509279,35.20108561553931,延津司寨,河南省,,
瓦店乡,安阳市,安阳县,114.56717982888222,36.04969098487457,瓦店新日电动车,河南省,,
大流乡,濮阳市,清丰县,115.11648550629617,35.98161573576948,大流新日电动车,河南省,,
河南省南阳市新野县新甸铺镇中兴街,南阳市,新野县,112.306864,32.409754,新甸铺新日电动车专卖店,河南省,,
河南省商丘市民权县程庄镇民权县程庄镇李堂中学,商丘市,民权县,115.208443,34.781746,程庄镇新日电动车,河南省,,
南曹乡,郑州市,管城回族区,113.71718242764474,34.72182545184497,郑州碧云路新日专卖店,河南省,,
河南省南阳市方城县凤瑞街道中共方城县凤瑞街道工作委员会仁和·新世纪,南阳市,方城县,113.003324,33.24463,方城县凤瑞路新日速修,河南省,,
红泥湾镇,南阳市,宛城区,112.72199168801308,33.06156391502561,南阳红泥湾,河南省,,
东宋小学附近,洛阳市,洛宁县,111.718448,34.453717,洛宁县东宋镇新日电动车专卖店,河南省,,
夏都街道,许昌市,禹州市,113.46287146210672,34.14916104336234,禹州西关店,河南省,,
颍川街道,许昌市,禹州市,113.47907602787019,34.148356383843044,禹州画圣路二店,河南省,,
河南省南阳市唐河县昝岗乡240省道宛运集团唐河分公司岗柳汽车站,南阳市,唐河县,112.819901,32.610342,岗柳新日,河南省,,
河南省南阳市唐河县湖阳镇240省道,南阳市,唐河县,112.751305,32.409855,胡杨新日,河南省,,
河南省南阳市唐河县张店镇大白线,南阳市,唐河县,112.704889,32.670573,张店镇新日电动车专卖,河南省,,
河南省南阳市唐河县古城乡335省道,南阳市,唐河县,112.945339,32.721401,凤凰台新日电动车,河南省,,
河南省南阳市卧龙区百里奚街道北京路424号南阳市第八人民医院,南阳市,卧龙区,112.497439,33.012172,北京大道新日电动车,河南省,,
河南省南阳市卧龙区张衡街道紫城·山临逸境,南阳市,卧龙区,112.565378,33.032049,魏营新日电动车,河南省,,
火龙镇,许昌市,禹州市,113.38095009326935,34.17792730057432,禹州火龙镇,河南省,,
顺河乡人民政府西70米附近,商丘市,民权县,115.402077,34.786015,顺河镇新日电动车,河南省,,
千佛阁街道,周口市,项城市,114.926355779171,33.39016726599811,小张营新日,河南省,,
丁集镇关庄村,周口市,项城市,114.921182,33.353666,关庄新日,河南省,,
丁集镇,周口市,项城市,114.93000894784927,33.30720277959845,丁集新日电动车店,河南省,,
丰庄镇,新乡市,延津县,114.36184868216516,35.46263833908644,雷雷摩托车店,河南省,,
春申街道,信阳市,潢川县,115.02994537353516,32.127824281056846,潢川县西关新日电动车,河南省,,
河南省郑州市金水区人民路街道金水路107号紫荆山广场,郑州市,管城回族区,113.682828,34.763446,郑州金水路新日电动车专卖店,河南省,,
弋阳街道,信阳市,潢川县,115.06949722766878,32.126865717532496,潢川县东关新日电动车,河南省,,
小屯镇,平顶山市,汝州市,112.97159135341643,34.0467957523329,汝州小屯镇杨寨新日,河南省,,
韩村乡,濮阳市,清丰县,115.02272486686708,35.91416816443428,清丰县韩村乡,河南省,,
濮阳县梨园乡,濮阳市,濮阳县,115.28151512145998,35.53005436048775,濮阳县梨园乡,河南省,,
寨河镇,信阳市,光山县,114.84839200973511,32.12227151440949,耿寨新日电动车,河南省,,
河南省郑州市中原区秦岭路街道中信银行(建设西路支行)西元国际广场,郑州市,中原区,113.60235,34.757398,郑州毛庄新日,河南省,,
河南省郑州市二七区德化街街道达芙妮(郑州友谊国际广场西南)百年德化风情购物公园,郑州市,二七区,113.665575,34.749916,郑州盛福电动车市场,河南省,,
桑村乡,安阳市,滑县,114.93903458118439,35.398060607062426,桑村新日电动车,河南省,,
041县道与312国道交叉口东北50米,南阳市,桐柏县,113.031895,32.56481,双河新日电动车,河南省,,
河南省郑州市巩义市杜甫路街道明阳花园,郑州市,巩义市,112.992959,34.742467,郑州巩义新日专卖店,河南省,,
河南省郑州市金水区祭城路街道金水东路雅宝·东方国际广场4号楼,郑州市,金水区,113.774772,34.7701,郑州金水路新日专卖店,河南省,,
河南省郑州市金水区祭城路街道金水东路,郑州市,金水区,113.77484,34.770212,郑州白寨新日专卖店,河南省,,
温泉镇临汝镇,平顶山市,汝州市,112.585679,34.232793,汝州冯店新日,河南省,,
河南省洛阳市洛龙区丰李镇003乡道,洛阳市,宜阳县,112.373022,34.550836,洛阳市丰李镇新日电动车专卖店,河南省,,
马畈镇,信阳市,光山县,114.62382405996323,31.93688219504418,马畈镇新日电动车,河南省,,
罗陈乡,信阳市,光山县,114.6795442700386,31.96771393108961,罗陈乡新日电动车,河南省,,
南向店乡,信阳市,光山县,114.68666151165964,31.825590382600065,南向店乡新日电动车,河南省,,
河南省郑州市中原区枫杨街道高新·锦华苑,郑州市,中原区,113.557133,34.823793,郑州锦华苑新日专卖店,河南省,,
河南省郑州市中原区枫杨街道学府欣园,郑州市,中原区,113.559707,34.8344,郑州惠济区新日专卖店,河南省,,
河南省郑州市中原区枫杨街道莲花街82号东史马小区南区,郑州市,中原区,113.558193,34.8306,郑州建设北路新日专卖店,河南省,,
河南省郑州市中原区棉纺路街道德金口腔盛润·锦绣城,郑州市,中原区,113.621557,34.760607,郑州永乐电器新日专卖店,河南省,,
河南省郑州市二七区解放路街道二七宾馆商务楼,郑州市,二七区,113.665378,34.752063,郑州二七苏宁电器新日专卖店,河南省,,
河南省郑州市巩义市新华路街道大首岭,郑州市,巩义市,112.989153,34.755751,郑州巩义新日（速修）新日专卖店,河南省,,
师寨镇,新乡市,原阳县,113.84073436260223,35.07502302470797,原阳师寨新日专卖店,河南省,,
河南省郑州市管城回族区南曹乡美林河畔,郑州市,管城回族区,113.717249,34.720046,郑州美林河畔新日电动车专卖店,河南省,,
河南省郑州市管城回族区紫荆山南路街道航海东路388号源升金锣湾,郑州市,管城回族区,113.686947,34.720785,郑州紫航新日电动车专卖店,河南省,,
河南省郑州市二七区嵩山路街道宏鑫花园,郑州市,二七区,113.629211,34.706376,郑州万客来新日专卖店,河南省,,
河南省郑州市金水区龙子湖街道时埂社区,郑州市,金水区,113.797721,34.810541,郑州姚桥新日电动车专卖店,河南省,,
河南省郑州市金水区东风路街道文化绿城金水区文化绿城小学,郑州市,金水区,113.648595,34.808352,郑州丰乐路新日电动车专卖店,河南省,,
河南省郑州市新郑市龙湖镇偶遇华南城,郑州市,新郑市,113.729094,34.607465,郑州华南城新日电动车专卖店,河南省,,
河南省郑州市惠济区老鸦陈街道天河路,郑州市,惠济区,113.612012,34.856723,郑州惠济桥新日电动车专卖店,河南省,,
河南省南阳市宛城区枣林街道长江中路829号,南阳市,宛城区,112.558962,32.975221,长江路新日电动车专卖店,河南省,,
河南省郑州市二七区大学路街道陇海中路众鑫佳苑2期,郑州市,二七区,113.641873,34.736252,郑州大学路（陇海路口）新日专卖店,河南省,,
颍川街道,许昌市,禹州市,113.4766244888306,34.14617211080851,禹州画圣路店,河南省,,
詹店镇,焦作市,武陟县,113.60090866684914,35.0322146334986,武陟县詹店新日店,河南省,,
西街街道,新乡市,红旗区,113.877878934145,35.303222477618704,新乡市西大街新日店,河南省,,
温泉镇,焦作市,温县,113.07951137423517,34.95368879800854,大明广场店,河南省,,
河南省南阳市桐柏县城关镇淮源大道桐柏县第三人民医院,南阳市,桐柏县,113.393831,32.364901,桐柏县新日电动车专卖店,河南省,,
焦南街道,焦作市,解放区,113.23299676179887,35.23118446222078,铜马店,河南省,,
城关镇,新乡市,封丘县,114.43176046013832,35.04273190162589,封丘新日店,河南省,,
城关街道,新乡市,辉县市,113.80997344851494,35.45612565413247,九山路店,河南省,,
河南省郑州市新郑市龙王乡033县道,郑州市,新郑市,113.85957,34.450447,新郑-龙王新日专卖店,河南省,,
河南省南阳市宛城区高庙乡小刘庄,南阳市,宛城区,112.815701,32.972662,小刘庄新日电动车,河南省,,
河南省周口市鹿邑县宋河镇中国邮政储蓄银行(枣集镇支行),周口市,鹿邑县,115.61087,34.046009,枣集新日电动车,河南省,,
河南省周口市鹿邑县玄武镇玄武镇,周口市,鹿邑县,115.276512,33.96806,玄武新日电动车专卖店,河南省,,
小柏路与汝鲁路交叉口东150米,洛阳市,汝阳县,112.502472,34.067852,三屯新日店,河南省,,
河南省许昌市建安区010乡道,许昌市,建安区,113.923273,34.068262,邓庄小豹车行,河南省,,
槐店回族镇,周口市,沈丘县,115.07807359099388,33.39108209277565,沈丘新日电动车,河南省,,
蔡沟乡,驻马店市,上蔡县,114.5875619351864,33.26789151495839,上蔡蔡沟,河南省,,
032乡道东150米,洛阳市,汝阳县,112.270908,33.947049,汝阳靳村新日店,河南省,,
河南省信阳市潢川县谈店乡谈店乡卫生院,信阳市,潢川县,115.144345,32.178328,潢川谈店新日,河南省,,
河南省周口市项城市秣陵镇中国邮政储蓄银行(秣陵邮政支局),周口市,项城市,114.839157,33.204769,秣陵镇新日电动车专卖店,河南省,,
河南省许昌市魏都区五一路街道白庙后街万里星河花园小区,许昌市,魏都区,113.819858,34.015032,许昌市白庙后街新日分销,河南省,,
河南省周口市鹿邑县杨湖口镇214省道,周口市,鹿邑县,115.391708,33.968803,杨湖口新日电动车,河南省,,
河南省许昌市建安区解放路希望小区(解放路),许昌市,建安区,113.817014,33.998628,许昌市解放路南端新日分销,河南省,,
河南省周口市鹿邑县邱集乡210省道,周口市,鹿邑县,115.273422,33.899117,丘集镇新日电动车,河南省,,
河南省许昌市魏都区七里店街道新兴西路,许昌市,魏都区,113.794814,34.016578,许昌市新兴路永超车行,河南省,,
河南省许昌市建安区河坡王,许昌市,建安区,113.784717,34.098813,许昌县河街乡分销,河南省,,
河南省许昌市建安区专业催乳中心,许昌市,建安区,113.844785,34.094162,许昌县尚集新日分销,河南省,,
河南省周口市扶沟县曹里乡刁陵,周口市,扶沟县,114.39727,34.172871,刁陵镇新日电动车,河南省,,
汝南街道,平顶山市,汝州市,112.80324116349222,34.124639349196144,汝州王寨新日,河南省,,
盐镇乡,洛阳市,宜阳县,111.99647560715677,34.662175568085374,宜阳盐镇新日,河南省,,
白云大道与福音街交叉口西50米,洛阳市,嵩县,112.090908,34.132311,嵩县新日店,河南省,,
河南省商丘市民权县白云寺镇苍头村,商丘市,民权县,114.942664,34.594115,苍头新日专卖店,河南省,,
固城乡,濮阳市,清丰县,115.04161164164543,35.86122860141353,清丰县固城乡新日电动车,河南省,,
柳格镇,濮阳市,清丰县,115.12673020362855,35.843681117292725,清丰县柳格镇强伟车行,河南省,,
023县道南50米,洛阳市,偃师市,112.764525,34.692061,岳滩新日,河南省,,
河南省商丘市永城市演集镇Z003永城市胸科医院,商丘市,永城市,116.467059,33.923052,永城新城六店,河南省,,
河南省南阳市唐河县城郊乡邱庄,南阳市,唐河县,112.889463,32.70965,八里岗新日电动车,河南省,,
河南省南阳市唐河县城郊乡312国道,南阳市,唐河县,112.80928,32.718957,唐坊新日电动车,河南省,,
河南省南阳市唐河县文峰街道时风电动轿车江南总经销,南阳市,唐河县,112.860602,32.674706,大张庄新日电动车,河南省,,
河南省南阳市唐河县上屯镇丁岗,南阳市,唐河县,112.817208,32.519418,丁岗新日电动车,河南省,,
原武镇,新乡市,原阳县,113.78331094980241,34.994991437063184,原阳县原武镇新日电动车,河南省,,
河南省南阳市南召县城关镇黄洋路,南阳市,南召县,112.440016,33.486435,南召城关董峰电动车店,河南省,,
河南省商丘市夏邑县城关镇孔祖大道北段25号,商丘市,夏邑县,116.141549,34.238069,夏邑县直营客户,河南省,,
河南省信阳市淮滨县三空桥乡005乡道,信阳市,淮滨县,115.23013,32.52696,淮滨三空桥新日电动车专卖店,河南省,,
人民路与幸福大道交汇处东北角,濮阳市,清丰县,115.113047,35.884027,清丰县亿洲新日专卖店,河南省,,
河南省许昌市建安区008县道华蕾幼儿园,许昌市,建安区,113.838607,33.967025,许昌县蒋李集新日分销,河南省,,
河南省商丘市梁园区刘口乡新型金属衣柜,商丘市,梁园区,115.728248,34.549267,商丘市梁园区刘口新日专卖店,河南省,,
河南省商丘市夏邑县车站镇023县道,商丘市,夏邑县,116.040667,34.398571,夏邑县车站镇新日专卖店,河南省,,
祝楼乡,新乡市,原阳县,113.67976292967798,35.03441197374862,原阳县祝楼乡新日专卖店,河南省,,
百泉镇,新乡市,辉县市,113.76487210392952,35.46423638969962,辉县市农专新日专营店,河南省,,
上八里镇,新乡市,辉县市,113.61144438385963,35.53499500030208,辉县市上八里镇新日专卖店,河南省,,
冀屯镇,新乡市,辉县市,113.61700594425201,35.45933399840536,辉县市冀祥新村新日专卖店,河南省,,
河南省郑州市金水区二环支路45号电动车大卖场,郑州市,中原区,113.63538,34.766804,郑州二环路新日专卖店,河南省,,
河南省郑州市金水区丰庆路街道园田路,郑州市,金水区,113.65255,34.828839,三全路新日二店专卖店,河南省,,
建设西路与须水街交叉口南100米,郑州市,中原区,113.523694,34.76111,郑州须水新日专卖店,河南省,,
河南省郑州市管城回族区航海东路街道航海东路147号,郑州市,管城回族区,113.694765,34.719866,郑州盛福市场新日专卖店,河南省,,
河南省郑州市中原区秦岭路街道棉纺西路47棉纺西路29号院,郑州市,中原区,113.613555,34.760021,郑州棉纺路新日专卖店,河南省,,
河南省郑州市惠济区长兴路街道长兴路,郑州市,惠济区,113.625932,34.83376,郑州国基路新日专卖店,河南省,,
河南省郑州市管城回族区东大街街道城南路176-21号郑州市第四十五中学,郑州市,管城回族区,113.677842,34.745494,郑州城南路新日专卖店,河南省,,
河南省郑州市金水区丰产路街道丰产路河南省农行家属院(丰产路),郑州市,金水区,113.683009,34.783698,郑州丰产路新日专卖店,河南省,,
河南省郑州市金水区祭城路街道康丰祭城医药祭城社区盛和街2号院西区,郑州市,金水区,113.766242,34.78016,郑州祭城新日专卖店,河南省,,
河南省郑州市管城回族区航海东路街道航海东路255号云帆都市嘉园,郑州市,管城回族区,113.692583,34.720756,郑州盛福2店新日专卖店,河南省,,
老街街道,驻马店市,驿城区,114.02597978711128,32.96191130638135,驻马店骏马路社区店,河南省,,
金山街道,驻马店市,驿城区,114.0096424520016,33.017608383117626,驻马店纬二路社区店,河南省,,
中州西路1081号附近,南阳市,卧龙区,112.488593,32.991841,南石市场新日社区店,河南省,,
河南省南阳市卧龙区潦河镇永胜街,南阳市,卧龙区,112.410989,32.927804,潦河新日电动车专卖店,河南省,,
河南省南阳市卧龙区蒲山镇喜庆蛋糕坊,南阳市,卧龙区,112.599044,33.119428,浦山镇新日电动车,河南省,,
焦村镇,平顶山市,汝州市,113.02254259586336,34.136164576948424,汝州湾李新日电动车店,河南省,,
河南省南阳市唐河县张店镇怡美雅家私生活馆,南阳市,唐河县,112.702697,32.617691,王庄新日电动车,河南省,,
城关镇,安阳市,滑县,114.53810334205627,35.56920442635684,滑县文明路新日旗舰店,河南省,,
人民路与英民路交叉口东南150米,安阳市,滑县,114.523068,35.554728,滑县人民路天下城新日专卖店,河南省,,
叶邑镇,平顶山市,叶县,113.3139257133007,33.51569278878241,叶县沈湾新日电动车,河南省,,
056乡道东50米,濮阳市,濮阳县,114.910069,35.626246,濮阳新习乡焦二寨路路车行,河南省,,
建设路街道,濮阳市,华龙区,115.04047974944115,35.757612620170285,市区建设路新日维修店,河南省,,
胜利路街道,濮阳市,华龙区,115.07192462682724,35.75219595969148,市区大庆路社区店,河南省,,
中原油田街道,濮阳市,华龙区,115.09841009974478,35.775587151994216,市区文化北路新日社区店,河南省,,
濮阳县鲁河镇,濮阳市,濮阳县,115.23868963122368,35.661103470805884,鲁河乡书林车行,河南省,,
王助镇,濮阳市,华龙区,114.97101858258246,35.70191455472796,濮阳开发区振明车行,河南省,,
高码头镇,濮阳市,范县,115.66920161247255,35.874702623751524,范县高码头镇宝亮车行,河南省,,
岳村镇,濮阳市,华龙区,115.20518615841868,35.78335657671555,华龙区岳村车行,河南省,,
濮阳县子岸镇,濮阳市,濮阳县,115.02060994505884,35.59801791377352,子岸镇新日电动车,河南省,,
陈庄镇,濮阳市,范县,115.55126756429672,35.776812293052615,范县陈庄镇伟伟车行,河南省,,
龙王庄镇,濮阳市,范县,115.59417486190797,35.82363856135459,范县龙王庄镇培山车行,河南省,,
濮东街道,濮阳市,华龙区,115.11937960982323,35.770245708134134,濮阳中原路新日速修店,河南省,,
胜利路街道,濮阳市,华龙区,115.06162360310556,35.76186232368051,濮阳市区长庆路速修店,河南省,,
政和一路42号,濮阳市,华龙区,115.019,35.775495,濮阳市区政和路无忧车行,河南省,,
王楼镇,濮阳市,范县,115.41224598884584,35.77997515875439,濮阳范县王楼镇济国车行,河南省,,
人民路街道,濮阳市,华龙区,115.01697823405267,35.76535441971922,濮阳华龙区坡头集利泉车行,河南省,,
杨集乡,濮阳市,范县,115.50436377525332,35.75650472162125,濮阳范县杨集建峰车业,河南省,,
宋集镇,商丘市,睢阳区,115.70162817835808,34.093321696461196,宋集新日电动车,河南省,,
新城街道,商丘市,睢阳区,115.63663288950922,34.38944991905065,雪苑路新日电动车,河南省,,
双八镇,商丘市,梁园区,115.69541215896609,34.511388207940584,道口集新日专卖店,河南省,,
巩营乡,濮阳市,清丰县,115.33272653818132,35.98161790622787,清丰县巩营乡彦龙车行,河南省,,
高堡乡,濮阳市,清丰县,115.16263961791994,35.96093398387909,清丰高堡镇亚涛车行,河南省,,
韩村乡,濮阳市,清丰县,115.07488444447517,35.922090189617535,清丰县吕家集小刀专卖店,河南省,,
马村乡,濮阳市,清丰县,115.22175148129462,35.95273901688546,清丰县马村乡密码电动车,河南省,,
六塔乡,濮阳市,清丰县,115.26334851980211,35.84219500629936,清丰县六塔乡金彭三轮,河南省,,
河南省开封市兰考县谷营镇谷营镇政府,开封市,兰考县,114.884299,34.946496,谷营镇新日专卖店,河南省,,
河南省开封市杞县泥沟乡泥沟中心卫生院,开封市,杞县,114.730279,34.714083,泥沟乡新日专卖店,河南省,,
河南省开封市兰考县东坝头乡双井村,开封市,兰考县,114.828497,34.887026,双井乡新日专卖店,河南省,,
河南省开封市兰考县小宋乡002县道,开封市,兰考县,115.081001,34.915161,小宋乡新日专卖店,河南省,,
河南省开封市兰考县兰阳街道人民路,开封市,兰考县,114.818427,34.826714,高墙新日专卖店,河南省,,
河南省开封市尉氏县南曹乡南曹乡人民政府,开封市,尉氏县,114.210428,34.290537,南曹乡新日专卖店,河南省,,
河南省信阳市光山县紫水街道弦山南路,信阳市,光山县,114.901562,32.003424,光山县弦山路新日电动车专卖店,河南省,,
峪河镇,新乡市,辉县市,113.60707104206084,35.36446401403043,辉县峪河镇小福车行,河南省,,
河南省济源市济源市承留镇承留大街130号,,济源市,112.492571,35.07412,济源市承留镇向东维修,河南省,,
北云门镇,新乡市,辉县市,113.74394416809085,35.43183880745743,辉县北云门杨兴车业,河南省,,
河南省驻马店市驿城区橡林街道天顺路,驻马店市,驿城区,114.007359,32.963482,驻马店天中山大道社区店,河南省,,
河南省驻马店市驿城区金河街道文祥路雅乐轩商务酒店,驻马店市,驿城区,114.012667,32.989849,驻马店文祥路社区店,河南省,,
河南省洛阳市偃师市顾县镇310国道,洛阳市,偃师市,112.811928,34.667531,偃师市顾县镇木阁沟真真电动车门市部,河南省,,
河南省洛阳市汝阳县蔡店乡福盈门门业(蔡店办事处),洛阳市,汝阳县,112.433849,34.295419,汝阳县蔡店乡张伊电动车车销售部,河南省,,
河南省洛阳市汝阳县柏树乡嵩汝路,洛阳市,汝阳县,112.390827,34.132039,汝阳县柏树乡爱国电动车经销店,河南省,,
演集镇,商丘市,永城市,116.46137863397598,33.92044911348285,永城文斌街新日电动车,河南省,,
黄河路街道,濮阳市,华龙区,115.03849759697916,35.7723153017834,濮阳市黄河路龙腾电动车商行,河南省,,
高庄镇,商丘市,永城市,116.54431656002998,33.93212227992295,永城高庄新日专卖店,河南省,,
苗桥镇,商丘市,永城市,116.5870736539364,33.93210781464379,永城苗桥社区新日电动车,河南省,,
候岭乡,商丘市,永城市,116.4858162403107,33.88179050598776,永城呼庄新日电动车,河南省,,
白潭镇,周口市,扶沟县,114.37626153230669,34.23422519634947,白潭镇新日电动车,河南省,,
河南省郑州市新郑市新烟街道解放路96,郑州市,新郑市,113.772262,34.391677,新郑解放路社区店,河南省,,
应滨管委会,平顶山市,新华区,113.14417943358421,33.78344776858917,平顶山市薛庄新日店,河南省,,
河南省南阳市社旗县赵河街道长江东路163,南阳市,社旗县,112.940528,33.044262,社旗新日二店,河南省,,
西邵乡,濮阳市,南乐县,115.22051498293878,36.163603308217176,南乐县寨里平安车行,河南省,,
西邵乡,濮阳市,南乐县,115.22721782326701,36.16066583098424,南乐县西邵乡平安车行,河南省,,
杨集乡,濮阳市,范县,115.43700814247131,35.73875229871392,杨集辛店战胜车业,河南省,,
寺庄乡,濮阳市,南乐县,115.16436696052553,36.13166411311553,南乐寺庄乡胜利车业,河南省,,
