address,city,districd,lat,lon,name,province,street,town
河北省唐山市迁西县城关景忠东街36-4号,唐山市,迁西县,118.31264,40.141634,迁西县城关锐轩车行,河北省,,
秦皇岛海港区海阳路与和平大街交叉口,秦皇岛市,海港区,119.59285,39.935668,海港区锦羚电动车商店,河北省,,
唐山市路南区复兴路221号,唐山市,路南区,118.210843,39.620274,唐山市路南昌盛车行,河北省,,
河北省秦皇岛市山海关区新影街38号捷马车行,秦皇岛市,山海关区,119.76268,40.00287,秦皇岛市山海关慧宽鑫晟车行,河北省,,
抚宁县抚宁镇天马大街路南,秦皇岛市,抚宁区,119.244015,39.885114,抚宁县城关飞越电动车行,河北省,,
河北省承德隆化县隆化镇兴洲路新华书店对过,承德市,隆化县,117.728455,41.316395,隆化县富龙摩配销售部,河北省,,
河北省承德县下板城镇,承德市,承德县,118.17341,40.765958,承德县天骑车业销售部,河北省,,
河北省宁丰县地税局南100米路西,石家庄市,元氏县,114.526931,37.766508,丰宁满族自治县寰达商贸有限公司,河北省,,
张家口下花园区汽车站底商,张家口市,下花园区,115.287352,40.502652,下花园区平安摩托车超市,河北省,,
河北省张家口市阳原县西城镇自行车王国,张家口市,阳原县,114.160803,40.11361,周俊花,河北省,,
河北蔚县蔚州镇古楼商城新日电动车,张家口市,蔚县,114.571995,39.84344,蔚县新日电动自行车门市部,河北省,,
河北省张家口赤城县中华商场,张家口市,赤城县,115.831499,40.912921,赤城县赤城镇秀花中华商场,河北省,,
河北省张家口市桥西区新华前街24号,张家口市,桥西区,114.881793,40.822845,张家口百客商贸有限公司,河北省,,
河北省张家口市宣化区百货大楼宣化牌楼东街17号,张家口市,宣化区,115.064614,40.608013,宣化区新日电动车专卖店,河北省,,
河北省张家口市怀来县沙城镇华佳广场,张家口市,怀来县,115.521259,40.40696,怀来县沙城新日电动车商行,河北省,,
河北省尚义县保健站对面(劲龙摩托车专卖店),张家口市,尚义县,113.969619,41.076227,冯龙,河北省,,
河北省承德市兴隆县二道街武装部西部西边海阔车行,承德市,兴隆县,117.500558,40.417358,兴隆县阔日车行,河北省,,
河北省承德市围场县木兰中路中天宾馆对面北京新日专卖店,承德市,围场满族蒙古族自治县,117.759375,41.950837,围场满族蒙古族自治县围场镇宝华新日电动车销售部,河北省,,
承德市双桥区福龙小区彩虹桥附近,承德市,双桥区,117.954736,40.961829,双桥区新虎电动车销售处,河北省,,
承德市平泉县县医院北500米,承德市,平泉市,118.701951,41.018405,平泉县平泉镇明信电动车商店,河北省,,
怀安县左卫镇太平街,张家口市,怀安县,114.71713,40.681142,怀安县头百户镇精王车行,河北省,,
河北省唐山市开平区西城路22号,唐山市,开平区,118.264217,39.680393,唐山市开平区中天车行,河北省,,
河北省唐山唐海县垦丰大街东段老机械厂对面北京新日专卖店,唐山市,曹妃甸区,118.453861,39.272281,曹妃甸区唐海镇鑫日电动自行车经销处,河北省,,
滦南县金辉广场东20米路北,唐山市,滦南县,118.680773,39.503866,滦南县立永车行,河北省,,
河北省唐山南堡开发区希望路商业街6号,唐山市,曹妃甸区,118.210847,39.238118,郭利强,河北省,,
河北省玉田县供销大厦东行10米,唐山市,玉田县,117.754779,39.883171,唐山科迅商贸有限公司,河北省,,
河北省乐亭县南大街路西新日电动车商场,唐山市,乐亭县,118.911752,39.423876,乐亭县城关新日电动车商场,河北省,,
河北省唐山滦县新城建华大街中段胜发摩托车城,唐山市,滦州市,118.683078,39.754701,滦县顺发车业,河北省,,
丰南黄各庄,唐山市,丰南区,118.143946,39.476943,杜子江,河北省,,
唐山市丰润区任各庄镇任各庄村,唐山市,丰润区,118.166586,39.739962,唐山市丰润区建勋车行,河北省,,
唐山市丰润区曹雪芹东大街160号,唐山市,丰润区,118.171843,39.830592,唐山市丰润区鑫鑫五交化经销处,河北省,,
河北秦皇岛卢龙县石门镇,秦皇岛市,昌黎县,118.851149,39.730368,卢龙县路安电动车经销店,河北省,,
迁安市迁安镇雅南电动车商店,唐山市,迁安市,118.692658,40.003272,迁安市迁安镇雅南电动自行车商店,河北省,,
河北省安平县为民西街160号,衡水市,安平县,115.51161,38.234036,安平县良华电动车门市部,河北省,,
河北省故城县建国镇恒发车业,衡水市,故城县,115.873726,37.158622,故城县建国恒发车业,河北省,,
河北省衡水市饶阳县汽车站斜对过新日电动车门市部,衡水市,饶阳县,115.728719,38.235646,饶阳县伟创电动车销售部,河北省,,
河北衡水冀州市宏达摩托城,衡水市,冀州区,115.570376,37.541953,冀州市宏达商贸城,河北省,,
河北省衡水市武邑县,衡水市,武邑县,115.887655,37.801658,武邑县永发车行,河北省,,
河北省衡水市武强县新开街新日专卖店,衡水市,武强县,115.976466,38.038359,武强县新日电动车专卖店,河北省,,
河北衡水和平路百惠楼下新日专卖,衡水市,故城县,115.973305,37.368371,衡水市桃城区日新电动车经销处,河北省,,
河北省衡水市桃城区自强街胜利路马村19号,衡水市,桃城区,115.683247,37.729609,河北衡松电气设备贸易有限公司,河北省,,
河北省深州市永平大街供销社门口,衡水市,深州市,115.544015,38.006923,深州市占九电动车行,河北省,,
河北省张家口市怀安县柴沟堡镇民主街西大寺巷12号,张家口市,怀安县,114.421974,40.672824,怀安县头百户镇精王车行,河北省,,
涿鹿县人民南街中段,张家口市,涿鹿县,115.216308,40.370507,逐鹿县文龙电动车商店,河北省,,
河北省东光县茧城大街289号,沧州市,东光县,116.549576,37.884043,东光县虎山车行,河北省,,
河北省固安县新中街县委大门斜对面（文化广场东侧）,廊坊市,固安县,116.299954,39.439296,固安县固安镇浩通车行,河北省,,
河北廊坊市大成县新华西街司法局楼东侧新日专卖店,廊坊市,固安县,116.300434,39.28689,大城县新华西街新日电动车销售部,河北省,,
河北省肃宁县县公安局对过,沧州市,肃宁县,115.83415,38.441225,肃宁县健虎电动车经销店,河北省,,
河北省沧州任丘市世纪商贸城2区3栋11号,沧州市,任丘市,116.096611,38.689296,任丘市沐佳商贸有限公司,河北省,,
河北省泊头市新华街大名车业,沧州市,泊头市,116.57054,38.067155,泊头市新日电动车门市部,河北省,,
河北省盐山县南大街,沧州市,盐山县,117.230603,38.058088,盐山县乐嘉电动车销售处,河北省,,
献县迎宾路明珠商城,沧州市,献县,116.122802,38.190144,献县新日电动车销售处,河北省,,
河北省保定蠡县蠡州商城桥南路西腾宇电动车商行6207194,保定市,蠡县,115.583855,38.488056,蠡县蠡吾北大街蠡州新日电动车商行,河北省,,
河北省保定易县易兴路飞马东300米路南北京新日专卖,保定市,易县,115.497148,39.34211,易县铭炜电动车门市部,河北省,,
河北省保定阜平县北街新日电动车专卖,保定市,阜平县,114.195396,38.848803,阜平县途安车行,河北省,,
河北省保定市曲阳县恒州商城桥北路东宏达摩托车城,保定市,曲阳县,114.74497,38.622242,曲阳县新日电动车门市,河北省,,
河北省保定市涞水县,保定市,涞水县,115.713905,39.394317,涞水县马强自行车商店,河北省,,
涞源县广昌大街14号,保定市,涞源县,114.689326,39.349831,涞源县路力车行,河北省,,
河北省定州市南关宝塔中学西行100米路北,保定市,定州市,114.990312,38.494631,定州市正良电动自行车经销处,河北省,,
河北省涿州市华阳西路312号双友车行柴女士:13785439067,保定市,涿州市,115.972258,39.482901,涿州市双友车行,河北省,,
河北省保定市徐水永兴中路24号,保定市,徐水区,115.645552,39.019014,保定市徐水区永兴车业电动车经销处,河北省,,
高阳县老下府商业街,保定市,高阳县,115.778965,38.700088,高阳县新日电动车经销处,河北省,,
河北省清苑县迎宾街路南,唐山市,迁西县,118.233083,40.319077,清苑县宏达新日电动车行,河北省,,
河北省安国市药王庙大街,保定市,安国市,115.317896,38.402769,安国市迅达摩托车销售部,河北省,,
河北省望都县中华街所药桥头五星车业,保定市,望都县,115.264438,38.615794,望都县五星自行车超市,河北省,,
河北省定兴县第二市场北门新日专卖,保定市,定兴县,115.791697,39.271303,定兴县富豪电动自行车销售有限公司,河北省,,
河北省定兴县固城镇车站,保定市,定兴县,115.716296,39.138228,定兴县大寇摩托车销售有限公司,河北省,,
河北保定市顺平县顺兴路92号,保定市,顺平县,115.134011,38.854011,顺平县狮龙电动车行,河北省,,
河北省保定市西大街38号新日专卖店,保定市,莲池区,115.488192,38.945189,保定市莲池区永北凯通自行车商行,河北省,,
博野县兴华北街39-3号,保定市,博野县,115.460446,38.459839,博野县远达电动车销售中心,河北省,,
廊坊市广阳区爱民东道军分区对面,廊坊市,广阳区,116.699448,39.527088,廊坊市盛通商贸有限公司,河北省,,
沧州市新华区解放东路112号,沧州市,新华区,116.884909,38.299472,沧州市新华区新米日车行,河北省,,
瀛州镇,沧州市,河间市,116.080495,38.443244,河间市金朋电动车经销处,河北省,,
河北省鸡泽县实验中校西100米路南,邯郸市,鸡泽县,114.878299,36.92035,鸡泽县新日电动车门市,河北省,,
河北省广平县人民路西段中国联通公司对面,邯郸市,广平县,114.945872,36.481994,广平县艳飞电动车经销部,河北省,,
河北省大名县大名府路三里店转盘东街300米路南新日专卖店1072号,邯郸市,大名县,115.123297,36.46848,大名县商业局酒类商品购销连锁配送中心五交化经营部,河北省,,
河北省邯郸市峰峰矿区,邯郸市,丛台区,114.538961,36.625657,邯郸市峰峰新市区新日电动车门市(直营),河北省,,
曲周县振兴路50号,邯郸市,曲周县,114.952752,36.774161,曲周县书国电动车门市,河北省,,
河北省邯郸市涉县牌坊路实验小学对面新日电动车专卖店,邯郸市,涉县,113.669969,36.559562,新日电动车涉县经销店,河北省,,
河北省馆陶县南环路亿丰广场新日电动车专卖店,邯郸市,馆陶县,115.27799,36.535265,馆陶县顺风车业,河北省,,
河北省邯郸市永年县临关火车站南侧,邯郸市,永年区,114.485898,36.777273,邯郸市永年区晶汇电动自行车门市,河北省,,
河北省邯郸魏县健康路老郭摩配(人民医院东门向北100米路东),邯郸市,魏县,114.892441,36.239239,魏县祥飞电动汽车销售中心,河北省,,
河北省邯郸成安邯大路北京新日专卖,邯郸市,成安县,114.630894,36.484569,成安县新日电动车门市,河北省,,
河北省临漳县王禅路东段路北,邯郸市,临漳县,114.462863,36.33505,临漳县王禅路新日电动车门市,河北省,,
磁县浚英电动车门市,邯郸市,磁县,114.37354,36.367619,磁县浚英电动车门市,河北省,,
邯郸市市丛台区邯山街10号，12号,邯郸市,邯山区,114.482158,36.602837,邯郸市丛台龙跃电动车销售有限公司,河北省,,
灵寿县灵寿镇南合村西北街西2排7号,石家庄市,灵寿县,114.366212,38.285413,灵寿县广汇车行,河北省,,
河北省三河燕郊行宫西大街新日专卖,廊坊市,三河市,116.809417,39.948792,三河市双业电动车销售部,河北省,,
河北廊坊市夏垫镇夏垫商业街,廊坊市,大厂回族自治县,116.919883,39.946303,大厂回族自治县夏垫新日电动车行,河北省,,
河北省石家庄市元氏县蟠龙路56-14号,石家庄市,元氏县,114.534596,37.75856,元氏县洪千车行,河北省,,
河北香河县淑阳大街中段南侧,廊坊市,香河县,116.999035,39.759958,香河县兴旺电动车经销部,河北省,,
河北省邯郸市武安市桥西路93号,邯郸市,武安市,114.194248,36.688875,武安市邑城镇赵店村籍书方电动车门市,河北省,,
河北省石家庄市长安区中山东路482-7号,石家庄市,长安区,114.552025,38.043294,石家庄腾达科技有限公司,河北省,,
河北省无极县无极路与正义街交叉口,石家庄市,无极县,114.96905,38.177624,无极县新日电动车经销部,河北省,,
河北省石家庄鹿泉市新日专卖店,石家庄市,鹿泉区,114.313724,38.085958,石家庄虎兴电动车销售有限公司,河北省,,
河北省石家庄晋州市电动一条街新日专卖店,石家庄市,晋州市,115.062771,38.021663,石家庄淮盈商贸有限公司,河北省,,
河北省石家庄市新乐市长寿街道鲜虞街35号,石家庄市,新乐市,114.691351,38.34552,新乐市新日电动车经销处,河北省,,
河北省石家庄市正定县新日专卖店,石家庄市,正定县,114.570941,38.146445,正定县迎亚电动车商行,河北省,,
河北省藁城市综合市场14栋2号,石家庄市,藁城区,114.853182,38.028039,藁城区新日电动自行车销售处,河北省,,
河北省石家庄市赞皇县通府街109号,石家庄市,赞皇县,114.385559,37.662274,赞皇县庆达车行,河北省,,
河北赵县范庄集贸市场新日专卖店,石家庄市,赵县,114.965064,37.772409,赵县中意摩托车门市,河北省,,
河北省石家庄辛集市金街不夜城A座9号,石家庄市,辛集市,115.216405,37.91955,辛集市鸿森车行,河北省,,
河北省邢台市柏乡东环路,邢台市,桥东区,114.57133,37.01235,柏乡县豪阳电动车经营部,河北省,,
河北省隆尧县县宾馆西邻新日专卖店,邢台市,隆尧县,114.778688,37.353672,隆尧县迎宾路新日电动车门市,河北省,,
河北省邢台市平乡县河古庙镇庙村北,邢台市,平乡县,115.108547,36.980905,平乡县朝晖电动车门市,河北省,,
河北省邢台市威县顺城路中段路北新日电动车行,邢台市,威县,115.266733,36.980774,威县新捷电动自行车门市,河北省,,
河北省邢台市巨鹿县城老十字街东20米路北,邢台市,巨鹿县,115.037478,37.221112,巨鹿县诚信车业门市,河北省,,
沙河市京广路826豪爵专卖店,邢台市,沙河市,114.500333,36.862833,沙河市恒鑫摩托商城,河北省,,
宁晋县月城路移动公司南100米,邢台市,宁晋县,114.92527,37.614836,宁晋县滕旭电动车门市部,河北省,,
河北省邢台市桥东区甜橙国际A座新日电动车专卖店,邢台市,桥东区,114.499932,37.060249,邢台市桥西区真育电动自行车经营部,河北省,,
河北临西县河西镇北队村172号,邢台市,临西县,115.688937,36.863916,临西县奥达车业销售有限公司,河北省,,
广宗县兴广路,邢台市,广宗县,115.146733,37.060597,广宗县腾达摩托城(直营),河北省,,
河北省清河县三羊东街路南,邢台市,清河县,115.675968,37.063803,清河县富日电动自行车经销处,河北省,,
河北平乡县乞村,邢台市,平乡县,115.039035,37.074709,平乡县新日电动车门市,河北省,,
河北省邢台市任县老大街,邢台市,任县,114.688367,37.123916,任县凯华家电商场,河北省,,
河北省邢台市内丘县城振兴东路103号,邢台市,内丘县,114.52323,37.285516,内丘县欣硕车业门市,河北省,,
河北省南宫市紫冢镇前紫冢村,邢台市,南宫市,115.684331,37.234712,南宫市紫冢镇丙富车行,河北省,,
河北省临西县玉兰东路与平安街交口西北角,邢台市,临西县,115.504892,36.864944,临西县亚飞电动车门市部,河北省,,
河北省临城县城,邢台市,临城县,114.498762,37.444499,临城新日电动车门市,河北省,,
内丘县城振兴东路大街道北,邢台市,内丘县,114.526774,37.285147,内丘县豪顺电动车市(直营),河北省,,
任县老大街中段路南,邢台市,任县,114.688367,37.123916,河北省邢台市任县新日电动车,河北省,,
内丘县,邢台市,内丘县,114.512128,37.286669,内丘县牛海江电动车门市(直营),河北省,,
广宗县新日电动车,邢台市,威县,115.266733,36.980774,广宗县新日电动车(直营),河北省,,
丰南黄各庄,唐山市,丰南区,118.143946,39.476943,石河子市万顺风车行(直营),河北省,,
南宫市胜利西街迎宾馆西对面新日电动车,邢台市,南宫市,115.385872,37.356369,南宫市速派奇专卖店(直营),河北省,,
河北邢台新河县振坛路175号,邢台市,新河县,115.242014,37.528712,新河县顺昌摩托专卖,河北省,,
"邢台市桥西区守敬北路516号顺驰车业/\n', '售后地址：邢台市桥东区中兴东大街襄都商场对面顺驰服务中心",邢台市,桥西区,114.481596,37.082228,河北省邢台顺驰商贸有限公司(直营),河北省,,
河北省南和县建设大街南侧,邢台市,南和县,114.675903,37.007806,河北南和县新日电动车专卖店(直营),河北省,,
河北临城县北关街27号,邢台市,桥东区,114.510616,37.081003,河北临城京华商城(直营),河北省,,
河北邢台市临西县玉兰路8号,邢台市,临西县,115.492136,36.860884,河北邢台市临西县照临车业(直营),河北省,,
河北省广宗县兴广路中段,邢台市,广宗县,115.146733,37.060597,广宗县广宇飞达摩托城(直营),河北省,,
河北省邢台市清河县武松公园南门,邢台市,清河县,115.673142,37.064006,河北省邢台市清河县（翟长忠）(直营),河北省,,
河北省宁晋县城工商街移动大厅西行50米路南北京新日专卖,邢台市,宁晋县,115.05886,37.59581,宁晋县亿路通电动车门市(直营),河北省,,
河北省大厂县夏垫镇商贸大街新日专卖店,廊坊市,大厂回族自治县,116.921042,39.954742,李宝财电动车经营部(直营),河北省,,
河北省高邑县昌盛百货大楼凤中路238栋,石家庄市,高邑县,114.612247,37.60374,河北省高邑新日专卖店,河北省,,
深泽县西苑街中段红绿灯西南角,石家庄市,深泽县,115.19679,38.185602,深泽县润丰摩托车销售有限公司(直营),河北省,,
河北行唐县星豪摩托车销售有限责任公司,石家庄市,行唐县,114.552737,38.438411,行唐县星豪摩托车销售有限责任公司(直营),河北省,,
河北省元氏县蟠龙路,石家庄市,元氏县,114.536361,37.75892,河北元氏县顺通车行,河北省,,
河北省石家庄市栾城县新开南街,石家庄市,栾城区,114.656292,37.884372,栾城县新日专卖店(直营),河北省,,
河北省石家庄市平山县锦绣花园对过新日店,石家庄市,平山县,114.205122,38.256817,河北省石家庄市平山县新日店,河北省,,
北省三河市老街南城派出所南侧,廊坊市,三河市,117.079307,39.979284,三河市兴隆自行车经销部,河北省,,
河北灵寿县汽车站东行100米路南永胜车行,石家庄市,灵寿县,114.390731,38.309043,灵寿县永胜车行(直营),河北省,,
平山县东山广场新日电动车,石家庄市,平山县,114.199134,38.247144,平山县守信车行(直营),河北省,,
河北省三河市燕郊镇泰和城商住楼91号,廊坊市,三河市,116.789855,39.957724,三河市燕郊镇小飞电动车行(直营),河北省,,
邯郸市稽山新天地03-1-3A,邯郸市,复兴区,114.482156,36.606188,邯郸新蕾专卖店(直营),河北省,,
河北省武安市桥西路,邯郸市,武安市,114.194248,36.688875,武安市保林电动车销售部(直营),河北省,,
河北省武安市桥西路,邯郸市,武安市,114.194248,36.688875,河北省武安新日电动车专卖店(直营),河北省,,
河北省邱县建设街,邯郸市,邱县,115.170983,36.819892,邱县新日电动车专卖店(直营),河北省,,
河北省邯郸市肥乡县建设街人民家电城13785049373余,邯郸市,肥乡区,114.806998,36.553353,肥乡县人民家电城(直营),河北省,,
河北省邯郸市和平路和平桥,邯郸市,邯山区,114.509141,36.601359,邯郸市恒远车行(直营),河北省,,
河北省邯郸市磁县朝阳路新日专卖店,邯郸市,磁县,114.379625,36.362636,河北省邯郸市磁县新日专卖店(直营),河北省,,
河北省临漳县南二环路新日电动车专卖店,邯郸市,临漳县,114.616794,36.331201,临漳县正源商贸有限公司(直营),河北省,,
南皮县光明东路348号新日电动车,沧州市,南皮县,116.710465,38.039217,南皮新日电动车行,河北省,,
河北省廊坊市霸州市建设东道上东风景小区,廊坊市,霸州市,116.408402,39.112712,霸州新日电动车商行(直营),河北省,,
河北省青县木门店镇,沧州市,青县,116.743775,38.471172,青县木门店镇虹桥车行,河北省,,
沧县中亚家电门市部,沧州市,沧县,117.007478,38.219856,沧县中亚家电门市部,河北省,,
永清县益昌南路95-6号,廊坊市,永清县,116.497537,39.311936,永清县新日专卖店,河北省,,
河北省廊坊市文安县县城东大街北侧（兴文道167号）,廊坊市,文安县,116.469164,38.866637,文安县四通自行车店(直营),河北省,,
黄骅市信誉楼大街南琨洋购物广场地下层,沧州市,黄骅市,117.351158,38.364018,黄骅市赛鼠自行车专卖店,河北省,,
河北容城县西大街县医院西侧,保定市,容城县,115.861657,39.042784,容城县晓军摩托车销售部,河北省,,
河北高碑店市白沟镇富民南路138号,保定市,高碑店市,116.035201,39.114349,河北高碑店市白沟镇(直营),河北省,,
河北省雄县人民大街中段,保定市,雄县,116.102266,38.980212,河北雄县董高建(直营),河北省,,
河北省博野县北环路南,保定市,曲阳县,114.723626,38.632742,博野县富华车业门市部(直营),河北省,,
河北省保定市西大街208号,保定市,莲池区,115.492909,38.862037,保定市大众车业有限公司(直营),河北省,,
河北省唐县农贸街518号,保定市,唐县,114.970663,38.749753,唐县永兴商贸有限公司(直营),河北省,,
河北省满城县燕赵街,石家庄市,正定县,114.572539,38.179937,满城县时代摩托车商行,河北省,,
河北省保定容城县华联商厦古城路中段22号15831474872陈经理,保定市,容城县,115.869912,39.052563,容城县华联摩托城(直营),河北省,,
廊坊市爱民东路49号楼,廊坊市,广阳区,116.726462,39.52849,廊坊市星月神电动车专卖店(直营),河北省,,
河北沧州吴桥县桑园镇长江路北,沧州市,吴桥县,116.40019,37.62594,吴桥县桑园镇顺顺电动车经销处,河北省,,
河北廊坊市文安县左各庄镇,廊坊市,文安县,116.62634,39.004916,文安县左各庄镇新日电动车商行,河北省,,
河北省海兴县县城兴盛街,沧州市,海兴县,117.501741,38.142226,海兴县鹏程摩托车销售有限责任公司(直营),河北省,,
河北省献县明珠商贸城大门南2号楼新日专卖,沧州市,献县,116.136443,38.191856,河北省献县新日电动车商行(直营),河北省,,
河北省沧州河间市商贸城北头,沧州市,河间市,116.07715,38.444035,河北沧州河间市飞跃电动车商行,河北省,,
河北沧州市解放中路清真北大寺西100米,沧州市,运河区,116.84909,38.30358,河北沧州新日专卖店(直营),河北省,,
河北霸州市胜芳镇北安路新日专卖店,廊坊市,霸州市,116.718894,39.083041,河北胜芳新日专卖店,河北省,,
河北省永清县金雀花园南门,廊坊市,永清县,116.49775,39.31225,永清县新日电动车专卖店(直营),河北省,,
河北黄骅市商贸街,沧州市,黄骅市,117.588798,38.375784,河北省黄骅市以人车行(直营),河北省,,
河北省南皮县南皮镇东兴路西侧,沧州市,南皮县,116.695833,38.043372,河北省南皮万通车业销售有限公司(直营),河北省,,
河北青县新华路机械厂楼下,沧州市,肃宁县,115.83757,38.424554,青县奔驰摩托车商行,河北省,,
河北廊坊文安县大留镇,廊坊市,文安县,116.333105,38.849975,河北文安县大留镇新日电动专卖店(直营),河北省,,
张家口康保县康保镇,张家口市,康保县,114.593467,41.847225,张家口康保县银钢摩托车专卖店,河北省,,
双滦区双塔山泰山时代城1号楼8号底商,承德市,双滦区,117.829819,40.981066,承德双滦区恒和新能源电动自行车经销处(直营),河北省,,
滦平县滦平镇新建路东段南侧19号（新日）,承德市,滦平县,117.345373,40.937316,滦平县金鼎商贸有限公司,河北省,,
张家口崇礼县新日电动车专卖店,张家口市,桥西区,114.881584,40.82294,张家口崇礼县新日电动车专卖店,河北省,,
河北省承德市双滦区,承德市,双滦区,117.799912,40.959196,承德双滦新日店(直营),河北省,,
衡水市深州市永平大街73号,衡水市,深州市,115.542339,38.008542,深州市永平白云家电商场,河北省,,
河北省阜城县阜码路北,衡水市,阜城县,116.144418,37.868872,阜城县兰泰商贸有限公司(直营),河北省,,
河北景县景安大街联通公司,衡水市,景县,116.270532,37.691883,景县顺发车行,河北省,,
河北省衡水市枣强县东环路汽车站南邻,衡水市,枣强县,115.731231,37.506607,河北省衡水枣强县（韩林晖）,河北省,,
河北省故城县郑口镇政府对面,衡水市,故城县,115.931492,37.36521,故城县郑口立峰车行,河北省,,
河北省阜城县阜码路北中段,衡水市,阜城县,116.144418,37.868872,阜城县蓝泰商贸有限公司,河北省,,
河北省衡水地区深州市白云商城,衡水市,深州市,115.54219,38.008504,深州市白云商城,河北省,,
衡水景县景安大街302号,衡水市,景县,116.273506,37.691948,景县汽车销售公司(直营),河北省,,
秦皇岛抚宁县石门寨镇,秦皇岛市,海港区,119.607707,40.090271,秦皇岛石门寨镇新日电动车店,河北省,,
河北省秦皇岛市青龙县第二小学对面,秦皇岛市,青龙满族自治县,118.949684,40.407578,杨满林(直营),河北省,,
唐山市路北区韩城镇招待所西侧,唐山市,路北区,118.106269,39.632813,河北省丰润韩城镇成欢电动车商店,河北省,,
河北省丰润白官屯镇新日电动车,唐山市,丰润区,117.962279,39.794378,河北省丰润白官屯镇天宝电动车商店(直营),河北省,,
遵化市新店子镇康各庄少利摩托车商店,唐山市,遵化市,117.995361,40.085027,遵化市康各庄少利摩托车商店,河北省,,
古冶区林西,唐山市,古冶区,118.454755,39.70495,唐山古冶区林西红文爱玛电动车商店,河北省,,
河北秦皇岛市牛头崖镇,秦皇岛市,北戴河区,119.404894,39.83521,秦皇岛市牛头崖新日专卖店(直营),河北省,,
河北唐山市乐亭县京唐港开发区,唐山市,乐亭县,118.997461,39.229746,唐山海港满意摩托车经销部(直营),河北省,,
唐山丰南区钱营镇商业街,唐山市,路北区,118.136076,39.644005,唐山丰南区钱营镇新日专卖店(直营),河北省,,
唐山丰南区新华路116号,唐山市,丰南区,118.101929,39.561905,河北唐山丰南区（宋永华）,河北省,,
唐山古冶区林西新林道开滦物流中心,唐山市,古冶区,118.444391,39.721722,唐山亨美商贸有限公司(直营),河北省,,
青龙县服务街与南外环交叉口,秦皇岛市,青龙满族自治县,118.94853,40.402798,青龙县新日电动车专卖店,河北省,,
河北省唐山市丰南区西葛镇西葛村,唐山市,丰南区,118.206426,39.473734,河北唐山丰南区西葛镇老五摩托家电商场(直营),河北省,,
河北省唐山市迁西县景忠东街销售史经理：13831559204,唐山市,迁西县,118.310783,40.141552,迁西县静海摩托车销售有限公司,河北省,,
河北省唐山市古冶区南港各庄商业街海园饭庄对面,唐山市,古冶区,118.447635,39.733578,唐山市古冶区新日电动车专卖店(直营),河北省,,
河北省迁安市昌盛路28号千禧隆电东车超市,唐山市,迁安市,118.842337,40.075688,迁安市千禧隆电动车商店（王英）(直营),河北省,,
河北省唐山市丰润区曹雪芹东大街新日电动车；河北省唐山市路南区复兴路184号新日电动车,唐山市,路南区,118.210281,39.620141,唐山市丰润区凯骑电动车专卖店(直营),河北省,,
遵化市通华西街,唐山市,遵化市,117.964151,40.187417,遵化市通华街富华商城(直营),河北省,,
河北沽源县平定堡镇东围子,张家口市,沽源县,115.680065,41.671446,刘伟,河北省,,
河北蔚县西合营商业街路西,张家口市,蔚县,114.755541,39.959611,河北蔚县西合营路路通车行(直营),河北省,,
怀安县广场旁,张家口市,怀安县,114.385791,40.674193,怀安县柴沟堡镇万里车行(直营),河北省,,
平泉县兴平南路,承德市,平泉市,118.682258,40.998281,平泉县荣华摩托车家电有限公司(直营),河北省,,
平泉县黄土梁子镇中段,承德市,平泉市,118.701951,41.018405,平泉县黄土梁子金太阳车行,河北省,,
蔚县西合营商业街,张家口市,蔚县,114.755541,39.959611,蔚县西合营桂花摩托车经销部(直营),河北省,,
宽城县新兴街295号,承德市,宽城满族自治县,118.482165,40.603181,宽城县新日电动车专卖店,河北省,,
河北省承德市双滦区滦河镇四中学校家属楼一单元401室,承德市,双滦区,117.753357,40.953106,河北省承德市双滦区（彭涛）(直营),河北省,,
河北省承德市平泉县榆州中路老穆自行车商行,承德市,平泉市,118.686568,41.0026,河北省平泉县老穆自行车商行(直营),河北省,,
河北省承德市东大街路南19号(神龙摩托车经销商有限公司),承德市,双桥区,117.940778,40.978773,河北省承德市神龙摩托车经销商有限公司(直营),河北省,,
河北省张家口市怀安县万里车行,张家口市,怀安县,114.421883,40.672743,怀安万里车行(直营),河北省,,
河北省张家口市万全县商业街终端路南,张家口市,万全区,114.74056,40.766898,万全区孔家庄镇韶华电动车行(直营),河北省,,
河北省张家口市张北县西大街新日电动车,张家口市,张北县,114.711468,41.15853,张北县永久自行车店,河北省,,
河北省张家口市涿鹿县人民南路6号邦德富士达专卖店,张家口市,涿鹿县,115.216335,40.369466,河北省张家口市涿鹿县（王金河）(直营),河北省,,
河北滦平县医院东侧20米,承德市,滦平县,117.336255,40.932777,滦平县新日专卖店(直营),河北省,,
河北承德市滦平县新建东路南侧西段九号,承德市,滦平县,117.332554,40.931943,承德市滦平县新日电动车专卖店(直营),河北省,,
河北秦皇岛市和平大街与海洋路交叉口路南,秦皇岛市,海港区,119.593187,39.934807,秦皇岛市海港区杰昊电动车经销部(直营),河北省,,
河北省秦皇岛市青龙满族自治县服务街南段新日电动车-李艳东,秦皇岛市,青龙满族自治县,118.94885,40.401078,河北青龙满族自治小鸟电动车门市部(直营),河北省,,
河北省昌黎燕山大街,秦皇岛市,海港区,119.634639,39.955054,河北昌黎县凌鹰电动自行车商店,河北省,,
河北省卢龙县五里台,秦皇岛市,卢龙县,118.898009,39.907691,河北省卢龙县大本营车业有限公司(直营),河北省,,
劝业场路29号(近保定商场),保定市,莲池区,115.499526,38.860498,保定商场店,河北省,,
青龙镇北源街17号,秦皇岛市,青龙满族自治县,118.97034,40.406622,青龙新日专卖店,河北省,,
河北省衡水市枣强县汽车站北60米路东,衡水市,枣强县,115.730575,37.507399,枣强县建伟电动车门市部,河北省,,
临漳镇,邯郸市,临漳县,114.61700186133385,36.33108541660437,临漳王婵路新日电动车门市,河北省,,
磁州镇,邯郸市,磁县,114.37977120280266,36.36065691816931,磁县新日电动车专卖店,河北省,,
武安镇,邯郸市,武安市,114.21055868268013,36.687730805933256,武安新日电动车专卖店,河北省,,
安肃镇,保定市,徐水区,115.65398946404459,39.01853767752689,徐水永兴电动车经销处,河北省,,
涉城镇,邯郸市,涉县,113.67026656866074,36.55268392378514,新日电动车涉县经销店,河北省,,
乐购商业街与西大街交叉口东100米,保定市,莲池区,115.497752,38.861132,西大街中店,河北省,,
魏城镇,邯郸市,魏县,114.9319173395634,36.36235680845926,魏县新日电动车专卖店,河北省,,
永华街道,保定市,莲池区,115.49681201577187,38.86136704477458,西大街南店,河北省,,
广平镇,邯郸市,广平县,114.94536727666853,36.48239874880937,广平新日电动车,河北省,,
成安镇,邯郸市,成安县,114.69954550266267,36.446124841240284,成安县新日电动车专卖店,河北省,,
街关镇,衡水市,武强县,115.84799364209178,37.98753713758576,街关大兵车行,河北省,,
双塔街道,保定市,涿州市,115.97480714321135,39.493601171492664,双友车老大,河北省,,
唐奉镇,衡水市,深州市,115.4986037313938,38.125474698037564,唐奉大全车行,河北省,,
临洺关镇107国道火车站斜对过名园春楼下,邯郸市,永年区,114.486104,36.776576,永年新日电动车专卖店,河北省,,
称勾集镇,邯郸市,临漳县,114.7005231678486,36.2490191268704,称勾新日电动车专卖店,河北省,,
柳园镇,邯郸市,临漳县,114.59619060158731,36.1722191287474,柳园新日电动车专卖店,河北省,,
河北省衡水市故城县郑口镇广交区中华街南段,衡水市,故城县,115.931501,37.36524,故城县郑口慧宁电动车自行车经销处,河北省,,
河北省张家口市张北县兴和小区旁,张家口市,张北县,114.723854,41.142656,张北县成成车行,河北省,,
河北省秦皇岛市青龙县北源街29号,秦皇岛市,青龙满族自治县,118.949684,40.407578,青龙满族自治县青龙镇山地车行,河北省,,
柳园镇,安阳市,安阳县,114.6646311879158,36.14714530380898,胡营新日电动车专卖店,河南省,,
孙陶集镇,邯郸市,临漳县,114.51675564050674,36.19012115571065,孙陶新日电动车专卖店,河北省,,
曹庄乡,邯郸市,鸡泽县,114.8804269731045,36.78183513609488,小寨新日电动车专卖店,河北省,,
鸡泽镇,邯郸市,鸡泽县,114.87246215343477,36.90985642830565,鸡泽新日电动车专卖店,河北省,,
孙庄乡,衡水市,武强县,115.83358615636828,38.078995864921865,皇甫新日,河北省,,
凌云册乡,保定市,易县,115.50943046808244,39.235569965254435,凌云册新日,河北省,,
易州镇,保定市,易县,115.49938559532167,39.3554840182827,易县新日旗舰店,河北省,,
杜村集乡,邯郸市,临漳县,114.53527897596359,36.26767995352867,三教堂新日电动车专卖店,河北省,,
习文乡,邯郸市,临漳县,114.427290558815,36.24014458675107,仁寿新日电动车专卖店,河北省,,
魏家桥镇,衡水市,深州市,115.52288845181467,37.900302111107635,魏桥涌涛车行,河北省,,
231省道丰园饭店北20米路东,衡水市,深州市,115.506438,37.79901,大兵车行,河北省,,
旧治乡,邯郸市,大名县,115.17215877771378,36.28143913254849,大名新日电动车专卖店,河北省,,
留楚乡,衡水市,饶阳县,115.83052173256873,38.16623777617052,留楚兴旺车行,河北省,,
塘湖镇,保定市,易县,115.37541389465332,39.196330412072236,塘湖新日电动车,河北省,,
裴山镇,保定市,易县,115.44980227947237,39.228527890838386,裴山新日专卖店,河北省,,
裴山镇东罗村,保定市,易县,115.46128,39.258599,罗村新日专卖店,河北省,,
大阁镇,承德市,丰宁满族自治县,116.64799466729164,41.210737839024446,丰宁县新日电动车专卖店,河北省,,
东市村,保定市,易县,115.493,39.33178,固村新日电动车,河北省,,
大官亭镇,衡水市,饶阳县,115.6894697248936,38.30641128048614,世康车业,河北省,,
东里满乡,衡水市,饶阳县,115.5909186601639,38.13052688983696,旺达车业,河北省,,
五公镇,衡水市,饶阳县,115.68534314632416,38.14240433444518,向东车行(五公镇),河北省,,
涞源镇,保定市,涞源县,114.69123333692552,39.34887815910309,涞源路力车行,河北省,,
南王庄镇,石家庄市,辛集市,115.42729854583743,38.09414837137291,南王宋中权车行,河北省,,
兴安大街与昌盛大路交叉口东南50米,唐山市,迁安市,118.697836,40.014261,迁安新日专卖店,河北省,,
大子文乡,衡水市,安平县,115.40742337703703,38.21297824972095,子文立峰车业,河北省,,
大何庄乡,衡水市,安平县,115.4150341451168,38.27894964358509,会勋车业,河北省,,
涞阳路,保定市,涞水县,115.714784,39.390964,涞水县马强自行车商店,河北省,,
新华南街与秦泽西路交汇处,邢台市,巨鹿县,115.03635,37.212383,巨鹿诚信车业门市,河北省,,
程油子乡,衡水市,安平县,115.59955537319183,38.29775393444325,李江车业,河北省,,
义安镇,保定市,涞水县,115.80327048897743,39.37577783116834,北义安新日,河北省,,
牙里镇,邯郸市,魏县,114.95725885033607,36.1386220374975,牙里新日电动车专卖店,河北省,,
边马乡,邯郸市,魏县,115.02741470932959,36.17762870436505,边马新日电动车专卖店,河北省,,
兴村乡,沧州市,河间市,115.99651560187341,38.50684327076837,兴村红伟车业,河北省,,
定兴镇,保定市,定兴县,115.78180477023128,39.24124030038325,定兴富豪,河北省,,
郭家村乡,沧州市,河间市,116.03701159358027,38.532806416942506,郭村娄青车业,河北省,,
双井镇,邯郸市,魏县,114.9742238223553,36.24080656163227,双井新日电动车专卖店,河北省,,
沙河桥镇,沧州市,河间市,116.32043793797493,38.392035498108214,沙河桥君利车业,河北省,,
小南辛堡镇,张家口市,怀来县,115.73372751474382,40.31942508148311,张家口怀来县小南幸堡镇新日电动车专卖,河北省,,
惠丰街北200米,唐山市,丰南区,118.144977,39.478391,丰南黄各庄镇新日电动车,河北省,,
卧佛堂镇,沧州市,河间市,116.27739921212196,38.61253326417937,卧佛堂新日专卖,河北省,,
圈头乡,衡水市,武邑县,115.81287682056427,37.86526180166239,圈头晶磊车行,河北省,,
南孟镇韩家洼村,石家庄市,藁城区,114.773553,38.15033,韩家洼新日电动车,河北省,,
审坡镇,衡水市,武邑县,115.95754846930505,37.75933368457146,志诚车行,河北省,,
西城路22号,唐山市,开平区,118.264217,39.680393,开平新日电动车,河北省,,
小龙马乡,邯郸市,永年区,114.66125160455704,36.72640452744391,大张村新日电动车专卖店,河北省,,
留古寺镇,沧州市,河间市,116.20677933096889,38.51314919741737,留古寺新日专卖,河北省,,
河北省张家口市桥东区工业中横街惠安苑一号,张家口市,桥西区,114.885111,40.794576,桥东区顺威电动车经销部,河北省,,
军屯镇,衡水市,故城县,115.77836215496066,37.16550534988537,瀛星车行,河北省,,
凤凰东街与栗乡路交叉口南200米,唐山市,迁西县,118.312709,40.143252,迁西新日专卖店,河北省,,
曲周镇,邯郸市,曲周县,114.95141297578813,36.77418165548042,曲周新日电动车专卖店,河北省,,
新保安镇,张家口市,怀来县,115.41355758905411,40.44157241825043,怀来县新保安镇新日电动车专卖店,河北省,,
大黄庄镇,张家口市,怀来县,115.38607299327852,40.401249932112776,怀来县大黄庄新日电动车专卖店,河北省,,
邯临公路北50米,邯郸市,丛台区,114.666404,36.671429,南沿村新日电动车专卖店,河北省,,
狼山乡,张家口市,怀来县,115.68147137761117,40.360528242779104,怀来县狼山镇新日电动车专卖店,河北省,,
任各庄镇112国道,唐山市,丰润区,118.165889,39.718764,丰润任各庄新日电动车,河北省,,
开放路西50米,唐山市,曹妃甸区,118.213702,39.239616,南堡新日专卖店,河北省,,
焦庄乡,保定市,莲池区,115.53401157259943,38.82569409001113,樊庄新日,河北省,,
无终东街145号(玉田县财政局西南),唐山市,玉田县,117.756639,39.883101,玉田新日电动车专卖店,河北省,,
垦丰大街16号,唐山市,曹妃甸区,118.464087,39.272805,曹妃甸新日专卖店,河北省,,
天马大街与抚绣路交叉口西150米,秦皇岛市,抚宁区,119.243875,39.885444,抚宁新日专卖店,河北省,,
新影街38号,秦皇岛市,山海关区,119.76268,40.00287,山海关新日电动车专卖店,河北省,,
南关街道,保定市,莲池区,115.49870565533638,38.84592997021502,南皋新日,河北省,,
西大街与新华南路交叉路口南50米,邢台市,桥东区,114.499738,37.059053,邢台市桥西区真育电动自行车经营部,河北省,,
临水镇,邯郸市,峰峰矿区,114.20837000012398,36.422422018757004,峰峰新日电动车专卖店,河北省,,
西固义乡,邯郸市,磁县,114.2519921064377,36.39501470461198,东固义新日电动车专卖店,河北省,,
韩庄乡,保定市,莲池区,115.52515491843222,38.88719662124373,长城北大街新日,河北省,,
大社镇,邯郸市,峰峰矿区,114.24108222126962,36.54756539702614,大社新日电动车专卖店,河北省,,
恒祥北大街与瑞兴路交叉口北行100米路西(秀兰锦观城对面),保定市,莲池区,115.496939,38.900731,八里庄新日,河北省,,
竞秀区七一西路612号(七一西路与新市场街交叉口东行路南),保定市,竞秀区,115.455274,38.881575,七一路新日,河北省,,
新城镇,邢台市,沙河市,114.36383083462714,36.87698052892582,沙河新城镇新日电动车专卖店,河北省,,
南留庄镇,张家口市,蔚县,114.45275813341141,39.863872653466565,蔚县南留庄新日电动车专卖店,河北省,,
赞善街道,邢台市,沙河市,114.4239753484726,36.87087936193292,沙河市官庄村新日电动车专卖店,河北省,,
德惠路与康惠街交叉口北行50米路西,保定市,竞秀区,115.465504,38.863416,南基地新日,河北省,,
暖泉镇,张家口市,蔚县,114.46774363517763,39.78540266831063,蔚县下宫村新日电动车专卖店,河北省,,
玉泉街286号,张家口市,蔚县,114.574816,39.813266,蔚县西合营镇新日电动车专卖店,河北省,,
蒲阳镇,保定市,顺平县,115.13593420386317,38.84488755189791,顺平新日,河北省,,
522县道南50米,唐山市,遵化市,117.699339,40.189437,马兰峪镇新日专卖店,河北省,,
高于铺镇,保定市,顺平县,115.2210259437561,38.75555581285355,高于铺新日,河北省,,
砖路镇,保定市,定州市,114.95133385062218,38.656081970834165,砖路新日,河北省,,
院堡乡,邯郸市,魏县,114.83278289437295,36.330933079612656,院堡新日电动车专卖店,河北省,,
北皋镇,邯郸市,魏县,114.79922845959665,36.27044582323869,北皋,河北省,,
留早镇,保定市,定州市,115.17227411270143,38.59475838066959,留早新日,河北省,,
车往镇,邯郸市,魏县,114.82737690210344,36.192556415835135,车往新日电动车专卖店,河北省,,
清风店镇,保定市,定州市,115.05545720458032,38.607248421182696,清风店新日,河北省,,
北台头乡,邯郸市,魏县,114.87707421183589,36.21759299049498,北台头新日,河北省,,
兴华中路与清风北街交叉口西150米,保定市,定州市,114.992418,38.520288,定州新日专卖店,河北省,,
南关安家市场,保定市,定州市,114.990312,38.494631,定州新日库房店,河北省,,
定曲路,保定市,定州市,114.946511,38.541669,定州客车厂新日,河北省,,
107国道东100米,保定市,定州市,114.911,38.494525,沟里新日,河北省,,
棋盘山镇,承德市,围场满族蒙古族自治县,117.67170131206512,42.05672532133436,围场县棋盘山新日电动车专卖店,河北省,,
唐邱乡,邢台市,宁晋县,114.98293161392212,37.69046935506095,宁晋县唐邱镇新日电动车专卖店,河北省,,
胜营镇,邯郸市,广平县,114.8592455685139,36.39188728401728,胜营新日电动车专卖店,河北省,,
复兴路与文化北后街交叉口西50米,唐山市,路南区,118.210212,39.620323,唐山路南区新日电动车专卖店,河北省,,
苏家庄镇,邢台市,宁晋县,115.11994287371635,37.794175278446886,宁晋县司马新日电动车专卖店,河北省,,
059乡道与069乡道交叉口西150米,邯郸市,广平县,115.05695,36.502914,南韩村新日电动车专卖店,河北省,,
南阳堡乡,邯郸市,广平县,115.01875787973407,36.52575156724108,南阳堡新日电动车专卖店,河北省,,
四芝兰镇,邢台市,宁晋县,115.15929356217384,37.71310023744126,宁晋县恒信电器,河北省,,
王桥乡,邯郸市,馆陶县,115.19099056720735,36.47174548030105,留庄新日电动车专卖店,河北省,,
馆陶镇,邯郸市,馆陶县,115.29425963759425,36.53530260973027,馆陶新日电动车专卖店,河北省,,
南徐村乡,邯郸市,馆陶县,115.33802524209024,36.63199871551709,徐村新日电动车专卖店,河北省,,
周村镇,保定市,定州市,114.99080523848534,38.46176012656585,东车寄新日,河北省,,
王桥乡,邯郸市,馆陶县,115.22602826356888,36.488283892507056,赵庄新日电动车专卖店,河北省,,
高蓬镇,保定市,定州市,115.00091448426248,38.35654903516197,高蓬新日,河北省,,
周村镇,保定市,定州市,114.92801338434221,38.4444636882205,周村新日,河北省,,
南城区街道,保定市,定州市,114.97839465737344,38.46893731426023,花张蒙新日,河北省,,
恒州镇,保定市,曲阳县,114.71284925937653,38.62160870422271,曲阳新日,河北省,,
固城店镇,邢台市,柏乡县,114.72949102520941,37.583586157991505,柏乡县固城店镇新日电动车专卖店,河北省,,
下河乡,保定市,曲阳县,114.75722640752794,38.68768508283678,董家马新日,河北省,,
下河乡,保定市,曲阳县,114.75998640060425,38.69281745200383,驿头新日,河北省,,
文德镇,保定市,曲阳县,114.73708033561707,38.59873924716472,西河流新日,河北省,,
文德镇曲燕路100号,保定市,曲阳县,114.750426,38.572214,文德新日,河北省,,
燕赵镇,保定市,曲阳县,114.81286749243736,38.5498309888903,燕赵新日,河北省,,
平阳镇,保定市,阜平县,114.47652518749238,38.81830281450581,平阳新日,河北省,,
北乡义乡,邯郸市,成安县,114.80150699615477,36.448717167971445,北乡义新日电动车专卖店,河北省,,
李家疃镇,邯郸市,成安县,114.75002735853197,36.353367704641634,李家町新日电动车专卖店,河北省,,
漳河店镇,邯郸市,成安县,114.81892257928848,36.41489360686646,漳河店新日电动车专卖店,河北省,,
富镇镇,沧州市,泊头市,116.15148022770883,38.02782571055546,泊头富镇新日专卖,河北省,,
阜平镇,保定市,阜平县,114.20267164707185,38.85076479493807,阜平新日,河北省,,
于家庄乡,保定市,满城区,115.36172524094582,38.80340717889354,于庄新日,河北省,,
米各庄镇,沧州市,河间市,116.31320938467981,38.547329479049154,河间南留路新日专卖,河北省,,
尊祖庄乡,沧州市,河间市,116.37955650687219,38.47273510688041,河间尊祖庄连仓电动车,河北省,,
祁州镇,保定市,安国市,115.3217187523842,38.41476052310292,安国迅达,河北省,,
半壁山镇,承德市,兴隆县,117.9128225147724,40.36387488553074,兴隆县半壁山镇新日电动车专卖店,河北省,,
牛驼镇,廊坊市,固安县,116.34257957339288,39.26845962741649,固安牛驼镇大沙垡,河北省,,
伍仁桥镇,保定市,安国市,115.32798841595651,38.29098604568615,伍仁桥新日,河北省,,
固安镇,廊坊市,固安县,116.39419198036195,39.42053130327538,固安知子营新日,河北省,,
柳泉镇,廊坊市,固安县,116.38931840658186,39.36300688523352,固安东红寺新日,河北省,,
牛驼镇,廊坊市,固安县,116.30234643816948,39.2844948804361,固安门铁营新日,河北省,,
交河镇,沧州市,泊头市,116.29035025835036,38.019446894029414,泊头交河新日专卖,河北省,,
南皮镇,沧州市,南皮县,116.71046465635303,38.03921708188691,南皮新日电动车专卖,河北省,,
文庙镇,沧州市,泊头市,116.74093455076218,38.1835047715043,泊头文庙新日专卖,河北省,,
齐桥镇,沧州市,泊头市,116.50891944766046,38.15435050248244,齐桥新日专卖,河北省,,
议论堡乡,沧州市,任丘市,116.17490395903589,38.70843002576554,任丘议论堡新日专卖,河北省,,
古马镇何茨线古马镇卫生院东100镇政府对面,唐山市,滦州市,118.656564,39.660032,古马镇新日电动车,河北省,,
172乡道西50米,唐山市,滦州市,118.65406,39.825521,铁局寨村新日电动车专卖店,河北省,,
步行街农行东临鑫源商厦,唐山市,滦南县,118.682876,39.505377,滦南新日专卖店,河北省,,
堡子店镇堡子店村,唐山市,遵化市,117.826188,40.159911,堡子店镇新日电动车,河北省,,
矿西路西150米,唐山市,开平区,118.254258,39.755243,荆各庄镇新日电动车,河北省,,
西佛落镇,保定市,安国市,115.3276813030243,38.53735299089999,西伏落新日,河北省,,
博野镇,保定市,博野县,115.46030983328819,38.45982788671884,博野新日,河北省,,
里坦镇,廊坊市,大城县,116.59501165151599,38.51118790246888,大城里坦新日专卖,河北省,,
北位乡,廊坊市,大城县,116.39737844467165,38.64183334103546,大城北位新日专卖,河北省,,
摩配园区,廊坊市,大城县,116.44948303699493,38.70109776326152,大城阜草新日电动车,河北省,,
广安镇,廊坊市,大城县,116.5645806491375,38.6687707525802,大城王香屯新日专卖,河北省,,
留各庄镇,廊坊市,大城县,116.5115936100483,38.562939155480144,留各庄新日电动车,河北省,,
天门口村,沧州市,任丘市,116.052842,38.745969,任丘青塔乡天门口新日,河北省,,
梁召镇,沧州市,任丘市,116.28207966685298,38.76876022589138,任丘梁召新日专卖,河北省,,
章台镇,邢台市,威县,115.339552,37.162967,威县章台新日电动车专卖店,河北省,,
贺营镇贺营乡曹王营村,邢台市,威县,115.307562,37.109721,威县马庄新日电动车专卖店,河北省,,
常屯乡政府北邻,邢台市,威县,115.479513,37.070156,威县常屯新日电动车专卖店,河北省,,
贺钊乡西贺钊村北边,邢台市,威县,115.355904,37.085493,威县贺钊新日电动车专卖店,河北省,,
梨园屯镇,邢台市,威县,115.457651,36.975945,威县梨元屯镇新日电动车专卖店,河北省,,
固献乡809县道,邢台市,威县,115.38838,36.965844,威县前戈寨新日电动车专卖店,河北省,,
652乡道北50米,邢台市,威县,115.330653,37.189962,威县经镇新日电动车专卖店,河北省,,
枣园乡邵固村,邢台市,威县,115.535582,36.952733,威县邵固新日电动车专卖店,河北省,,
贺钊乡657乡道,邢台市,威县,115.407522,37.133921,威县郭牛村新日电动车专卖店,河北省,,
大张庄乡,邢台市,隆尧县,114.85069736838344,37.402769425653574,隆尧大张庄新日电动车专卖店,河北省,,
千户营乡251乡道,邢台市,隆尧县,114.922345,37.40285,隆尧千户营新日电动车专卖店,河北省,,
双碑乡东良乡,邢台市,隆尧县,114.651352,37.31748,隆尧周村新日电动车专卖店,河北省,,
固城镇,邢台市,隆尧县,114.777367,37.461617,隆尧固城镇新日电动车专卖店,河北省,,
莲子镇镇莲子镇,邢台市,隆尧县,114.844928,37.297102,隆尧莲子镇新日电动车专卖店,河北省,,
尹村镇大霍村,邢台市,隆尧县,114.682498,37.400411,隆尧大霍村新日电动车专卖店,河北省,,
北楼乡景福村,邢台市,隆尧县,114.704213,37.238445,隆尧景福新日电动车专卖店,河北省,,
327省道南150米,邢台市,巨鹿县,115.177033,37.359968,巨鹿县团城新日电动车专卖店,河北省,,
官亭镇,邢台市,巨鹿县,115.05750104784967,37.34623003817073,巨鹿县官厅镇新日电动车专卖店,河北省,,
辛店镇,邢台市,任县,114.88277524709703,37.13400153558832,巨鹿县辛店新日电动车专卖店,河北省,,
王虎寨镇西宋庄村,邢台市,巨鹿县,114.970541,37.208397,巨鹿县宋庄新日电动车专卖店,河北省,,
蠡吾镇,保定市,蠡县,115.58313220739367,38.502155182122074,蠡县新日,河北省,,
苏家庄镇,邢台市,宁晋县,115.09821563959123,37.75354547922396,宁晋苏家庄镇新日电动车专卖店,河北省,,
辛兴镇,保定市,蠡县,115.64955174922942,38.561189999994895,辛兴新日,河北省,,
东汪镇,邢台市,宁晋县,115.02248346805571,37.54858173001972,宁晋东旺镇新日电动车专卖店,河北省,,
河渠镇,邢台市,宁晋县,114.83580440282822,37.59914572088236,宁晋河渠镇新日电动车专卖店,河北省,,
大曹庄乡,邢台市,宁晋县,114.9343755841255,37.56017586505275,宁晋县大曹庄乡新日电动车专卖店,河北省,,
凤凰镇,邢台市,宁晋县,114.959937,37.585747,宁晋县北鱼台新日电动车专卖店,河北省,,
徐家河乡,邢台市,宁晋县,114.93240147829057,37.47025366070482,宁晋县徐家河新日电动车专卖店,河北省,,
204县道西50米,邢台市,宁晋县,114.851991,37.54638,宁晋县东陈新日电动车专卖店,河北省,,
大百尺镇,保定市,蠡县,115.69384709000586,38.57447223895149,百尺新日,河北省,,
西阳城乡,邯郸市,永年区,114.44260597229005,36.82495854366458,阳城新日电动车专卖店,河北省,,
西苏乡,邯郸市,永年区,114.57700073719026,36.740724024275586,六星新日电动车专卖店,河北省,,
308国道,邢台市,宁晋县,115.075241,37.519129,宁晋县艾辛庄新日电动车专卖店,河北省,,
北鱼乡,邢台市,宁晋县,114.88585844635963,37.487098981688796,宁晋县北鱼恒洁新日专卖店,河北省,,
广府镇,邯郸市,永年区,114.75103721022607,36.719779661008396,广府新日电动车专卖店,河北省,,
临河乡,沧州市,献县,115.9278202056885,38.195768831812174,献县临河乡新日专卖,河北省,,
陌南镇,沧州市,献县,115.95799103379251,38.25979402851394,献县陌南新日专卖,河北省,,
段村乡,沧州市,献县,116.00705936551095,38.26036583248748,段村国伟电动车行,河北省,,
十五级乡,沧州市,献县,116.21265068650247,38.25903266927661,献县十五级八章村新日专卖,河北省,,
徐留高乡,沧州市,献县,116.46427810192108,38.25668325182028,献县尚庄镇新日专卖,河北省,,
淮镇镇,沧州市,献县,116.37027874588966,38.231158060768884,淮镇永胜车行,河北省,,
郝村镇,沧州市,泊头市,116.31401941180229,38.110145080065095,泊头郝村镇新日专卖,河北省,,
杨集乡,沧州市,盐山县,117.42953002452852,37.94345717113103,盐山杨集乡新日电动车,河北省,,
于村乡,沧州市,任丘市,116.19774565100671,38.85196065574068,任丘西八方胜东电动车,河北省,,
于村乡,沧州市,任丘市,116.16946443915369,38.832663587660036,任丘于村乡新日电动车,河北省,,
麻家坞镇,沧州市,任丘市,116.21803790330887,38.65991910623505,任丘麻家坞新日专卖,河北省,,
鄚州镇,沧州市,任丘市,116.15374132990836,38.843222575532664,任丘鄚州新日专卖,河北省,,
北辛庄乡,沧州市,任丘市,116.08504325151445,38.76848731549901,任丘北辛庄新日专卖,河北省,,
辛中驿镇,沧州市,任丘市,116.04498982429506,38.6040823591329,任丘辛中驿晓华车行,河北省,,
梁召镇,沧州市,任丘市,116.28207966685298,38.76876022589138,任丘梁召镇新日专卖,河北省,,
吕公堡镇,沧州市,任丘市,116.29554435610773,38.71770364329697,任丘吕宫堡新日,河北省,,
东杨庄乡,邯郸市,永年区,114.70950186252595,36.769829841046075,东杨庄新日电动车专卖店,河北省,,
青塔乡,沧州市,任丘市,116.01613059639932,38.728671998828965,任丘青塔乡新日专卖,河北省,,
长丰镇,沧州市,任丘市,116.38263970613481,38.74339392155177,任丘长丰新日专卖,河北省,,
高阳镇,保定市,高阳县,115.78157141804697,38.68868792835302,高阳新日,河北省,,
唐邱乡南马庄村,邢台市,宁晋县,115.014108,37.706152,宁晋县南马庄新日电动车专卖店,河北省,,
唐古路南50米,唐山市,开平区,118.336715,39.694329,洼里镇新日电动车,河北省,,
庞家佐乡,保定市,高阳县,115.87716266512871,38.5571095203744,庞佐新日,河北省,,
庞口镇,保定市,高阳县,115.95074370503427,38.64252049082591,庞口新日,河北省,,
贾家口镇,邢台市,宁晋县,115.11765763163568,37.60654073900245,宁晋县黄儿营新日电动车专卖店,河北省,,
凤山镇,承德市,丰宁满族自治县,117.20553338527681,41.21906679918985,丰宁县凤山镇新日电动车专卖店,河北省,,
清苑镇,保定市,清苑区,115.49623399972918,38.76516002515635,清苑新日,河北省,,
251省道石门寨派出所附近,秦皇岛市,海港区,119.607707,40.090271,石门寨新日电动车,河北省,,
滦州镇建华北路120号,唐山市,滦州市,118.694884,39.748623,滦县新日电动车,河北省,,
海阳路159号附近,秦皇岛市,海港区,119.591458,39.936166,秦皇岛新日电动车（海阳路）,河北省,,
和平大街东6号,秦皇岛市,海港区,119.592543,39.935295,秦皇岛新日电动车（和平路）,河北省,,
曹雪芹西道170号附近,唐山市,丰润区,118.132013,39.828623,丰润区新日电动车专卖店,河北省,,
刘营乡,邯郸市,永年区,114.56976816058159,36.81630123386377,刘营新日电动车专卖店,河北省,,
固新镇,邯郸市,涉县,113.74643459916116,36.47893193332161,固新新日电动车专卖店,河北省,,
更乐镇,邯郸市,涉县,113.75182852149011,36.57895857321493,八五新日电动车专卖店,河北省,,
浮图店乡,邯郸市,鸡泽县,114.77331429719926,36.846609338562125,柏枝寺新日电动车专卖店,河北省,,
曹庄乡,邯郸市,鸡泽县,114.85101655125618,36.78999156237329,孙堡营新日电动车专卖店,河北省,,
双塔镇,邯郸市,鸡泽县,114.79570671916008,36.81273238512025,双塔新日电动车专卖店,河北省,,
中华街道,邯郸市,邯山区,114.48734655976295,36.60500896602372,冠冠新日,河北省,,
东吕乡,保定市,清苑区,115.5332162976265,38.629876299071015,南王村新日,河北省,,
码头镇,保定市,涿州市,116.0527212917805,39.542705470598996,向阳新日,河北省,,
G4京港澳高速附近,保定市,涿州市,116.026771,39.439764,毛营新日,河北省,,
望都镇,保定市,望都县,115.15037655830386,38.70686023550221,望都新日,河北省,,
北辛堡镇,张家口市,怀来县,115.75583159923553,40.413992301348834,怀来县北辛堡镇新日电动车专卖店,河北省,,
415县道西50米,张家口市,怀来县,115.80499,40.335496,怀来县东花园镇新日电动车专卖店,河北省,,
骆庄乡,邢台市,任县,114.80880662798884,37.11692614320325,邢台市骆庄乡新日电动车专卖店,河北省,,
兴旺路28号附近,唐山市,乐亭县,118.86646,39.332607,闫各庄镇新日电动车,河北省,,
香菜营乡,邯郸市,临漳县,114.45466786623004,36.30870597413899,香菜营新日电动车专卖店,河北省,,
索堡镇,邯郸市,涉县,113.60511571168901,36.6374344877838,索堡新日电动车专卖店,河北省,,
邯临公路附近,邯郸市,丛台区,114.716772,36.675355,田堡新日电动车专卖店,河北省,,
001县道附近,邯郸市,丛台区,114.670261,36.636321,北中堡新日电动车专卖店,河北省,,
220乡道东100米,邯郸市,涉县,113.534782,36.693896,辽城新日电动车专卖店,河北省,,
古柳线,唐山市,曹妃甸区,118.66028,39.224582,柳赞镇新日电动车专卖店,河北省,,
钱营镇康乾大街11号,唐山市,丰南区,118.374623,39.568311,钱营镇新日电动车专卖店,河北省,,
北河庄镇,邢台市,宁晋县,114.86426934599879,37.56006211201373,宁晋县北河庄镇新日电动车专卖店,河北省,,
农贸街与宽心街交叉口西北150米,唐山市,滦南县,118.629313,39.281473,杨岭镇新日电动车专卖店,河北省,,
长泰街与098乡道交叉口东北50米,唐山市,滦南县,118.790233,39.581798,长凝镇新日电动车,河北省,,
天生桥镇,保定市,阜平县,113.95294860005382,38.88975620213795,东下关新日,河北省,,
102国道亮甲店镇附近,唐山市,玉田县,117.87358,39.876044,亮甲店镇新日,河北省,,
河北省高邑县凤中路中段路南,石家庄市,高邑县,114.616202,37.603393,高邑县鹏健电动车经销部,河北省,,
马陡路跃华新楼商业楼12号,唐山市,开平区,118.24858,39.70618,马家沟镇新日电动车,河北省,,
李各庄庆南道三十五中西行100米,唐山市,路北区,118.199653,39.69022,李各庄新日电动车,河北省,,
范董线南50米,唐山市,丰南区,118.195695,39.471129,西葛镇新日电动车,河北省,,
邱柳线北50米,唐山市,丰润区,118.057057,39.636482,韩城镇新日电动车,河北省,,
杨官林镇,唐山市,丰润区,118.014779,39.902147,杨官林镇新日电动车,河北省,,
迁徐线,唐山市,迁安市,118.769591,40.043967,扣庄镇新日电动车,河北省,,
丰润区,唐山市,丰润区,118.19555,39.863457,刘家营乡新日电动车,河北省,,
杨柏线与102国道交叉口东150米,唐山市,迁安市,118.554371,39.865554,沙河驿镇新日电动车,河北省,,
205国道北50米,唐山市,滦州市,118.579756,39.756039,雷庄镇新日电动车,河北省,,
林南仓镇西旺大街158号,唐山市,玉田县,117.621713,39.836153,林南仓镇新日电动车,河北省,,
203省道附近,唐山市,玉田县,117.714486,39.947185,马头山乡新日电动车,河北省,,
西曾线附近,唐山市,滦南县,118.529206,39.303858,柏各庄镇新日电动车,河北省,,
蔚州镇,张家口市,蔚县,114.57273736596107,39.84389235680921,蔚县新日电动车专卖店,河北省,,
辛堡乡,张家口市,阳原县,114.63301464915277,40.127127248061676,阳原南辛庄新日电动车专卖店,河北省,,
东井集村,张家口市,阳原县,114.0207,40.049288,阳原东井集新日电动车专卖店,河北省,,
河子西乡,张家口市,宣化区,115.02610176801683,40.60802509343472,宣化河子西乡新日电动车专卖店,河北省,,
007乡道附近,张家口市,桥西区,114.913044,40.67574,宣化沙岭镇新日电动车专卖店,河北省,,
武家沟镇,张家口市,蔚县,114.92810726165771,40.11828541192088,逐鹿巩山镇新日电动车专卖店,河北省,,
保岱镇,张家口市,涿鹿县,115.19734874367713,40.33038769143255,逐鹿县宝岱镇新日电动车专卖店,河北省,,
郭家屯镇,承德市,隆化县,117.10993945598602,41.567347038586476,隆化郭家墩新日电动车专卖店,河北省,,
韩家店乡韩家店,承德市,隆化县,117.252349,41.531644,隆化县韩家店新日电动车专卖店,河北省,,
隆化镇,承德市,隆化县,117.75559544563292,41.32301578357601,隆化镇新日电动车专卖店,河北省,,
六沟镇,承德市,承德县,118.29094290733337,40.94800619226889,承德县六沟镇新日电动车专卖店,河北省,,
胡麻营乡,承德市,丰宁满族自治县,116.85917973518373,41.09900867677521,丰宁县胡麻营新日电动车专卖店,河北省,,
大滩镇,承德市,丰宁满族自治县,115.98676443099976,41.58485068417538,丰宁县大滩镇新日电动车专卖店,河北省,,
章吉营乡,承德市,隆化县,117.96597316861153,41.3322085652712,隆化县张吉营新日电动车专卖店,河北省,,
下板城镇,承德市,承德县,118.23291063308717,40.83483260217839,承德县安匠新日电动车专卖店,河北省,,
沙城镇,张家口市,怀来县,115.51973283290864,40.40740696871152,怀来县沙城新日电动车专卖店,河北省,,
建国街街道,张家口市,宣化区,115.0547115504742,40.61337622260138,宣化新日电动车专卖店,河北省,,
胜利北路街道,张家口市,桥东区,114.90339204668999,40.789343263540985,张家口桥东区新日电动车专卖店,河北省,,
张北镇,张家口市,张北县,114.72628310322764,41.15804592958163,张北县新日电动车专卖店,河北省,,
华原路西200米,张家口市,阳原县,114.146408,40.107065,阳原新日电动车专卖店,河北省,,
涿鹿镇,张家口市,涿鹿县,115.22371485829356,40.37901802722379,逐鹿县新日电动车专卖店,河北省,,
煤矿街道,张家口市,下花园区,115.27986690402031,40.49320773513563,下花园新日电动车专卖店,河北省,,
府前街与252省道交叉口东南200米,承德市,平泉市,118.710938,41.007713,平泉新日电动车专卖店,河北省,,
围场镇,承德市,围场满族蒙古族自治县,117.75606751441958,41.95310725707059,围场县新日电动车专卖店,河北省,,
下板城镇,承德市,承德县,118.1668397784233,40.76425171770101,承德县新日电动车专卖店,河北省,,
兴隆镇,承德市,兴隆县,117.51130521297456,40.40964027436679,兴隆县新日电动车专卖店,河北省,,
隆化镇,承德市,隆化县,117.7449430525303,41.31749022526883,隆化县新日电动车专卖店,河北省,,
安宁街与文化巷交叉口东南150米,张家口市,尚义县,113.968345,41.07356,尚义县新日电动车专卖店,河北省,,
经贸北路6号,张家口市,赤城县,115.838542,40.918869,赤城新日电动车专卖店,河北省,,
一中南街与文苑路交叉口东150米,张家口市,怀安县,114.393491,40.672049,怀安新日电动车专卖店,河北省,,
牛圈子沟镇,承德市,双桥区,117.94482395052913,40.97764532312332,承德市新日电动车专卖店,河北省,,
左卫镇,张家口市,怀安县,114.72000673413277,40.67336686085548,怀安县左卫镇新日电动车专卖店,河北省,,
高陌乡,保定市,易县,115.56343540549277,39.31535287596061,北东新日,河北省,,
易州镇,保定市,易县,115.49671143293381,39.355956878439265,易县铭炜电动车门市部,河北省,,
土城镇,承德市,丰宁满族自治县,116.60195589065553,41.30761637896853,丰宁县土城新日电动车专卖店,河北省,,
四合永镇,承德市,围场满族蒙古族自治县,117.82649025321008,41.806311429780095,围场县四合永新日电动车专卖店,河北省,,
杨树岭镇,承德市,平泉市,118.88430118560792,40.99889705121993,平泉县杨树林新日电动车专卖店,河北省,,
腰站乡,承德市,围场满族蒙古族自治县,117.87799537181856,41.85837768225613,围场县腰站新日电动车专卖店,河北省,,
双峰寺镇,承德市,双桥区,118.00432205200194,41.05768143572507,承德市双峰寺新日电动车专卖店,河北省,,
左家坞镇,唐山市,丰润区,118.157361,39.951959,左家坞镇新日电动车,河北省,,
龙华店乡,沧州市,河间市,116.09139472246171,38.330656031130815,邵洪店新日专卖,河北省,,
河北省黄骅市新华路43号,沧州市,运河区,116.839425,38.313925,黄骅市商贸街天力车行,河北省,,
212省道东150米,邯郸市,临漳县,114.571678,36.369095,炉耳庄新日电动车专卖店,河北省,,
章里集乡,邯郸市,临漳县,114.48156371712685,36.3517075823653,黄义庄新日,河北省,,
骅中街道,沧州市,黄骅市,117.35163465142251,38.37193824225425,黄骅市天力车行,河北省,,
大冯营乡,衡水市,深州市,115.73209941387177,37.98506586656673,韩庄书昌车行,河北省,,
辰时镇,衡水市,深州市,115.69915518164636,38.050550709541305,辰时海天车业,河北省,,
程油子乡,衡水市,安平县,115.65987154841424,38.315582141019156,张庄新日,河北省,,
唐奉镇,衡水市,深州市,115.5274897813797,38.16540479166432,宝庄新日,河北省,,
时村营乡,邯郸市,磁县,114.28035780787471,36.28096561316895,时村营新日,河北省,,
岳城镇,邯郸市,磁县,114.21741709113122,36.29022790907149,岳城新日,河北省,,
银窝沟乡,承德市,围场满族蒙古族自治县,118.01810860633852,41.914469447782224,围场县银窝沟乡新日电动车专卖店,河北省,,
西地满族乡,承德市,滦平县,117.68752098083498,40.8723974549284,双栾区付营子新日电动车专卖店,河北省,,
卧龙镇,承德市,平泉市,118.75130653381348,41.029975220346955,卧龙镇新日电动车专卖店,河北省,,
山湾乡,承德市,隆化县,117.63411283493042,41.601139148149144,山湾乡新日电动车专卖店,河北省,,
道坝子乡,承德市,围场满族蒙古族自治县,117.56838262081145,41.97597481883546,道贝子新日电动车专卖店,河北省,,
河北省霸州市建设东道步行街南口,廊坊市,霸州市,116.402077,39.113153,霸州市城区立民电动车经销部,河北省,,
13路,唐山市,路南区,118.201027,39.536694,稻地新日电动车,河北省,,
杨店子镇迁安西部工业区,唐山市,迁安市,118.585819,40.005973,杨店子新日电动车,河北省,,
河北省邯郸市邱县建设街,邯郸市,邱县,115.170983,36.819892,邱县金平电动车经销处,河北省,,
张村集乡,邯郸市,临漳县,114.61446449160576,36.241285732762684,张村集,河北省,,
留楚乡,衡水市,饶阳县,115.81472218036653,38.19662992630944,合方车业,河北省,,
义井镇,邯郸市,峰峰矿区,114.1549524664879,36.485158072104866,义井新日电动车专卖店,河北省,,
城南庄镇,保定市,阜平县,114.17498990893364,38.73450966230133,城南庄新日,河北省,,
丰南区,唐山市,丰南区,118.325542,39.470607,杨庄子新日,河北省,,
丰南区,唐山市,丰南区,118.244416,39.550154,安各庄新日,河北省,,
尖字沽乡附近,唐山市,丰南区,118.098916,39.396134,尖子沽新日,河北省,,
台峪乡,保定市,阜平县,114.46972444653512,38.920256340825375,台峪新日,河北省,,
彭李线南50米,唐山市,丰润区,118.113097,39.948549,丰润北夏庄新日,河北省,,
鸦鸿桥镇东高桥村,唐山市,玉田县,117.851215,39.784153,玉田东高桥新日,河北省,,
留史镇,保定市,蠡县,115.75396075844765,38.544920185836915,留史新日,河北省,,
鲍墟乡,保定市,蠡县,115.76276779174805,38.51742944103361,东口新日,河北省,,
程委镇,保定市,博野县,115.56675195693971,38.36953675297744,程委新日,河北省,,
王桥乡,邯郸市,馆陶县,115.26097342371943,36.47682265335844,芦里新日电动车专卖店,河北省,,
维新街1号,唐山市,古冶区,118.419581,39.763315,赵各庄新日,河北省,,
卫国路与长宁道交叉口附近,唐山市,路北区,118.166,39.667741,翔风里底商新日,河北省,,
崔庄镇,保定市,徐水区,115.76065152883531,38.99412032094555,邵庄新日,河北省,,
徐新公路南50米,保定市,徐水区,115.742496,38.997393,商平庄新日,河北省,,
韩庄镇,衡水市,武邑县,116.0389320552349,37.92478147631933,路畅车业,河北省,,
淮镇镇,沧州市,献县,116.37027874588966,38.231158060768884,献县淮镇勇胜车行,河北省,,
宫村镇,廊坊市,固安县,116.23750671744348,39.45827229786835,固安马公庄立勇车行,河北省,,
孟村镇,沧州市,孟村回族自治县,117.10091650485995,38.05381496735272,孟村成海车行,河北省,,
广安镇,廊坊市,大城县,116.56301826238635,38.671136102505805,大城王香屯卫杰车行,河北省,,
固安镇,廊坊市,固安县,116.39430060982703,39.42078823362398,固安知子营新日专卖,河北省,,
北安乐乡,邯郸市,武安市,114.31303650140764,36.76157672170977,赵店新日电动车专卖店,河北省,,
张二庄镇,邯郸市,魏县,114.95824456214905,36.0962605636453,魏县张二庄新日电动车专卖店,河北省,,
郭庄镇,沧州市,献县,116.29983991384508,38.20794546918411,献县郭庄镇陈伟车行,河北省,,
十五级乡,沧州市,献县,116.2098075449467,38.262665639481725,献县十五级八章村海冒车业,河北省,,
陈庄镇,沧州市,献县,116.06698527932167,38.10978841633321,献县陈庄镇三堤口建兵车业,河北省,,
官庄乡,沧州市,黄骅市,117.17240273952486,38.454489805151596,黄骅市官庄乡绿能新日电动车,河北省,,
齐家务乡,沧州市,黄骅市,117.15807706117631,38.56853868350068,黄骅市齐家乌绿能新日电动,河北省,,
老河头镇,保定市,安新县,115.74590742588045,38.84275357578431,老和头新日,河北省,,
老北街,保定市,清苑区,115.65357,38.887549,闸板口新日,河北省,,
百楼乡,保定市,莲池区,115.56969702243804,38.887448199146036,蔡庄新日,河北省,,
五道营乡,承德市,丰宁满族自治县,116.55352592468263,41.118256193365774,丰宁县五道营新日电动车,河北省,,
西官营乡,承德市,隆化县,117.46445775032045,41.270251062887816,丰宁县西官营新日电动车,河北省,,
双峰寺镇,承德市,双桥区,117.97879815101622,41.06205801534879,承德市双峰寺镇新日电动车,河北省,,
北头营乡,承德市,隆化县,117.74505972862244,41.29948409028216,丰宁县白头营新日电动车,河北省,,
雾灵山乡,承德市,兴隆县,117.5980532169342,40.362376836368725,兴隆县雾灵山新日电动车,河北省,,
667乡道北50米,邢台市,威县,115.535231,36.955536,邵古新日电动车专卖店,河北省,,
高公庄乡,邢台市,威县,115.3306531906128,37.18996327322704,经镇新日电动车专卖店,河北省,,
贺钊乡,邢台市,威县,115.40702238678932,37.13054271377155,牛村新日电动车专卖店,河北省,,
常屯乡,邢台市,威县,115.43159276247026,37.08649761607698,第三口新日电动车专卖店,河北省,,
固献乡809县道,邢台市,威县,115.38838,36.965844,大葛寨新日电动车专卖店,河北省,,
张家营乡,邢台市,威县,115.271743,37.009739,马庄新日电动车专卖店,河北省,,
魏家庄镇,邢台市,隆尧县,114.74829733371736,37.28077895131888,魏庄新日电动车专卖店,河北省,,
唐邱乡双井小学,邢台市,宁晋县,114.952062,37.702882,双井新日电动车专卖店,河北省,,
大孟村镇,邢台市,内丘县,114.46767389774323,37.23658650670142,东庞新日电动车专卖店,河北省,,
章台镇,邢台市,威县,115.3385576605797,37.15794593069839,章台新日电动车专卖店,河北省,,
白寨乡,邯郸市,曲周县,114.92687344551085,36.747511497711166,后里寨,河北省,,
白寨乡,邯郸市,曲周县,114.88192364573482,36.70859682007915,永江车业,河北省,,
白合镇,保定市,唐县,114.83866766095163,38.850184090213666,白合新日,河北省,,
白合镇,保定市,唐县,114.8839084804058,38.882756803207705,唐梅新日,河北省,,
河北省唐山市路北区韩城镇,唐山市,丰润区,118.05483,39.640058,唐山市路北区韩城鑫洋电动车商店,河北省,,
河北省唐山市乐亭县城关南大街东侧,唐山市,乐亭县,118.912571,39.425608,乐亭县城关捷达自行车商城,河北省,,
河北省秦皇岛市北戴河区牛头崖镇交警队西侧10米,秦皇岛市,北戴河区,119.404894,39.83521,北戴河区牛头崖镇刘成车行,河北省,,
河北省承德市双滦区北门外综合楼101-1,承德市,双滦区,117.799912,40.959196,双滦区安旭电动车经销部,河北省,,
河北省张家口市万全区孔家庄镇商业街中端,张家口市,万全区,114.73077,40.75684,万全区孔家庄镇韶华电动车行,河北省,,
河北省保定市安新县安新镇北大街2号,保定市,安新县,115.932139,38.921762,安新县北大街永乐自行车销售部,河北省,,
河北省邯郸市峰峰矿区,邯郸市,丛台区,114.538961,36.625657,邯郸市峰峰新市区新日电动车门市,河北省,,
石家庄市新华区杜北乡永固工程监测公司站西行100米新日电动车,石家庄市,新华区,114.438225,38.126577,裕华区捷禹电动自行车商行,河北省,,
河北省深泽县府前东路210号,石家庄市,深泽县,115.215164,38.183233,深泽县英会车行,河北省,,
河北省肃宁县石坊路131号,沧州市,肃宁县,115.857096,38.432894,肃宁县艳龙车行,河北省,,
和平街道,邯郸市,复兴区,114.48185205459595,36.60785111713916,邯郸市稽山新天地市场,河北省,,
秦皇岛市山海关区33路汽车站斜对面风荷云苑门市1-1,秦皇岛市,山海关区,119.770833,40.008083,山海关区博强电动车商店,河北省,,
唐山市古冶区唐家庄双庆电动车大世界，京山道与拥军路交叉口,唐山市,古冶区,118.470881,39.740157,唐山市古冶区唐家庄双庆电动车大世界,河北省,,
石家庄市井陉矿区文兴路新日电动车专卖店,石家庄市,井陉矿区,114.06379,38.061685,井陉矿区新日电动车专卖店,河北省,,
祁州镇,保定市,安国市,115.32033205032349,38.40979742335698,安国迅达二店,河北省,,
祁州镇,保定市,安国市,115.32033205032349,38.40979742335698,安国迅达一店,河北省,,
河北省张家口市宣化区赵川镇光林路宗申摩托,张家口市,宣化区,115.35351,40.682223,宣化县赵川镇玉莲摩托车经销部,河北省,,
安新镇,保定市,安新县,115.93227937817574,38.92170979271259,安新北大车行,河北省,,
河北省石家庄市桥西区西里街道梦溪园乐橙商务广场,石家庄市,桥西区,114.432953,38.024297,槐安西路新日电动车,河北省,,
河北省高邑县凤中路西段路北,石家庄市,高邑县,114.606753,37.604198,高邑县英宾电动车商行,河北省,,
户村镇尚璧镇,邯郸市,丛台区,114.616121,36.676426,尚壁新日专卖,河北省,,
中华街道,邯郸市,邯山区,114.48612615466118,36.604371620792165,冀汇丰新日专卖,河北省,,
滏东街道,邯郸市,邯山区,114.51210871338846,36.60095441314054,和平路气象局店,河北省,,
大张庄村,保定市,安新县,115.972632,38.924588,大张庄新日,河北省,,
安州镇,保定市,安新县,115.82619801163676,38.867804696397414,安州新日,河北省,,
河北省邢台市广宗县广宗镇南街社区,邢台市,广宗县,115.142607,37.07466,广宗县王思周电动自行车行,河北省,,
河北省唐山市玉田县杨家板桥镇玉田县杨家板桥镇中学,唐山市,玉田县,117.635467,39.766889,杨家板桥镇新日电动车,河北省,,
河北省唐山市玉田县陈家铺乡陈家铺乡,唐山市,玉田县,117.713734,39.784354,陈家铺新日电动车,河北省,,
西两洼乡,衡水市,安平县,115.579232275486,38.23498941225385,两洼新日,河北省,,
榆科镇,衡水市,深州市,115.69743320345881,37.960054627619066,运青车行,河北省,,
宇宙营乡,张家口市,张北县,114.85914230346683,41.341609481433956,张北县嚓北管理区新日电动车专卖店,河北省,,
大台乡,保定市,阜平县,114.3288588523865,38.90622007734761,康儿沟新日,河北省,,
于村乡,沧州市,任丘市,116.19649037718774,38.78546955416939,任丘陵城新日专卖,河北省,,
石门桥镇,沧州市,任丘市,116.05948850512505,38.624206116207006,军营新日专卖,河北省,,
羊平镇,保定市,曲阳县,114.67134073376658,38.51946821238614,北羊马新日,河北省,,
晓林乡,保定市,曲阳县,114.63085815310481,38.59442191501048,崔家庄新日,河北省,,
产德乡,保定市,曲阳县,114.5753498375416,38.665832541991605,产德新日,河北省,,
晓林乡,保定市,曲阳县,114.65220853686333,38.605415454916596,荀王化新日,河北省,,
南韩村镇,保定市,满城区,115.3013151884079,38.87008410141636,南韩村新日,河北省,,
五公镇,衡水市,饶阳县,115.74286445975302,38.14424168472989,二团车业,河北省,,
河北省唐山市开平区郑庄子镇立鑫精选厂,唐山市,开平区,118.209442,39.746636,安各庄,河北省,,
河北省唐山市滦县榛子镇滦县榛子镇中学,唐山市,滦州市,118.345496,39.835825,滦县榛子镇新日电动车,河北省,,
河北省唐山市玉田县大安镇镇大安镇村,唐山市,玉田县,117.544835,39.902518,大安镇新日电动车,河北省,,
平定堡镇,张家口市,沽源县,115.69513991475105,41.66737996532649,沽源新日电动车专卖店,河北省,,
南里岳乡,邯郸市,曲周县,115.0067925453186,36.72744071967507,马兰新日,河北省,,
第四疃镇,邯郸市,曲周县,115.00974565744401,36.864332429787055,大河道乡新日,河北省,,
孔家庄镇康复路,张家口市,万全区,114.74488,40.772667,万孔家庄镇新日电动车二店,河北省,,
曲周镇,邯郸市,曲周县,114.94513124227525,36.780169159280476,北油村新日,河北省,,
河北省邢台市隆尧县尹村镇大霍乡中学,邢台市,隆尧县,114.683993,37.400833,大霍镇新日电动车专卖店,河北省,,
河北省邢台市广宗县广宗镇广宗县爱国卫生运动委员会办公室,邢台市,广宗县,115.139045,37.074218,广宗县新日电动车专卖店,河北省,,
河北省邢台市宁晋县耿庄桥镇耿庄桥镇人民政府,邢台市,宁晋县,114.975204,37.492525,耿庄桥镇新日电动车专卖店,河北省,,
护驾迟镇,衡水市,深州市,115.71128815412521,37.89192989930152,增强车业,河北省,,
河北省邢台市隆尧县魏家庄镇国真名烟名酒,邢台市,隆尧县,114.752855,37.28805,魏庄新日电动车专卖店,河北省,,
孟村镇,沧州市,孟村回族自治县,117.10335060954095,38.05417190421738,孟村新日专卖,河北省,,
杜生镇,沧州市,沧县,116.55491665005685,38.38026292822077,杜生镇聚源车行,河北省,,
叮咛店镇,保定市,定州市,114.97011467814445,38.39150782861474,怀德新日,河北省,,
邢邑镇,保定市,定州市,115.0301089882851,38.31107104336615,邢邑新日,河北省,,
西城区街道,保定市,定州市,114.91934850811958,38.500650143356495,沟里新日,河北省,,
王京镇,保定市,唐县,115.00865131616592,38.6562369682787,拔茄新日,河北省,,
息冢镇,保定市,定州市,114.97318983078003,38.3277103089624,东王郝新日,河北省,,
大鹿庄乡,保定市,定州市,115.10451748967172,38.52996020353493,大鹿庄新日,河北省,,
高村镇,保定市,易县,115.385260283947,39.30026286327535,神石庄新日,河北省,,
桥头乡,保定市,易县,115.59177562594414,39.3530533006528,南山南新日,河北省,,
流井乡,保定市,易县,115.53729459643364,39.41393885114272,李家坟新日,河北省,,
南店头乡,保定市,唐县,114.89699095487596,38.72561592778373,南店头新日,河北省,,
阎家房村附近,张家口市,怀来县,115.347515,40.425734,怀来县闫家房新日电动车专卖店,河北省,,
崔尔庄镇,沧州市,沧县,116.553949713707,38.27865065559827,崔尔庄欧派电动车,河北省,,
南阳堡乡,邯郸市,广平县,115.01013189554214,36.5227425775397,广平南阳堡新日,河北省,,
南韩村乡,邯郸市,广平县,115.0561384856701,36.508974310465824,南韩村乡,河北省,,
河北省唐山市滦县九百户镇郭各庄村,唐山市,滦州市,118.547575,39.842139,郭各庄新日电动车,河北省,,
台峪乡,保定市,阜平县,114.47329044342044,38.920486933528196,台峪新日,河北省,,
刘宋镇,廊坊市,香河县,117.13546469807628,39.67647530968093,刘宋新日电动车,河北省,,
辽城乡,邯郸市,涉县,113.53487938642503,36.693298139321016,辽城店,河北省,,
河北省邢台市威县常屯乡常屯乡政府,邢台市,威县,115.479003,37.068858,常屯镇新日电动车专卖店,河北省,,
河北省邢台市隆尧县魏家庄镇魏家庄中心小学,邢台市,隆尧县,114.749907,37.285503,魏庄镇新日电动车专卖店,河北省,,
河北省邢台市隆尧县固城镇002乡道,邢台市,隆尧县,114.780529,37.461366,固城镇新日电动车专卖店,河北省,,
河北省邢台市广宗县广宗镇广宗县爱国卫生运动委员会办公室,邢台市,广宗县,115.139045,37.074218,广宗县王思周电动自行车行,河北省,,
大同镇,邯郸市,武安市,114.2543363571167,36.747210609135315,大同新日,河北省,,
苏基镇,沧州市,海兴县,117.49428257346155,38.138120871482194,海兴县烨华车行,河北省,,
张会亭乡,沧州市,海兴县,117.53917470574379,38.03779008857559,海兴板桥豪爵摩托,河北省,,
南排河镇,沧州市,黄骅市,117.64039590954782,38.47335982828239,黄骅福源摩托车维修部,河北省,,
定曲路88号,保定市,定州市,114.959498,38.534277,客车厂新日,河北省,,
开元镇,保定市,定州市,114.85376045107844,38.4743803699201,小油村新日,河北省,,
东留春乡,保定市,定州市,115.12443959712984,38.37345332649234,留春新日,河北省,,
满城区贤台乡保定市连接线海尔电器北150米,保定市,满城区,115.435824,38.987077,西庄新日,河北省,,
寨里乡,保定市,安新县,115.75873643159866,38.90509505258224,西马村新日,河北省,,
河北省石家庄市桥西区彭后街道华夏商务,石家庄市,桥西区,114.49477,38.023409,华夏市场新日电动车,河北省,,
望亭乡,保定市,清苑区,115.71864143013954,38.86926653120168,北刘口新日,河北省,,
江城乡,保定市,竞秀区,115.37868216633798,38.8638868308865,江城新日,河北省,,
刘李庄镇,保定市,安新县,115.95844566822052,38.78929974829086,郝庄新日,河北省,,
河北省唐山市开平区郑庄子镇贾庵子新农村,唐山市,路北区,118.213699,39.698316,贾俺子新日,河北省,,
河北省唐山市丰南区西葛镇丰南西葛中学,唐山市,丰南区,118.197123,39.472613,开平新开分销西葛镇新日专买店,河北省,,
黄梅乡,张家口市,蔚县,114.75361883640292,40.05462658992622,蔚县黄梅乡新日,河北省,,
232乡道东50米,张家口市,蔚县,114.947316,40.014809,蔚县常宁乡新日,河北省,,
耿庄桥镇,邢台市,宁晋县,114.97520416975021,37.492522775378326,宁晋县耿庄桥镇新日专卖店,河北省,,
固城镇,邢台市,隆尧县,114.77578595280649,37.46138354383384,固城镇新日电动车专卖店,河北省,,
北楼乡,邢台市,隆尧县,114.70421254634859,37.23844537017534,景福新日电动车专卖店,河北省,,
莲子镇镇,邢台市,隆尧县,114.85885664820673,37.289670450715285,莲子镇新日电动车专卖店,河北省,,
枣园乡,邢台市,威县,115.54210245609285,36.956472103563875,邵固新日电动车专卖店,河北省,,
河北省唐山市丰润区老庄子镇老庄子镇人民政府,唐山市,丰润区,118.108225,39.711549,老庄子新日电动车,河北省,,
双塔山镇,承德市,滦平县,117.73470640182498,40.921522568631,承德市双栾区新日电动车专卖店,河北省,,
刘杖子乡,承德市,鹰手营子矿区,117.64528155326843,40.52048314947701,承德市刘杖子乡新日电动车专卖店,河北省,,
西两洼乡,衡水市,安平县,115.585802346468,38.23460175650356,安平县两洼乡专卖店,河北省,,
代王城镇,张家口市,蔚县,114.6613132953644,39.88645891701503,蔚县代王城新日电动车专卖店,河北省,,
存瑞东街南100米,张家口市,怀来县,115.574235,40.393067,怀来县土木镇新日电动车专卖店,河北省,,
土木镇,张家口市,怀来县,115.57848393917085,40.34429850163487,怀来县西辛堡新日电动车专卖店,河北省,,
河北省唐山市丰润区左家坞镇左家坞镇中学,唐山市,丰润区,118.160819,39.959881,丰润区左家乌新日专卖店,河北省,,
官厅镇,张家口市,怀来县,115.63700839877129,40.280047461994954,怀来县官厅镇新日电动车专卖店,河北省,,
郑口镇,衡水市,故城县,115.94110250473025,37.26827273580524,故城郑口新日专卖店,河北省,,
南关街道,张家口市,宣化区,115.07423400878909,40.66812327850212,宣化姚家营新日电动车专卖店,河北省,,
河北省唐山市古冶区赵各庄街道融园路,唐山市,古冶区,118.416999,39.763383,开平区赵各庄新日专卖店,河北省,,
300乡道南50米,沧州市,沧县,116.556874,38.229756,高川乡新日电动车专卖店,河北省,,
大北街街道,张家口市,宣化区,115.03210186958312,40.64475966085063,宣化沙领子新日电动车专卖店,河北省,,
兴济镇,沧州市,沧县,116.9004602730274,38.46753028473889,兴济镇新日电动车专卖店,河北省,,
左卫镇解放街,张家口市,怀安县,114.720025,40.671897,左卫新日电动车专卖店,河北省,,
大官厅乡,沧州市,沧县,116.61836966872214,38.37393171221928,大官厅乡,河北省,,
半壁山镇,承德市,兴隆县,117.910567,40.425325,兴隆安子岭新日电动车,河北省,,
崔尔庄镇,沧州市,沧县,116.55408918857576,38.27992239879729,崔尔庄镇新日电动车专卖店,河北省,,
杜生镇,沧州市,沧县,116.55416026711465,38.3819250171507,杜生镇新日电动车专卖店,河北省,,
郝村镇,沧州市,泊头市,116.31401941180229,38.110145080065095,郝村镇新日电动车专卖店,河北省,,
交河镇,沧州市,泊头市,116.30976408720018,38.02969340842542,交河镇新日电动车专卖店,河北省,,
旺村镇,廊坊市,大城县,116.68031126260756,38.80162208528171,旺村镇新日电动车专卖店,河北省,,
大尚屯镇,廊坊市,大城县,116.499020755291,38.686612085377696,大尚屯镇新日电动车专卖店,河北省,,
里坦镇,廊坊市,大城县,116.59501165151599,38.51118790246888,里坦镇新日电动车专卖店,河北省,,
恒州镇,保定市,曲阳县,114.70672711730002,38.62428888817649,曲阳活动促销店,河北省,,
嘉禾街与恒山东路交叉口东南150米,保定市,曲阳县,114.745066,38.621017,永宁新日,河北省,,
狄邱乡,邯郸市,临漳县,114.58958566188812,36.29069272454998,临漳狄邱分销店,河北省,,
130乡道北100米,邯郸市,临漳县,114.496356,36.373494,临漳章里集（装修申请中）,河北省,,
南庄镇,保定市,蠡县,115.63703522086145,38.44820710287847,滑岗新日,河北省,,
河北省唐山市滦县响堂镇中国邮政储蓄银行(响堂镇支行),唐山市,滦州市,118.739829,39.703316,滦县铁寨庄新日电动车,河北省,,
宁石线东50米,承德市,围场满族蒙古族自治县,117.793319,41.87358,围场县二区四合永镇新日电动车,河北省,,
南关街道,保定市,莲池区,115.45398786664009,38.822914876535066,先锋机械厂新日,河北省,,
建南街道,保定市,竞秀区,115.44812187552454,38.85300297041682,四八二新日,河北省,,
韩庄乡,保定市,莲池区,115.4907502233982,38.94487440081165,杨村新日,河北省,,
石桥乡,保定市,清苑区,115.57041853666307,38.79347990270407,石桥新日,河北省,,
河北省石家庄市鹿泉区上庄镇千艺舞蹈香木林(建设中),石家庄市,鹿泉区,114.384894,38.034641,上庄新日电动车,河北省,,
河北省唐山市丰南区黑沿子镇黑沿子镇,唐山市,丰南区,118.147034,39.226616,黑沿子镇,河北省,,
龙头山乡,承德市,围场满族蒙古族自治县,117.67902776598932,42.00762205315635,龙头山新日,河北省,,
丰州镇冯马乡,邢台市,平乡县,115.093809,37.062171,平乡霍洪村新日,河北省,,
北溪村乡529乡道,衡水市,武强县,115.830121,38.088453,武强县北溪村新日专卖店,河北省,,
开发区东兴大街与惠泽路交叉口,邯郸市,丛台区,114.578818,36.684066,邯郸市开发区店,河北省,,
晾马台镇,保定市,容城县,116.01698219776155,39.095592403793866,晾马台新日,河北省,,
中七级村,邢台市,威县,115.350074,37.261888,七级新日,河北省,,
下堡寺镇,邢台市,临西县,115.38738325238229,36.85697263067788,下堡寺新日,河北省,,
王家井镇,衡水市,深州市,115.38571625947955,37.829375427645374,王家井顺达车行,河北省,,
公园街道,沧州市,运河区,116.83272108435634,38.3289464748093,沧州四合新日专卖店,河北省,,
容城镇,保定市,容城县,115.86493447422983,39.05493858140577,荣成沟西车行,河北省,,
蒲口乡,保定市,高阳县,115.78108727931976,38.746112432567124,保定高阳县蒲口乡金威车行,河北省,,
邢家南镇,保定市,高阳县,115.71931466460231,38.683015071149946,保定市高阳县邢南乡业存车行,河北省,,
晾马台镇,保定市,容城县,116.00562706589699,39.09229291326579,保定市容城县晾马台乡增福车行,河北省,,
韩村乡,保定市,竞秀区,115.44953137636185,38.89281880945953,保定市乐凯大街西鲁岗志彬车行,河北省,,
南陈屯乡,沧州市,运河区,116.81519553065303,38.29223546861438,沧州市运河区黄河西路新日电动车,河北省,,
杜生镇,沧州市,沧县,116.55498638749125,38.38088950133429,沧州市沧县杜生镇亚杰车行,河北省,,
沧州开发区,沧州市,新华区,116.91229820251465,38.28052878506213,沧州市开发区八里屯平安车行,河北省,,
车站街道,沧州市,新华区,116.86817854642868,38.30539047041328,沧州市解放东路新日电动车,河北省,,
市场街道,沧州市,运河区,116.85586988925935,38.31104263108506,国美电器沧州店,河北省,,
文化路街道,唐山市,路北区,118.17023009061812,39.63419701498797,唐山国美富强城店,河北省,,
河北省石家庄市桥西区南长街道瑞特家园(槐安西路)瑞特家园,石家庄市,桥西区,114.481019,38.025053,槐安中路店,河北省,,
德政镇,邯郸市,魏县,114.93430048227312,36.309908798875895,魏县王庄新日店,河北省,,
魏城镇,邯郸市,魏县,114.93190661072731,36.36087399644335,魏县新日电动车,河北省,,
河北省邢台市桥西区达活泉街道公园东街471号达活泉公园,邢台市,桥西区,114.484555,37.091799,邢台新日公园东街专卖店,河北省,,
党峪镇,唐山市,遵化市,118.02937254309656,39.98635326757172,遵化市党峪龙江摩托城,河北省,,
淑村镇,邯郸市,武安市,114.26317289471628,36.574413686365304,武安淑村-流泉乡镇店,河北省,,
312省道团城中学附近,邯郸市,武安市,114.126062,36.734155,武安团城乡镇店,河北省,,
大同镇,邯郸市,武安市,114.2489679157734,36.77926150354611,武安大同...西通乐乡镇店（装修中）,河北省,,
阳邑镇,邯郸市,武安市,113.89456897974016,36.73445829674064,武安阳邑宝昌车行,河北省,,
河北省邢台市南宫市凤岗街道胜利街南宫迎宾馆,邢台市,南宫市,115.384558,37.356217,邢台新日南宫专卖店,河北省,,
河北省邢台市威县第什营乡成志庄村,邢台市,威县,115.325363,36.926977,威县新日程志庄专卖店,河北省,,
河北省邢台市任县任城镇老大街,邢台市,任县,114.684409,37.123905,邢台新日任县专卖店,河北省,,
安平镇,衡水市,安平县,115.53035303950311,38.24312443916946,安平县新日速修店,河北省,,
北溪村乡,衡水市,深州市,115.76332300901413,38.07186872058805,溪村新日电动车,河北省,,
孙庄乡,衡水市,武强县,115.83175688982011,38.081238063838306,武强县皇甫村新日电动车,河北省,,
军屯镇,衡水市,故城县,115.77679306268695,37.16871250403185,故城县军屯新日电动车,河北省,,
仕望集乡,邯郸市,魏县,114.89367708563805,36.30158699002962,仕望集新日,河北省,,
泊口乡,邯郸市,魏县,114.90322440862657,36.175345621040904,魏县泊口新日,河北省,,
孙庄乡,衡水市,武强县,115.86074352264407,38.04732432657992,武强县古坛村新日电动车,河北省,,
河北省石家庄市无极县北苏镇302省道东庄家园,石家庄市,无极县,114.824679,38.158759,无极东庄新日,河北省,,
G22青兰高速,邯郸市,丛台区,114.593221,36.701581,邯郸贾村新日店,河北省,,
留楚乡,衡水市,饶阳县,115.82629323005679,38.16758740174821,饶阳县留楚新日,河北省,,
大官亭镇,衡水市,饶阳县,115.76502218842505,38.32873290893988,大官厅新日,河北省,,
马头镇,邯郸市,邯山区,114.43394780158995,36.4652011736408,马头新日店01,河北省,,
河北省石家庄市晋州市东里庄镇东里庄镇人民政府,石家庄市,晋州市,115.084379,37.936201,晋州市东里庄新日,河北省,,
河北省石家庄市晋州市营里镇晋州市营里镇纪检委,石家庄市,晋州市,115.098679,37.824165,晋州市营里新日电动车,河北省,,
河北省石家庄市元氏县南佐镇尚东世家元氏县第二医院,石家庄市,元氏县,114.364379,37.839687,元氏南佐镇新日,河北省,,
河北省石家庄市藁城区增村镇乡府路藁城区增村镇中学,石家庄市,藁城区,114.744924,38.241882,藁城增村新日电动车,河北省,,
河北省石家庄市藁城区南孟镇藁城区南孟学区中心小学,石家庄市,藁城区,114.778209,38.185966,藁城南孟镇新日,河北省,,
河北省石家庄市藁城区丘头镇204省道,石家庄市,藁城区,114.730464,37.971516,邱头镇新日,河北省,,
河北省石家庄市藁城区贾市庄镇贾市庄镇,石家庄市,藁城区,114.942729,37.876422,贾市庄新日,河北省,,
兴隆镇南双洞小学附近,承德市,兴隆县,117.570402,40.385125,兴隆镇新日电动车,河北省,,
津兴线东50米,承德市,兴隆县,117.434249,40.286908,茅山新日电动车,河北省,,
河北省邢台市邢台县东汪镇龙泉东大街邢东贸易市场,邢台市,邢台县,114.543982,37.040428,邢台新日邢东市场专卖店,河北省,,
饶阳镇,衡水市,饶阳县,115.66142052412035,38.2465254385147,饶阳县牛村新日专卖店,河北省,,
大官亭镇,衡水市,饶阳县,115.73556751012802,38.35497785860223,饶阳县东张岗新日,河北省,,
找王镇,沧州市,东光县,116.60011723637582,37.86919810488615,雷玛电动车商行,河北省,,
乐寿镇,沧州市,献县,116.10310122370721,38.26082916942308,耿炎车行,河北省,,
西安国城乡,保定市,安国市,115.41479945182802,38.37100877862508,张杰车业,河北省,,
河北省石家庄市元氏县苏村乡苏村乡,石家庄市,元氏县,114.348499,37.792321,元氏苏村新日,河北省,,
河北省石家庄市藁城区廉州镇陈家庄二排村委会廉州学区陈家庄小学,石家庄市,藁城区,114.769855,38.037843,藁城陈家庄新日,河北省,,
河北省石家庄市裕华区方村镇二机厂宿舍,石家庄市,裕华区,114.568807,37.98821,方兴路新日,河北省,,
卢龙镇,秦皇岛市,卢龙县,118.88752117753032,39.891053479881975,卢龙县新日电动车,河北省,,
浭阳街道,唐山市,丰润区,118.12334373593333,39.828218677976714,丰润区鑫正摩托车经销部,河北省,,
东旺镇,保定市,定州市,115.20692557096481,38.46688346195697,占立车行,河北省,,
白合镇,保定市,唐县,114.83803868293762,38.85089012627099,俊达车行,河北省,,
军城镇,保定市,唐县,114.70318257808685,38.93661508560047,军城腾达车行,河北省,,
河北省石家庄市新乐市南大岳镇652乡道,石家庄市,新乐市,114.798931,38.464853,新乐大岳镇新日电动车,河北省,,
河北省石家庄市桥西区西里街道槐安西路辅路,石家庄市,桥西区,114.439182,38.024435,城角街新日,河北省,,
鸦鸿桥镇,唐山市,玉田县,117.85066634416582,39.75377863427181,鸦鸿桥新日专卖福田五星,河北省,,
散水头镇,唐山市,玉田县,117.75420874357224,39.754913800716324,钱家沟新日,河北省,,
河北省石家庄市长安区长丰街道怡情雅居·相和园鼎坚五金机电市场,石家庄市,长安区,114.544724,38.073702,鼎坚市场新日电动车,河北省,,
纸房头乡,沧州市,沧县,116.76961541175844,38.30135023682098,胜芹车行,河北省,,
旧州镇,沧州市,沧县,117.03698202967645,38.206110778170455,旧州镇东关质誉车行,河北省,,
荒佃庄镇,秦皇岛市,昌黎县,119.07783195376398,39.52527919802662,昌黎荒佃庄,河北省,,
韩庄镇,衡水市,武邑县,116.06594994664192,37.95433080581854,东台村新日,河北省,,
王瞳镇,衡水市,景县,116.1690205335617,37.54442207389623,王瞳镇盛昊棚车,河北省,,
霞口镇,衡水市,阜城县,116.55302971601486,37.97588190259362,霞口镇鑫达车业,河北省,,
人民西路与古城北街交叉口东南50米,衡水市,阜城县,116.147987,37.871459,古城镇追风鸟电动车,河北省,,
建桥乡281省道,衡水市,阜城县,116.115331,37.906165,建桥志杰家电,河北省,,
白沟镇,保定市,高碑店市,116.05809912085535,39.14742096645846,白沟新日,河北省,,
老河头镇,保定市,安新县,115.71352109313014,38.82556035590736,喇喇地新日,河北省,,
庞口镇,保定市,高阳县,115.94963461160661,38.64623894627217,庞口新日,河北省,,
满城镇,保定市,满城区,115.31314507126808,38.92489622266609,守陵新日,河北省,,
容城镇,保定市,容城县,115.86579278111458,39.05724217418509,容城新日,河北省,,
河北省石家庄市井陉县微水镇建设北路62-30号,石家庄市,井陉县,114.141855,38.039946,井陉县新日电动车,河北省,,
天安大道西段486号,邯郸市,魏县,114.92377,36.338421,魏县一中新日加盟店,河北省,,
魏城镇,邯郸市,魏县,114.94333952665332,36.36328989636592,魏县二完小加盟店,河北省,,
白仕望东头,邯郸市,魏县,114.900449,36.352553,魏县白仕望军海电动车维修,河北省,,
大严屯村附近,邯郸市,魏县,114.992246,36.101765,魏县大严屯店,河北省,,
豆庄镇,保定市,涿州市,116.0985441505909,39.40184018869971,涿州柳河营和顺车行,河北省,,
旭升路与无终街交汇处东南角,唐山市,玉田县,117.777189,39.879059,玉田华都小区新日,河北省,,
东陵满族乡,唐山市,遵化市,117.70919322967531,40.149855188829335,遵化南新城新日,河北省,,
候家寨乡,唐山市,遵化市,117.96213492751123,40.2687737867547,遵化候家寨新日,河北省,,
大北汪镇,邯郸市,永年区,114.65215086936954,36.838872172075114,大北汪新日（小鸟）,河北省,,
豆下乡村,邯郸市,永年区,114.85329,36.75524,豆下乡新日店,河北省,,
龙王庙镇三角店村东头,濮阳市,南乐县,115.24519,36.200277,龙王庙（三角店）双民车行,河南省,,
河北省唐山市路南区海北镇花牛庄村,天津市,宁河区,117.697796,39.382765,和欢车行,天津市,,
河北省石家庄市正定县新安镇051乡道,石家庄市,正定县,114.5749,38.228708,东权城新日电动车,河北省,,
河北省石家庄市正定县正定镇燕赵北大街,石家庄市,正定县,114.572465,38.175723,正定燕赵北大街新日电动车,河北省,,
河北省石家庄市正定县北早现乡商业街,石家庄市,正定县,114.506695,38.190993,正定县南岗新日电动车,河北省,,
241省道西50米,保定市,涞水县,115.269987,39.633433,涞水白涧郭涛摩托车行,河北省,,
吉家庄镇,张家口市,蔚县,114.86955195665361,40.01402988123446,吉家庄志明车行,河北省,,
娄村镇,保定市,涞水县,115.64940154552463,39.486543663354034,涞水娄村新日电动车专卖店,河北省,,
三坡镇,保定市,涞水县,115.44336900115015,39.685808835099266,涞水野三坡新日电动车专卖店,河北省,,
永阳镇,保定市,涞水县,115.61672955751422,39.41378550678893,涞水谭山新日电动车专卖店,河北省,,
南赵扶镇,廊坊市,大城县,116.7349237203598,38.656194029831035,大城大流漂路路车行,河北省,,
臧屯乡,廊坊市,大城县,116.6105604171753,38.59574890125861,大城关家务新日电动车专卖店,河北省,,
342省道北150米,张家口市,涿鹿县,115.256537,40.441724,涿鹿张家堡万全车行,河北省,,
安格庄乡,保定市,易县,115.22223964333536,39.32423393660643,易县金坡大兵摩托车行,河北省,,
流井乡,保定市,易县,115.47862529754639,39.44977487498577,易县流井乡码头村速派奇专卖,河北省,,
大青沟镇,张家口市,尚义县,114.11545023322105,41.3352930128356,大清沟寅洲商场,河北省,,
姚家房镇,张家口市,桥西区,114.87770855426788,40.71697178566376,姚家房镇建成摩托车销售部,河北省,,
高家营镇,张家口市,崇礼区,114.95998665690422,40.886985724119725,崇礼区亮亮新能源车行,河北省,,
第六屯乡,张家口市,怀安县,114.56580519676211,40.66191080361411,怀安第六屯恩魁摩托车销售店,河北省,,
沈家屯镇,张家口市,桥西区,114.86458986997606,40.77203195345993,伟伟宝岛车行,河北省,,
西湾子街道,张家口市,崇礼区,115.28426706790923,40.97569119306288,崇礼区追风鸟电动车专卖店,河北省,,
怀安城镇,张家口市,怀安县,114.47602897882464,40.46387243214076,怀安镇建明二轮三轮专卖,河北省,,
沈家屯镇,张家口市,桥西区,114.82909888029097,40.72205906507455,经济开发区燕根车行,河北省,,
赵川镇,张家口市,宣化区,115.34717962145808,40.68626096264899,宣化区赵川镇宗申摩托车专卖,河北省,,
旧堡乡,张家口市,万全区,114.4677422940731,40.77594813475814,万全区旧堡村雁峰服务中心,河北省,,
宣平堡乡,张家口市,万全区,114.78084325790407,40.816965800024654,万全区宣平堡村小梁电动车销售维修中心,河北省,,
南大街街道,张家口市,宣化区,115.04955232143404,40.60445234495765,宣化阿彪电动车维修服务部,河北省,,
郭磊庄镇,张家口市,万全区,114.53696206212045,40.72129371102074,万全区郭磊庄海全车业,河北省,,
昌黎镇,秦皇岛市,昌黎县,119.16343599557877,39.70623538806126,昌黎县张波车行,河北省,,
建设北街街道,沧州市,运河区,116.86353966593742,38.3165765019829,嘉悦电动车,河北省,,
水月寺街道,沧州市,运河区,116.85693070292476,38.31580521577632,杨子车行,河北省,,
孟村镇,沧州市,孟村回族自治县,117.1048928797245,38.08697203757504,孟村王林车行,河北省,,
西环中街街道,沧州市,运河区,116.8281264603138,38.31271262292745,鲁兰车行,河北省,,
北位乡,廊坊市,大城县,116.39574229717255,38.63674655171191,大城北魏瑞通车行,河北省,,
权村镇权村,廊坊市,大城县,116.534022,38.564012,大城权村江义电动自行车销售部,河北省,,
旺村镇,廊坊市,大城县,116.73889,38.835574,大城旺村东臧村宝军车行,河北省,,
广安镇,廊坊市,大城县,116.53244242072107,38.62698468756099,大城大广安乡新日专卖,河北省,,
北位乡,廊坊市,大城县,116.46083280444145,38.652356694869205,大城郑家村博摩电动自行车销售部,河北省,,
河北省邢台市柏乡县柏乡镇柏乡司法医学鉴定中心河北省柏乡县妇幼保健院和卫生健康局,邢台市,柏乡县,114.697264,37.49461,柏乡新日电动车专卖店,河北省,,
木门店镇,沧州市,青县,116.7443396151066,38.471328151463666,宏源车行,河北省,,
河北省邢台市桥东区北大街街道中兴东大街189号物美百货,邢台市,桥东区,114.507479,37.063841,邢台新日物美专卖店,河北省,,
南环中路街道,沧州市,运河区,116.82581171393396,38.289378710924176,凤凰城新日专卖店,河北省,,
孟村镇,沧州市,孟村回族自治县,117.10531264543533,38.05462493696198,友鸽电动车,河北省,,
安头屯镇,廊坊市,香河县,117.08031713962556,39.718852560890014,香河安头屯志勇车行,河北省,,
河北省邢台市沙河市留村乡尚品蛋糕坊,邢台市,沙河市,114.544603,36.996557,邢台新日北俎混营店,河北省,,
河北省邢台市沙河市新城镇329省道,邢台市,沙河市,114.363648,36.876903,邢台新日沙河分销店,河北省,,
