address,city,districd,lat,lon,name,province,street,town
中山街道,海口市,龙华区,110.34573420882226,20.03641609658599,海口卓成车行东湖1店,海南省,,
河西区街道,三亚市,吉阳区,109.50424879789354,18.2429549588802,三亚花丽电动车行,海南省,,
那大镇,儋州市,,109.57079440355301,19.51294761210577,儋州那大新日电动车,海南省,,
海南省海口市东湖路湖景酒店旁,海口市,龙华区,110.344751,20.03647,海口卓成志达贸易有限公司,海南省,,
三亚市胜利路明珠花园一层5号铺面,三亚市,吉阳区,109.504942,18.241966,三亚宾蒂车行,海南省,,
海南省屯昌县屯城镇槟榔大道77号,,屯昌县,110.104886,19.371561,屯昌琼发摩托车有限公司,海南省,,
万宁市万城镇万新街82号新日电动车专卖店,,万宁市,110.393342,18.798072,万宁万城兴骏电动车车行,海南省,,
儋州市那大人民中路68号（商业综合楼第13号）,儋州市,,109.57375,19.51395,儋州那大南庆旺电动车行,海南省,,
海南省琼海市嘉积镇内环街程晖铺,,琼海市,110.464061,19.242783,琼海嘉积鹏宇鑫摩配商行,海南省,,
海南省东方市东海路农机大厦首层6、7号,,东方市,108.645676,19.084167,东方东海英俊车行,海南省,,
海南陵水县建设路88号新日专卖店,,陵水黎族自治县,110.036652,18.504683,陵水椰林新日电动车行,海南省,,
海南临高县跃进路新日电动车专卖店,,临高县,109.687323,19.907729,临高县临城至尊电动车店,海南省,,
海南省澄迈县金江镇人民西路31号,,澄迈县,110.005272,19.732401,澄迈金江新大江摩托车行,海南省,,
海南省乐东县城迎宾南路2号,,乐东黎族自治县,109.182,18.739687,乐东抱由万通摩托车行,海南省,,
抱由镇,,乐东黎族自治县,109.18098896741868,18.73981605595816,新日乐东店,海南省,,
红旗镇,海口市,琼山区,110.51152154803277,19.816135467198073,红旗新日电动车,海南省,,
嘉积镇,,琼海市,110.46324044466019,19.242373771596046,嘉积新日电动车,海南省,,
海棠湾镇,三亚市,海棠区,109.7544626891613,18.40166138008214,藤桥新日电动车,海南省,,
中山街道,海口市,龙华区,110.34533858299258,20.037427820509908,东湖3店,海南省,,
中山街道,海口市,龙华区,110.34555047750474,20.03753743404322,东湖2店,海南省,,
万城镇,,万宁市,110.39117619395257,18.798129863372885,万宁新日1店,海南省,,
椰林镇,,陵水黎族自治县,110.03845766186716,18.506404455763853,陵水总店,海南省,,
椰林镇,,陵水黎族自治县,110.02453163266185,18.499206179318335,陵水二店,海南省,,
金江镇,,澄迈县,110.00413209199905,19.731998798962326,澄迈新日,海南省,,
新埠街道,海口市,美兰区,110.36657497286798,20.05622101378598,新日新埠岛店,海南省,,
府城高登东街115号,海口市,琼山区,110.359755,19.997921,新日高登街店,海南省,,
长流镇,海口市,秀英区,110.2081288397312,20.005127556245345,长流新日,海南省,,
河西区街道,三亚市,吉阳区,109.50418978929522,18.243079781181578,新日总店,海南省,,
吉阳镇,三亚市,吉阳区,109.53058272600175,18.29764782716182,荔枝沟新日,海南省,,
三都镇,儋州市,,109.22016665339471,19.78783573426287,三都新日电动车,海南省,,
龙桥镇,海口市,龙华区,110.3616786003113,19.912127463422564,龙桥新日,海南省,,
国营八一农场,儋州市,,109.31043103337288,19.45245895290035,八一新日,海南省,,
中央路与人民中路交叉口北150米,,万宁市,110.379506,18.796612,万宁2店,海南省,,
海棠湾镇,三亚市,海棠区,109.70518648624422,18.31746809304819,林旺新日电动车,海南省,,
阳江镇文明路77号,,琼海市,110.34587,19.100509,阳江新日,海南省,,
356县道北,,琼海市,110.438462,19.209061,万石新日,海南省,,
中和镇,儋州市,,109.35065746307373,19.746169397945973,中和新日,海南省,,
长坡镇,,琼海市,110.61270654201508,19.339566104892448,长坡新日,海南省,,
八所镇,,东方市,108.65614637732507,19.10294112615862,东方新日电动车,海南省,,
提蒙乡,,陵水黎族自治县,110.0123718380928,18.565291764551795,提蒙乡新日电动车,海南省,,
新村镇,,陵水黎族自治县,109.97314453125,18.41550340086686,陵水新村新日电动车,海南省,,
国营西联农场,儋州市,,109.5558209717274,19.576845567361513,西联镇,海南省,,
桥北路与滨河北路交叉口东北50米,,白沙黎族自治县,109.453087,19.22183,白沙新日电动车,海南省,,
感城镇,,东方市,108.65006849169731,18.849757875774717,感城新日,海南省,,
东方华侨农场,,东方市,108.68580758571625,18.983916056710004,华侨农场,海南省,,
英州镇,,陵水黎族自治县,109.85836744308473,18.42111216901532,英州新日电动车,海南省,,
国营广坝农场,,东方市,108.94778698682785,19.044742458501076,东河新日,海南省,,
江边乡,,东方市,108.97820055484773,18.894052745111498,江边新日,海南省,,
千家镇,,乐东黎族自治县,109.08628687262537,18.565087082653204,千家新日,海南省,,
国营保国农场,,乐东黎族自治县,109.2887654900551,18.571372357620557,保国,海南省,,
九所镇,,乐东黎族自治县,108.90385240316394,18.465229030011344,利国新日,海南省,,
东成镇,儋州市,,109.45879608392717,19.702037717614008,东城新日,海南省,,
海头镇,儋州市,,109.02435600757597,19.49653776290784,海头新日,海南省,,
大成镇,儋州市,,109.39666941761973,19.508214828983355,大成新日,海南省,,
国营龙江农场,,白沙黎族自治县,109.24819841980936,19.3697134383685,龙江摩托车,海南省,,
琼州大道17号,海口市,琼山区,110.359691,20.003929,新日府城店,海南省,,
灵山镇,海口市,美兰区,110.4372163116932,19.968953573248495,灵山新日电动车,海南省,,
白沙街道,海口市,美兰区,110.36720797419548,20.03872805887439,文明东路新日,海南省,,
瑞溪镇,,澄迈县,110.13267293572426,19.7327006683098,瑞溪镇新日,海南省,,
三门坡镇,海口市,琼山区,110.5639185011387,19.715728704424098,三门坡新日,海南省,,
三门坡镇,海口市,琼山区,110.51021933555603,19.69708953399911,谭文新日,海南省,,
文城镇,,文昌市,110.75427353382112,19.618626709200935,文昌新日,海南省,,
嘉积镇,,琼海市,110.47093302011491,19.225146476991583,琼海新日,海南省,,
锦山镇,,文昌市,110.69402709603311,19.99441561964287,锦山新日,海南省,,
