address,city,districd,lat,lon,name,province,street,town
湖北省襄樊市人民路5710厂东边,襄阳市,樊城区,112.139052,32.040037,襄阳市百信电动车销售部,湖北省,,
湖北省荆门市京山县轻机大道摩托车大市场荆门下县,荆门市,京山市,113.125329,31.023893,京山县新市镇万事达车行,湖北省,,
湖北省钟祥市郢中镇工人文化宫门面,荆门市,钟祥市,112.590435,31.162247,钟祥市鄂中电动车大世界,湖北省,,
湖北省十堰市竹山县龙腾车行,十堰市,竹山县,110.228694,32.224875,竹山县龙腾车行,湖北省,,
谷城县石花镇农行对面,襄阳市,谷城县,111.468845,32.276494,杜光琴,湖北省,,
谷城泰山路新日电动车专卖店,襄阳市,谷城县,111.643667,32.257096,谷城县新日电动车店,湖北省,,
老河口汉江大道汽车站西50米,襄阳市,老河口市,111.679815,32.37912,罗学功,湖北省,,
南漳水镜大道295号花石桥小区门面,襄阳市,南漳县,111.854531,31.775837,余明,湖北省,,
宜城光彩市场电动车摩托车市场A09-18,襄阳市,宜城市,112.264429,31.696179,宜城市王朝电动车行,湖北省,,
湖北省枝江市迎宾大道东段汽摩城,宜昌市,枝江市,111.774173,30.428108,枝江市方新星车行,湖北省,,
恩施市，六角亭，恩芭路8号,恩施土家族苗族自治州,恩施市,109.472742,30.251376,黄显国,湖北省,,
松滋市新江口镇环城路50号,荆州市,松滋市,111.776913,30.170396,荆州高程商贸有限公司,湖北省,,
湖北省宜都市碧水街50号,宜昌市,宜都市,111.443195,30.380857,宜都市星月神电动车行,湖北省,,
枣阳市万象城对面,襄阳市,枣阳市,112.760476,32.121221,万顺强,湖北省,,
郧西县彩虹城（液化气站斜对面）新日电动车专卖店,十堰市,郧西县,110.429101,32.979345,王忠贵,湖北省,,
丹江口市生产北路,十堰市,丹江口市,111.508028,32.54116,丹江口市诚信电动车行,湖北省,,
湖北省襄阳市谷城县东旺路,襄阳市,谷城县,111.66584,32.265824,谷城恒基房地产开发有限公司,湖北省,,
湖北省十堰市车城南路,十堰市,茅箭区,110.770465,32.609193,十堰经济开发区常青车行,湖北省,,
荆门市东宝区象山大道108号,荆门市,东宝区,112.198889,31.024076,刘珂琦,湖北省,,
湖北省洪湖市宏伟南路,荆州市,洪湖市,113.467904,29.806847,洪湖市新堤湖滨电动车商行,湖北省,,
湖北省公安县摩托车大市场新日专卖店,荆州市,沙市区,112.26209,30.302784,公安县嘉旭电动车行,湖北省,,
监利县交通路231号新日电动车专卖店,荆州市,监利县,112.899413,29.8218,监利县诚龙车辆商行,湖北省,,
湖北省荆州市沙市区北京路243号摩托车大市场2号,荆州市,沙市区,112.286523,30.292116,沙市区新日电动车专营店,湖北省,,
当阳市长坂路摩托车大市场对面,宜昌市,当阳市,111.807173,30.816179,当阳市新日电动车专卖店,湖北省,,
湖北省潜江市潜阳中路天桥北侧,,潜江市,112.896536,30.411991,潜江市齐宇电动车行,湖北省,,
湖北省宜昌市夷陵路236号龙腾车行,宜昌市,夷陵区,111.310719,30.76513,宜昌市伍家岗区腾龙电动车行,湖北省,,
湖北省仙桃市中雅广场,,仙桃市,113.44803,30.368395,仙桃新日电动车,湖北省,,
湖北省随州市舜井大道时代广场C区,随州市,曾都区,113.377622,31.716178,刘洪标,湖北省,,
湖北省随州市广水市应山办事处广安路新日车行,随州市,广水市,113.830373,31.619055,广水市新日车行,湖北省,,
湖北省安陆市车站路新日专卖店,孝感市,安陆市,113.688941,31.25561,安陆市新日电动车车行,湖北省,,
湖北省应城市蒲阳大道48-4号,孝感市,应城市,113.570959,30.940321,应城市兄弟车行,湖北省,,
书院街办事处槐荫大道440号,孝感市,孝南区,113.91941,30.916835,孝感市春玲摩托车销售有限公司(直营),湖北省,,
湖北云梦县梦泽大道135号,孝感市,云梦县,113.749098,31.022124,云梦县霍涛电动车行,湖北省,,
湖北省阳新县兴国大道古商城,黄石市,阳新县,115.220416,29.831917,阳新县兴国镇龙耀车行,湖北省,,
湖北省汉川市仙女大道433号,孝感市,汉川市,113.831615,30.647812,汉川市分水小周车行,湖北省,,
鄂州市江碧路老邮局旁,鄂州市,鄂城区,114.879486,30.402441,鄂州市江碧路天赐平安车行,湖北省,,
湖北省武穴市民主路民意大厦 武穴广济商城新日售后（售后）,黄冈市,武穴市,115.561809,29.850926,武穴市世通商行,湖北省,,
湖北黄石市黄石港区黄石大道王家里车站,黄石市,黄石港区,115.076462,30.226324,黄石港区林爽电动车车行,湖北省,,
湖北省咸宁市咸安区长安大道新日专卖店,咸宁市,咸安区,114.309759,29.838782,咸安区新日电动车专卖店,湖北省,,
湖北省咸宁市通城县民庄路307号,咸宁市,通城县,113.816966,29.245269,通城县新日电动车销售店,湖北省,,
湖北省武汉市汉南区纱帽街210号,武汉市,汉南区,114.084445,30.308856,武汉市汉南区纱帽街鸿发电动车车行,湖北省,,
湖北省武汉市江岸区三阳路19-16号新日专卖店 武汉市东湖区革新大道（12支沟）舵落口大市场陶瓷仓库7栋3号新日电动车仓库（售后）,武汉市,江岸区,114.30409,30.59728,武汉龙腾日新经贸有限公司,湖北省,,
武汉市江夏区西交路纸坊火车站新日电动车,武汉市,武昌区,114.308424,30.35058,武汉市李学英车行,湖北省,,
武汉市黄陂区双凤大道464号,武汉市,黄陂区,114.376917,30.874706,武汉市黄陂区前川台铃电动车经营店,湖北省,,
武汉市蔡甸区汉阳大街139-18,武汉市,蔡甸区,114.037735,30.57609,武汉市蔡甸区阳光电动车商行,湖北省,,
武汉市新洲区阳逻街平江东路40号新日电动车,武汉市,新洲区,114.567139,30.657894,武汉市新洲区如意电动车行,湖北省,,
武汉市新洲区齐安大道128号,武汉市,新洲区,114.803439,30.831789,武汉市新洲区常青车行,湖北省,,
赤壁市新街口摩托车市场,咸宁市,赤壁市,113.896729,29.714732,湖北赤壁雷霆商贸有限公司,湖北省,,
湖北省咸宁市温泉桂花西路,咸宁市,咸安区,114.328796,29.834512,温泉宗申摩托车经销店(直营),湖北省,,
湖北省崇阳县沿河大道聚富广场,咸宁市,崇阳县,114.049756,29.536816,崇阳县聚富车行,湖北省,,
湖北省嘉鱼县畜牧局旁,咸宁市,嘉鱼县,113.921608,29.974971,嘉鱼豪爵摩托专卖店(直营),湖北省,,
湖北省咸宁市崇阳县沿河达到西湖广场,咸宁市,崇阳县,114.039828,29.555605,崇阳县聚富车行(直营),湖北省,,
湖北省咸宁市通山县民营小区新日专卖店,咸宁市,通山县,114.509526,29.602565,咸宁通山（阮开斌）(直营),湖北省,,
湖北省赤壁市新区龙翔路3-8号,咸宁市,赤壁市,113.902072,29.730832,赤壁市博成商行(直营),湖北省,,
湖北黄石阳新县古商城,黄石市,阳新县,115.216481,29.832524,阳新县兴国镇平喜太阳能经营店(直营),湖北省,,
湖北省黄冈市红安县,黄冈市,红安县,114.618236,31.288153,湖北红安（徐忠）(直营),湖北省,,
湖北省黄冈市黄州大道,黄冈市,黄州区,114.90057,30.534199,湖北黄冈（徐琴）(直营),湖北省,,
湖北省黄冈市黄梅县黄梅镇五祖大道,黄冈市,黄梅县,115.945233,30.071767,湖北黄梅（董续江）(直营),湖北省,,
湖北省黄冈市罗田县凤山城南,黄冈市,罗田县,115.399492,30.7831,湖北罗田（樊仙枝）(直营),湖北省,,
湖北省黄冈市麻城市建设路,黄冈市,麻城市,115.043402,31.182699,湖北麻城（董续江）(直营),湖北省,,
湖北省黄冈市蕲春县齐昌大道451号,黄冈市,蕲春县,115.433189,30.239421,湖北蕲春（李钟贵）(直营),湖北省,,
湖北省黄冈市团风县团风镇团黄路,黄冈市,团风县,114.871682,30.638079,湖北团风（董帜才）(直营),湖北省,,
湖北省黄冈市浠水县清泉镇丽文北路,黄冈市,浠水县,115.245755,30.469281,湖北浠水（徐琴）(直营),湖北省,,
湖北省黄冈市英山县温泉镇金石路92号,黄冈市,英山县,115.671073,30.739311,湖北英山（徐忠）(直营),湖北省,,
湖北省孝感市汉川市仙女大道447-2号,孝感市,汉川市,113.829417,30.654548,汉川市银桥电动车商行(直营),湖北省,,
湖北省武穴市,黄冈市,武穴市,115.561217,29.844107,武穴市金港置业有限公司(直营),湖北省,,
湖北省汉川市西门桥劳动局北侧,孝感市,汉川市,113.829858,30.653006,湖北汉川新日电动车,湖北省,,
湖北省天门市船闸南路新日专卖店,,天门市,113.159386,30.646232,天门新日专卖店（张耀斌）,湖北省,,
湖北恩施市大桥路纸厂小区新日专卖店,恩施土家族苗族自治州,建始县,109.899204,30.549308,湖北恩施新日电动车专卖店,湖北省,,
湖北省宜都市名都商业步行街新日专卖店,宜昌市,宜都市,111.450006,30.378327,湖北省宜都市（白万菊）,湖北省,,
湖北省宜昌市远安县城南商城44号,宜昌市,远安县,111.646324,31.058046,远安县城南车行(直营),湖北省,,
湖北省十堰市车城南路51号新日专卖店,十堰市,茅箭区,110.771388,32.608326,湖北省十堰市新日专卖店(直营),湖北省,,
湖北省枣阳市新华路卷烟厂后门新日专卖店,襄阳市,枣阳市,112.756011,32.127262,湖北枣阳新日专卖店(直营),湖北省,,
石首市建宁大道机动车产业城C区,荆州市,石首市,112.407947,29.700566,石首市捷安商贸有限公司(直营),湖北省,,
湖北枣阳市琚弯镇交通街铃木摩托车专卖店,襄阳市,枣阳市,112.595742,32.046078,枣阳市琚弯镇新日专卖店(直营),湖北省,,
湖北省郧西县郧西大道151号,十堰市,郧西县,110.429904,32.977154,郧西县新日专卖店(直营),湖北省,,
枣阳市杨垱镇西街新日专卖店,襄阳市,枣阳市,112.645051,32.309705,枣阳杨垱新日专卖店(直营),湖北省,,
枣阳市吴店桥南头新日专卖店,襄阳市,枣阳市,112.76916,31.976122,枣阳市吴店镇新日专卖店(直营),湖北省,,
枣阳市徐寨乡卫生院西100米新日专卖店,襄阳市,枣阳市,112.54222,32.308461,枣阳市徐寨乡新日专卖店(直营),湖北省,,
枣阳市新华路（二桥头）,襄阳市,枣阳市,112.756011,32.127262,枣阳新日专卖店,湖北省,,
湖北省十堰市车城南路51号（51-19）,十堰市,茅箭区,110.771388,32.608326,十堰新日专卖店(直营),湖北省,,
湖北省房县209国道东城门路,十堰市,房县,110.744566,32.058629,魏小燕(直营),湖北省,,
利川市利北路和平路95号,恩施土家族苗族自治州,利川市,108.947433,30.292394,利川市鹏发商贸有限公司(直营),湖北省,,
宜昌市长阳土家族自治县,宜昌市,长阳土家族自治县,111.207242,30.472763,李劲松,湖北省,,
湖北恩施州建始县建恩路,恩施土家族苗族自治州,建始县,109.721831,30.588694,建始县福星车行(直营),湖北省,,
湖北省恩施州利川市胜利路104号,恩施土家族苗族自治州,利川市,108.954861,30.300328,利川新日专卖店(直营),湖北省,,
湖北省恩施州来凤县翔凤镇金盆山,恩施土家族苗族自治州,来凤县,109.410963,29.512941,来凤县阳光车行(直营),湖北省,,
湖北省竹溪县跃进桥头50米,十堰市,竹溪县,109.715304,32.318255,湖北竹溪新日电动车专卖店(直营),湖北省,,
湖北省十堰市房县城关镇,十堰市,房县,110.742565,32.05798,湖北省十堰市房县新日电动车专卖店(直营),湖北省,,
枣阳市前进路15-3,襄阳市,枣阳市,112.755889,32.129167,枣阳新日专卖店,湖北省,,
丹江口市丹江大道粮油所楼下,十堰市,丹江口市,111.507649,32.547377,丹江口新日电动车商店(直营),湖北省,,
湖北省沙洋县新日电动车专卖店,荆门市,沙洋县,112.588581,30.709221,湖北省沙洋新日电动车专卖店(直营),湖北省,,
湖北枣阳市新华路二桥头,襄阳市,枣阳市,112.756011,32.127262,湖北枣阳新日电动车专卖店(直营),湖北省,,
湖北丹江口市丹江大道粮油供应公司楼下,十堰市,丹江口市,111.51343,32.52818,湖北丹江口市新日专卖店(直营),湖北省,,
湖北南漳县手镜路,襄阳市,南漳县,111.838905,31.774636,湖北南漳县新日专卖店(直营),湖北省,,
湖北宜城市西街,襄阳市,宜城市,112.261272,31.70351,湖北宜城市新日专卖店(直营),湖北省,,
湖北老河口市大桥,襄阳市,老河口市,111.683861,32.359068,湖北老河口市新日专卖店(直营),湖北省,,
湖北谷城县泰山路,襄阳市,谷城县,111.639515,32.255296,湖北谷城县新日专卖店(直营),湖北省,,
湖北省荆门市象山大道广播电台新日专卖店,荆门市,东宝区,112.20594,31.032781,湖北省荆门新日专卖店,湖北省,,
纸坊街西交路267附13号,武汉市,武昌区,114.308194,30.350602,江夏店,湖北省,,
双凤大道486号,武汉市,黄陂区,114.376433,30.874883,黄陂新日,湖北省,,
齐安大道112号,武汉市,新洲区,114.803439,30.832106,新洲新日,湖北省,,
金叶大酒店附近,武汉市,新洲区,114.567864,30.657774,阳逻新日,湖北省,,
薇湖路268号,武汉市,汉南区,114.079244,30.306839,汉南新日,湖北省,,
永安办事处长安大道6号(南山路公交车站旁),咸宁市,咸安区,114.286222,29.867251,咸宁新日专卖店,湖北省,,
散花街与021乡道交叉口西南50米,黄冈市,浠水县,115.133156,30.221178,散花镇新日专卖店,湖北省,,
新竹路6号,武汉市,洪山区,114.398925,30.490963,武汉新竹店,湖北省,,
民族大道307号,武汉市,洪山区,114.393587,30.471636,民族大道店,湖北省,,
南湖大道与南湖路交叉口东100米,武汉市,洪山区,114.329583,30.481649,武汉南湖店,湖北省,,
南湖街办事处雅安街73号,武汉市,洪山区,114.313554,30.509673,武汉雅安街店,湖北省,,
孝南区陡岗镇,孝感市,孝南区,113.85559514164925,31.036446815152562,孝感陡岗镇,湖北省,,
孝南区肖港镇,孝感市,孝南区,113.94097253680229,31.072288891160674,孝感肖港镇,湖北省,,
平安路与雄楚大道交叉处附近,武汉市,武昌区,114.319407,30.520144,武汉晒湖店,湖北省,,
栅栏口30号,武汉市,洪山区,114.307819,30.519941,武汉武泰闸店,湖北省,,
分水镇,孝感市,汉川市,113.65063548088075,30.579859575811916,汉川市分水镇,湖北省,,
广埠屯武商量贩店一楼,武汉市,洪山区,114.366454,30.520566,武汉卓刀泉店,湖北省,,
后湖街办事处后湖大道后湖四路路口万国摩托车城内大门右边,武汉市,江岸区,114.294209,30.645602,武汉万国一店,湖北省,,
塔子湖街办事处金桥大道百胜春天西,武汉市,江岸区,114.292799,30.646123,万国二店,湖北省,,
辛榨乡,孝感市,安陆市,113.63438665866852,31.114740310562603,辛榨镇,湖北省,,
巡店镇,孝感市,安陆市,113.63474339246751,31.162011130385828,巡店镇,湖北省,,
散花镇马垅中心小学东,黄冈市,浠水县,115.161827,30.29254,马垅豪爵摩托专卖店,湖北省,,
丽文大道248-1号(县妇幼保健院旁(县妇幼保健院旁),黄冈市,浠水县,115.257797,30.461208,黄冈市浠水县新日专卖店,湖北省,,
义堂镇,孝感市,云梦县,113.71551543474199,31.092549421481397,义堂镇,湖北省,,
黄州大道70号附近,黄冈市,黄州区,114.884315,30.452042,黄冈市黄州区新日专卖店,湖北省,,
百花街97号,武汉市,汉南区,114.081867,30.305458,汉南店,湖北省,,
丽水路与白沙洲大道交叉口东南100米,武汉市,洪山区,114.270164,30.461965,武汉白沙洲店,湖北省,,
大岔路与觅金路交叉口北100米,黄冈市,红安县,114.570274,31.06089,黄冈市红安县觅儿寺工业园新日专卖店,湖北省,,
李店镇,孝感市,安陆市,113.76058861613274,31.214122767319168,李店镇,湖北省,,
城关镇红坪大道楚剧团正对面,黄冈市,红安县,114.615288,31.289785,黄冈市红安县新日专卖店,湖北省,,
棠棣镇,孝感市,安陆市,113.59148338437082,31.239303248601196,堂栗镇,湖北省,,
雷公镇,孝感市,安陆市,113.51707756519318,31.29113277626742,雷公镇,湖北省,,
花园镇,孝感市,孝昌县,113.98806139826775,31.255760915186002,孝昌县,湖北省,,
北城街道,襄阳市,枣阳市,112.75813311338426,32.121586623280564,枣阳新日电动车,湖北省,,
昭明街道,襄阳市,襄城区,112.1509051322937,32.015908802427084,襄阳市百信电动车销售部-襄城,湖北省,,
东湖新技术开发花山街花城家园桔园门面(花城家园物业邮政自提点),武汉市,洪山区,114.51467,30.52205,武汉花山店,湖北省,,
新开镇小康街,黄冈市,黄梅县,115.818672,29.81212,黄冈市黄梅县新开镇新日专卖店,湖北省,,
张榜镇张榜大道68号,黄冈市,蕲春县,115.782593,30.42153,黄冈市蕲春县张榜镇新日专卖店,湖北省,,
034乡道与230县道交叉口西北50米,黄冈市,武穴市,115.777267,30.012791,武穴市郑公塔新日专卖店,湖北省,,
梅川镇,黄冈市,武穴市,115.602638,30.110409,武穴市梅川镇新日专卖店,湖北省,,
工业路23号附近,黄冈市,麻城市,115.029839,31.18117,黄冈市麻城新日专卖店,湖北省,,
联城路34附2号,武汉市,蔡甸区,114.155791,30.491621,武汉沌口店,湖北省,,
和平大道1284号中银大厦12楼D座,武汉市,青山区,114.391813,30.633892,武汉青山店,湖北省,,
将军路街道将军一路41号,武汉市,东西湖区,114.256789,30.644603,武汉将军路店,湖北省,,
闵集镇闵集中学对面,黄冈市,麻城市,115.010216,31.112612,黄冈市麻城闵集镇新日专卖店,湖北省,,
大金镇苏脑街,黄冈市,武穴市,115.620537,29.99439,武穴市大金镇新日专卖店,湖北省,,
长安大道18号附近,咸宁市,咸安区,114.287678,29.867488,咸宁新日电动车专卖店,湖北省,,
陆水湖大道436号永邦欧洲城酒店公寓楼,咸宁市,赤壁市,113.894628,29.712154,赤壁雷霆商贸有限公司,湖北省,,
温泉镇金石路33号,黄冈市,英山县,115.676506,30.735533,黄冈市英山县新日专卖店,湖北省,,
大法寺镇栖贤路1号,黄冈市,武穴市,115.479645,29.949953,武穴市大法寺镇新日专卖店,湖北省,,
瑞通大道北50米,咸宁市,赤壁市,113.928971,29.723874,赤壁二店,湖北省,,
余川镇松山咀街,黄冈市,武穴市,115.735489,30.085098,武穴市余川镇新日专卖店,湖北省,,
小池镇精品南街388号,黄冈市,黄梅县,115.991158,29.752434,黄冈市黄梅县小池镇新日专卖店,湖北省,,
宋埠镇英联大道276号(财政所旁边),黄冈市,麻城市,114.794022,31.061834,黄冈市麻城宋埠镇新日专卖店,湖北省,,
民主大道291号附近,咸宁市,通城县,113.812386,29.25467,通城县新日电动车销售店,湖北省,,
新市镇,荆门市,京山市,113.12072083353998,31.025595138716344,京山县万事达车行,湖北省,,
黄石大道王家里公交车站旁,黄石市,黄石港区,115.075859,30.226795,黄石港区林爽电动车车行,湖北省,,
郢中街道,荆门市,钟祥市,112.58817359805109,31.1630187118921,钟祥市鄂中电动车大世界,湖北省,,
兴国大道146号,黄石市,阳新县,115.216362,29.832573,阳新县兴国镇明平龙车行,湖北省,,
汉阳大街139附19号,武汉市,蔡甸区,114.03775,30.57609,武汉市蔡甸区阳光电动车商行,湖北省,,
二堰街道,十堰市,茅箭区,110.76889023184778,32.60955699073245,十堰经济开发区常青车行,湖北省,,
城关镇,襄阳市,南漳县,111.85375794768333,31.775939049873063,南漳新日电动车专卖店,湖北省,,
江碧路118-2号,鄂州市,鄂城区,114.88002,30.40073,鄂州市江碧路天赐平安车行,湖北省,,
楚都巷与襄沙大道交叉口西100米,襄阳市,宜城市,112.258022,31.703636,宜城市王朝电动车行,湖北省,,
城关镇泰山路67号,襄阳市,谷城县,111.64662,32.257725,谷城县新日电动车店,湖北省,,
S305(人民路),十堰市,竹山县,110.225787,32.231435,竹山县龙腾车行,湖北省,,
郧西大道98号,十堰市,郧西县,110.429101,32.979344,陨西新日电动车,湖北省,,
酂阳街道,襄阳市,老河口市,111.67074546217918,32.37891155359454,老河口市新日电动车专卖店,湖北省,,
均州路街道,十堰市,丹江口市,111.51088312268259,32.53737198062293,丹江口市诚信电动车行,湖北省,,
龙泉街道,荆门市,东宝区,112.19893142580986,31.023077115650917,荆门市新日电动车专卖店,湖北省,,
石花武当路25号,襄阳市,谷城县,111.471936,32.280158,谷城县石花镇新日电动车专卖店,湖北省,,
李楼镇,襄阳市,老河口市,111.70018404722212,32.36112124369957,李楼新日电动车,湖北省,,
洪山嘴镇,襄阳市,老河口市,111.6674128174782,32.450888800102476,洪水嘴新日电动车,湖北省,,
吴家山三秀路海林广场第1层A1008-1号,武汉市,东西湖区,114.144953,30.623414,武汉吴家山直营店,湖北省,,
东西湖大道3770号,武汉市,东西湖区,114.028621,30.651652,武汉走马岭店,湖北省,,
仙人渡镇,襄阳市,老河口市,111.73785969614983,32.27495879162327,仙人渡新日电动车,湖北省,,
竹林桥镇,襄阳市,老河口市,111.85317188501361,32.44222753509529,竹林桥新日电动车,湖北省,,
卧龙镇,襄阳市,襄城区,112.01052904129028,32.02103822410257,卧龙新日电动车,湖北省,,
尹集乡,襄阳市,襄城区,112.07953289151192,31.941616582942064,尹集新日电动车,湖北省,,
余家湖街道,襄阳市,襄城区,112.15417206287384,31.921558633002924,余家湖新日电动车,湖北省,,
欧庙镇,襄阳市,襄城区,112.1643725037575,31.859358365786125,欧庙新日电动车,湖北省,,
张湾街道,襄阳市,襄州区,112.20604464411738,32.08605383080547,张湾新日电动车,湖北省,,
双沟镇,襄阳市,襄州区,112.37145110964777,32.16718028647231,双沟新日电动车,湖北省,,
伙牌镇,襄阳市,襄州区,112.13438808917999,32.17678166266932,伙牌新日电动车,湖北省,,
朱集镇,襄阳市,襄州区,112.37408906221393,32.308891129670364,朱集新日电动车,湖北省,,
古驿镇,襄阳市,襄州区,112.23965808749199,32.25610692069091,古驿新日电动车,湖北省,,
庙滩镇,襄阳市,谷城县,111.74808695912363,32.14184836743617,庙滩新日电动车,湖北省,,
孝南区肖港镇,孝感市,孝南区,113.94827082753181,31.074170408007728,肖港镇,湖北省,,
伍洛镇,孝感市,云梦县,113.8146834075451,30.98269806440328,伍洛,湖北省,,
光谷一路天纵水晶郦都内(建设银行附近),武汉市,江夏区,114.440454,30.430962,武汉流芳店,湖北省,,
新新路,荆州市,洪湖市,113.85818,30.01316,大沙新日电动车,湖北省,,
老湾回族乡103省道北河村路段路北,荆州市,洪湖市,113.681767,29.971019,洪湖市老湾镇新日电动车,湖北省,,
宏伟南路5号,荆州市,洪湖市,113.460628,29.818397,洪湖市新堤湖滨电动车商行,湖北省,,
新江口镇环城路天发加油站对面,荆州市,松滋市,111.772016,30.179847,荆州高程商贸有限公司,湖北省,,
长坂路155号,宜昌市,当阳市,111.807127,30.815432,当阳市新日电动车专卖店,湖北省,,
夷陵大道236号,宜昌市,点军区,111.318107,30.674396,宜昌市伍家岗区腾龙电动车行,湖北省,,
红门路摩托市场,荆州市,沙市区,112.261998,30.304886,沙市区新日电动车专营店,湖北省,,
黄金堂东路与322省道交叉口西北150米,荆州市,荆州区,112.12173,30.220955,弥市镇新日电动车,湖北省,,
太李路,荆州市,荆州区,112.07422,30.323768,李埠镇新日电动车,湖北省,,
郝穴镇荆江路郝穴镇政府北行300米,荆州市,江陵县,112.421376,30.032691,江陵新日电动车专卖店,湖北省,,
锣场镇中心街106号,荆州市,沙市区,112.339366,30.354563,锣场镇新日电动车,湖北省,,
荆州区,荆州市,荆州区,112.080126,30.587581,川店镇新日电动车,湖北省,,
荆秘路西门小学旁26号,荆州市,荆州区,112.173457,30.352132,西门新日电动车专卖店,湖北省,,
荆州南路35-6号,荆州市,荆州区,112.202778,30.347584,荆州区新日电动车专卖店,湖北省,,
"潺陵大道(金富莱大酒店对面,摩托大市场旁)",荆州市,公安县,112.2126,30.063792,公安县嘉旭电动车行,湖北省,,
襄东大道364号附近,荆州市,公安县,111.928923,29.887187,章庄铺镇新日电动车,湖北省,,
埠河镇荆江大道106号,荆州市,公安县,112.240726,30.288547,埠河镇新日电动车,湖北省,,
藕池镇,荆州市,公安县,112.322251,29.74381,藕池镇新日电动车,湖北省,,
中心街214号,荆州市,公安县,112.016281,30.050691,班竹挡新日电动车,湖北省,,
新建街与汪杨线交叉口西50米,荆州市,公安县,112.01593,29.982899,狮子口镇,湖北省,,
公安县,荆州市,公安县,112.190522,29.905103,闸口镇新日电动车,湖北省,,
航空花园17号,恩施土家族苗族自治州,恩施市,109.481559,30.291122,黄显国,湖北省,,
巴公路38号,恩施土家族苗族自治州,恩施市,109.473318,30.252352,六角亭新日电动车,湖北省,,
园林办事处潜阳中路24号,,潜江市,112.89334,30.415437,潜江市齐宇电动车行,湖北省,,
老新镇徐李街,,潜江市,112.782799,30.151731,老新镇徐里新日电动车,湖北省,,
潜江市,,潜江市,112.6442,30.378324,浩口新日电动车,湖北省,,
五七大道南50米,,潜江市,112.748478,30.457235,向阳新日电动车,湖北省,,
章华南路348,,潜江市,112.904933,30.360268,杨市镇,湖北省,,
109省道西150米,武汉市,新洲区,114.606796,30.832084,新洲仓埠,湖北省,,
凤山镇义水南路15号,黄冈市,罗田县,115.394272,30.777048,黄冈市罗田县新日专卖店,湖北省,,
城郊乡,随州市,广水市,113.81558999419212,31.595476286112223,应山南门,湖北省,,
广水街道,随州市,广水市,114.00485336780548,31.620390167757538,广水镇,湖北省,,
武胜关镇鄂北大道2号,随州市,广水市,114.043276,31.609469,武胜关,湖北省,,
杨河镇,孝感市,应城市,113.59062910079956,31.090152610082512,杨河镇,湖北省,,
田店镇,孝感市,应城市,113.46630334854126,31.02245995424693,田店,湖北省,,
郎君镇,孝感市,应城市,113.67735028266905,30.895347707825877,郎君,湖北省,,
长江埠街道,孝感市,应城市,113.73440489172937,30.86991486911661,长江,湖北省,,
陈河镇,孝感市,应城市,113.47441032528879,30.85523125769836,陈河,湖北省,,
东马坊街道,孝感市,应城市,113.70450899004936,30.91688960956828,化工,湖北省,,
黄滩镇,孝感市,应城市,113.58913242816926,30.898653929684965,黄滩,湖北省,,
胡金店镇,孝感市,云梦县,113.65974828600883,31.070415377990212,胡金店,湖北省,,
三合镇,孝感市,应城市,113.68139907717705,30.981232109832842,下辛店,湖北省,,
长倘口镇,,仙桃市,113.56682047247887,30.39485073247053,长棠口,湖北省,,
府城街道,孝感市,安陆市,113.68607282638548,31.290254915955906,碧允路,湖北省,,
伏水镇,孝感市,安陆市,113.69090080261232,31.331759819904995,伏水,湖北省,,
孛畈镇,孝感市,安陆市,113.5242283344269,31.385149374867794,孛板,湖北省,,
洪山镇,随州市,随县,112.90777221322061,31.656986501351234,洪山镇,湖北省,,
均川镇,随州市,随县,113.2333454489708,31.655847222139194,均川,湖北省,,
高城镇,随州市,随县,113.451663851738,31.93650320585545,高城,湖北省,,
三伏潭镇,,仙桃市,113.20581793785095,30.356328085824753,三伏潭,湖北省,,
胡场镇,,仙桃市,113.2971149682999,30.37865559965541,胡场,湖北省,,
张沟镇,,仙桃市,113.38016957044601,30.243961836931593,张沟,湖北省,,
卫店镇,孝感市,孝昌县,113.98227453231812,31.31790702523422,卫店分水,湖北省,,
王店镇,孝感市,孝昌县,113.98172065615655,31.387507801945002,王店,湖北省,,
陡山乡,孝感市,孝昌县,114.01044711470605,31.19627780248652,陡山,湖北省,,
三汊镇,孝感市,孝南区,114.034363,30.924422,大会,湖北省,,
毛嘴镇,,仙桃市,113.0358946323395,30.41080954907976,毛嘴镇,湖北省,,
沔城回族镇,,仙桃市,113.21962594985963,30.19532252435901,沔城,湖北省,,
陈场镇,,仙桃市,113.1023919582367,30.224606104983543,陈场,湖北省,,
麻洋镇,,仙桃市,113.24851870536806,30.421005539637214,麻港镇,湖北省,,
彭场镇,,仙桃市,113.67947459220886,30.1718854451311,沙湖,湖北省,,
北郊街道,随州市,随县,113.29759240150455,31.861270831327364,随县,湖北省,,
唐县镇,随州市,随县,113.11684370040894,31.96487413453447,唐城,湖北省,,
何店镇,随州市,曾都区,113.33896145224573,31.589790834211293,何店,湖北省,,
淅河镇,随州市,曾都区,113.49065512418747,31.674183582365504,淅河,湖北省,,
道桥镇,孝感市,云梦县,113.75740081071855,30.84281146152539,护镇,湖北省,,
道桥镇,孝感市,云梦县,113.79263564944269,30.891488962032877,倒店,湖北省,,
清明河乡,孝感市,云梦县,113.70091214776039,31.032601811050753,清明河,湖北省,,
孝感开发区丹阳街道,孝感市,孝南区,113.91752600669861,30.94501070965401,罗坡,湖北省,,
孝南区卧龙乡,孝感市,云梦县,113.86088579893114,30.933553898404845,长湖,湖北省,,
发展大道8号,鄂州市,华容区,114.628227,30.446953,鄂州市庙岭新日电动车专卖店,湖北省,,
葛洪大道756号,鄂州市,华容区,114.681412,30.540625,鄂州市葛店新日电动车专卖店,湖北省,,
005县道西50米,鄂州市,鄂城区,114.942261,30.361841,鄂州市沙塘新日电动车专卖店,湖北省,,
段店镇三江大道37号,鄂州市,华容区,114.787643,30.536579,鄂州市段店镇新日专卖店,湖北省,,
太和镇区府路17号,鄂州市,梁子湖区,114.681839,30.099667,鄂州市太和镇新日专卖店,湖北省,,
沼山大道108号,鄂州市,梁子湖区,114.670372,30.17503,鄂州市沼山新日专卖店,湖北省,,
楚藩大道220号,鄂州市,华容区,114.729881,30.534309,鄂州市华容新日专卖店,湖北省,,
碧黄线附近,鄂州市,鄂城区,114.97979,30.231298,鄂州市泉塘新日专卖店,湖北省,,
汀祖老街与洪山路交叉口东50米,鄂州市,鄂城区,114.94294,30.265774,鄂州市丁祖新日专卖店,湖北省,,
浮屠镇,黄石市,阳新县,115.090279,29.90118,阳新浮屠新日专卖店,湖北省,,
太子镇,黄石市,阳新县,115.18119,30.028433,阳新太子镇新日专卖店,湖北省,,
大王镇,黄石市,阳新县,115.120476,30.038141,阳新大王镇新本摩托,湖北省,,
河口大道103号附近,黄石市,西塞山区,115.237244,30.146519,黄石河口新日专卖店,湖北省,,
金牛镇,黄石市,大冶市,114.6241,30.009632,黄石金牛雅马哈摩托,湖北省,,
灵乡镇灵乡大道东23号,黄石市,大冶市,114.752838,30.009398,黄石灵乡新日专卖店,湖北省,,
广友路与铁山大道交叉口南150米,黄石市,铁山区,114.901489,30.205961,黄石铁山新日专卖店,湖北省,,
四棵街,黄石市,大冶市,115.044952,30.138405,黄石四棵新日专卖店,湖北省,,
横车大道73号附近,黄冈市,蕲春县,115.381699,30.301033,黄冈蕲春县横车新日专卖店,湖北省,,
光化街道,襄阳市,老河口市,111.68986961245538,32.40705219006013,三叉路新日电动车专卖店,湖北省,,
004乡道西50米,襄阳市,老河口市,111.614245,32.482416,江山新日电动车专卖店,湖北省,,
九集镇,襄阳市,南漳县,112.00207337737085,31.813737899050125,九集新日电动车,湖北省,,
武安镇,襄阳市,南漳县,111.98109716176987,31.675682154982898,武安新日电动车,湖北省,,
五山镇,襄阳市,谷城县,111.40075966715813,32.27009650865181,谢湾新日电动车,湖北省,,
五山镇,襄阳市,谷城县,111.35492742061616,32.30238702681116,五山新日电动车,湖北省,,
石花镇,襄阳市,谷城县,111.52253463864326,32.27149353454186,大欲桥新日电动车,湖北省,,
石花镇,襄阳市,谷城县,111.5359564125538,32.27374211139673,水星台新日电动车,湖北省,,
盛康镇,襄阳市,谷城县,111.55381590127945,32.19053490898256,盛康新日电动车,湖北省,,
城关镇,襄阳市,谷城县,111.62897542119025,32.243090676231695,城关新日电动车,湖北省,,
冷集镇,襄阳市,谷城县,111.59480005502702,32.364786972774304,冷集新日电动车,湖北省,,
掇刀街道,荆门市,掇刀区,112.19501003623012,30.968013356693074,城南新日电动车,湖北省,,
牛首镇,襄阳市,樊城区,112.03242793679237,32.079021293773486,竹条新日电动车,湖北省,,
牛首镇政府街3号,襄阳市,樊城区,111.97954,32.096768,牛首新日电动车,湖北省,,
程河镇,襄阳市,襄州区,112.42712169885635,32.291394281287026,程河新日电动车,湖北省,,
团林铺镇,荆门市,掇刀区,112.18276977539062,30.84703370483206,团林新日电动车,湖北省,,
麻城镇,荆门市,掇刀区,112.3031258583069,30.913271056217635,麻城新日电动车,湖北省,,
子陵镇,荆门市,东宝区,112.21257448196413,31.157551478112627,子陵新日电动车,湖北省,,
冷水镇,荆门市,钟祥市,112.43075609207153,31.094924352723787,冷水新日电动车,湖北省,,
丰乐镇,荆门市,钟祥市,112.478746175766,31.455446261482685,丰乐新日电动车,湖北省,,
旧口镇,荆门市,钟祥市,112.67239093780519,30.868456393812263,旧口新日电动车,湖北省,,
王畈南路,荆门市,京山市,112.882274,30.820502,屈家岭新日电动车,湖北省,,
小河镇朱市社区,襄阳市,宜城市,112.123959,31.714666,朱市新日电动车,湖北省,,
刘猴镇,襄阳市,宜城市,112.00015828013422,31.46079213358461,刘猴新日电动车,湖北省,,
王集镇,襄阳市,宜城市,112.22480535507202,31.829112445519115,王集新日电动车,湖北省,,
板桥镇,襄阳市,宜城市,112.48699665069581,31.73199404850886,板桥新日电动车,湖北省,,
章华北路372号附近,,潜江市,112.877273,30.480983,泽口镇新日电动车,湖北省,,
红旗大道15,,潜江市,112.780017,30.499099,王场镇新日电动车,湖北省,,
希望路1,,潜江市,112.599931,30.44725,积玉口镇新日电动车,湖北省,,
周矶管理区五七集贸市场,,潜江市,112.787994,30.456165,五七镇新日电动车,湖北省,,
水西寺路与永兴大道交叉口西150米,荆州市,监利县,113.12414,29.72312,朱河镇新日电动车,湖北省,,
溶新路20附近,宜昌市,当阳市,111.985438,30.695471,河溶镇新日电动车,湖北省,,
3路,,潜江市,112.898735,30.430643,三江镇新日电动车,湖北省,,
钟长路52号,,潜江市,112.670113,30.545266,高石碑镇新日电动车,湖北省,,
总口镇总口路114号,,潜江市,112.921299,30.2928,总口镇新日电动车,湖北省,,
老新路137号邮政对面,,潜江市,112.856419,30.192747,老新镇新日电动车,湖北省,,
东街15,荆州市,松滋市,111.71744,30.342011,老城镇新日电动车,湖北省,,
峰口镇建峰路一号(飘飘造型对面),荆州市,洪湖市,113.349045,30.08003,峰口镇新日电动车,湖北省,,
曹市镇马路村,荆州市,洪湖市,113.273141,30.07704,曹市镇新日电动车,湖北省,,
岑河镇民主路149号,荆州市,沙市区,112.374682,30.269728,岑河镇新日电动车,湖北省,,
108路;B34路;B63路;B68路,宜昌市,夷陵区,111.299026,30.766544,新日电动车长江市场店,湖北省,,
欢乐大道东湖景园小区A门口(距铁机路站约616米),武汉市,武昌区,114.376041,30.583519,武汉欢乐大道店,湖北省,,
鲁磨路388号中国地质大学北区堕落街(近地大北区校门),武汉市,洪山区,114.402761,30.5265,磨山店,湖北省,,
孝南区卧龙乡,孝感市,孝南区,113.9115580916405,30.897226963144153,孝感卧龙镇,湖北省,,
马口镇,孝感市,汉川市,113.82477521896364,30.53944877042196,马口镇,湖北省,,
吴山镇,随州市,随县,113.0376219749451,32.17989865701287,吴山,湖北省,,
尚市镇,随州市,随县,113.2312560081482,31.92759821743378,尚市镇,湖北省,,
白果镇白果大道102号,黄冈市,麻城市,115.016617,31.03981,黄冈麻城市白果镇新日电动车专卖店,湖北省,,
麻豪口镇竹溪街,荆州市,公安县,112.310427,29.968183,公安县麻豪口镇新日电动车,湖北省,,
066乡道与313县道交叉口西北200米,黄冈市,蕲春县,115.767067,30.33176,黄冈蕲春白水镇新日专卖店,湖北省,,
061乡道与205省道交叉口南200米,黄冈市,蕲春县,115.85553,30.516142,黄冈蕲春檀林镇新日专卖店,湖北省,,
049乡道与226县道交叉口东150米,黄冈市,蕲春县,115.675171,30.443649,黄冈蕲春花园镇新日专卖店,湖北省,,
十里铺镇,荆门市,沙洋县,112.2016954421997,30.61464674807897,十里新日电动车,湖北省,,
李市镇,荆门市,沙洋县,112.58546590805054,30.602227077579524,李市新日电动车,湖北省,,
龙王镇,襄阳市,襄州区,111.98251336812972,32.22664076537262,龙王新日电动车,湖北省,,
黄集镇,襄阳市,襄州区,112.14488223195076,32.288529396146366,黄集新日电动车,湖北省,,
黄龙镇,襄阳市,襄州区,112.46268644928932,31.968000636436994,黄龙新日电动车,湖北省,,
展新北路西50米,荆州市,公安县,112.17091,29.792936,胡厂镇新日电动车,湖北省,,
孟家溪镇,荆州市,公安县,112.095344,29.855523,孟溪镇新日电动车,湖北省,,
公安县,荆州市,公安县,112.185229,30.045576,金猫口新日电动车,湖北省,,
马中路162-2,荆州市,荆州区,112.01545,30.486951,马山镇新日电动车,湖北省,,
孝南区闵集乡,孝感市,孝南区,114.10844698548318,30.839871786186137,闵集,湖北省,,
孝南区祝站镇,孝感市,孝南区,114.12891224026681,30.898604446523798,祝站,湖北省,,
卫店镇,孝感市,孝昌县,113.96320939064027,31.337239886423284,卫店,湖北省,,
孝南区车站街道,孝感市,孝南区,113.92251759767532,30.961374543296532,朋兴,湖北省,,
邹岗镇,孝感市,孝南区,114.04033899307252,31.070801340803953,邹岗,湖北省,,
城关镇,十堰市,郧阳区,110.81711098551753,32.830742840829004,郧县新日电动车,湖北省,,
发展大道常码头村170号,武汉市,硚口区,114.23072,30.603885,发展大道店,湖北省,,
官柳南路1-17号湖滨花园旁,鄂州市,鄂城区,114.875023,30.385992,鄂州市官柳新日专卖店,湖北省,,
路口大道476号,黄冈市,黄州区,114.949684,30.491341,黄冈路口新日专卖店,湖北省,,
龙感湖管理区交通局旁边,黄冈市,黄梅县,115.999374,29.877369,黄梅龙感湖新日专卖店,湖北省,,
蕲春县,黄冈市,蕲春县,115.415161,30.351307,蕲春铺咀新日专卖店,湖北省,,
蕲州镇蕲州大道39号,黄冈市,蕲春县,115.343033,30.072336,蕲春圻州新日专卖店,湖北省,,
吴店镇,襄阳市,枣阳市,112.77869224548341,31.978760541264915,吴店新日,湖北省,,
杨当镇徐寨街,襄阳市,枣阳市,112.538338,32.312177,徐寨新日电动车,湖北省,,
鹿头镇,襄阳市,枣阳市,112.93176993727687,32.24111357733803,鹿头新日电动车,湖北省,,
鹿头镇,襄阳市,枣阳市,112.8544069826603,32.20002941803167,吉河新日电动车,湖北省,,
兴崛大道284号,武汉市,黄陂区,114.538281,30.921186,蔡榨店,湖北省,,
湖北省孝感市槐荫大道,孝感市,孝南区,113.915419,30.919513,孝感市春玲摩托销售有限公司,湖北省,,
唐家墩街办事处发展大道25号东,武汉市,硚口区,114.235201,30.606618,汉口发展大道店,湖北省,,
湖北省襄樊市人民路5710厂东边,襄阳市,樊城区,112.139052,32.040037,湖北襄阳忠义酒业有限公司,湖北省,,
湖北省武汉市新洲区齐安大道（新日电动车专卖店）,武汉市,新洲区,114.80325,30.831917,武汉市新洲区心怡电动车行,湖北省,,
湖北省武汉市蔡甸区蔡甸街汉阳大街,武汉市,蔡甸区,114.034832,30.577577,武汉市蔡甸区王派电动车经销店,湖北省,,
东沟镇珍珠大道1号,鄂州市,梁子湖区,114.66362,30.281115,鄂州东沟镇日专卖店,湖北省,,
丰康巷与102县道交叉口西南50米,黄冈市,红安县,114.627907,31.28512,红安丰岗乡新日专卖店,湖北省,,
峰口镇,荆州市,洪湖市,113.34929466247559,30.079977670505567,峰口镇新日电动车专卖店,湖北省,,
老湾乡,荆州市,洪湖市,113.67447093129161,29.969440532147157,洪湖市老湾镇新日电动车专卖店,湖北省,,
孝感开发区孝天街道,孝感市,孝南区,114.0389657020569,30.912212502815333,孝感市南大经济开发区,湖北省,,
鸳鸯乡,十堰市,茅箭区,110.84203004837036,32.62508331836704,张家沟,湖北省,,
中原街道,襄阳市,樊城区,112.1598891913891,32.06464091795394,襄阳市百信电动车销售部-三元路,湖北省,,
米公街道,襄阳市,樊城区,112.14202433824539,32.04075386119319,襄阳市百信电动车销售部-人民路,湖北省,,
长安大道12号附近,咸宁市,咸安区,114.287262,29.868135,咸宁咸安区新日电动车专卖店,湖北省,,
新街口摩托车市场和谐家园12栋,咸宁市,赤壁市,113.8965,29.714621,赤壁市雷霆商贸有限公司,湖北省,,
民主路438号,咸宁市,通城县,113.813026,29.254831,通城新日电动车专卖店,湖北省,,
郧县经济开发区,十堰市,郧阳区,110.80421626567842,32.81428973762108,郧阳区,湖北省,,
城关镇,十堰市,郧阳区,110.80812156200409,32.83827470554416,城关镇,湖北省,,
011县道东200米,十堰市,郧阳区,110.816807,32.781064,茶店镇,湖北省,,
商贸物流城17路2B-01,黄冈市,麻城市,115.002029,31.179047,麻城新日商贸店,湖北省,,
湖北省武汉市蔡甸区侏儒街道蟹湖大街200号侏儒客运站,武汉市,蔡甸区,113.849231,30.440441,蔡甸侏儒店,湖北省,,
湖北省黄冈市红安县高桥镇詹店小学,黄冈市,红安县,114.553795,31.159836,黄冈红安詹店新日电动车专卖店,湖北省,,
翔凤镇,恩施土家族苗族自治州,来凤县,109.40782740712167,29.493481048748905,来风县绿威电动车,湖北省,,
珠山镇,恩施土家族苗族自治州,宣恩县,109.49081227183343,29.985204745190906,宣恩新日电动车专卖店,湖北省,,
高乐山镇,恩施土家族苗族自治州,咸丰县,109.15342792868616,29.679376142512194,咸丰新日电动车专卖店,湖北省,,
湖北省武汉市新洲区邾城街道齐安大道玫瑰花园(广场街),武汉市,新洲区,114.803577,30.830241,武汉新洲心怡电动车行,湖北省,,
汉阳大街血防站旁,武汉市,蔡甸区,114.033437,30.579988,蔡甸市场店,湖北省,,
湖北省潜江市园林街道潜阳中路,,潜江市,112.89319,30.415235,潜江新日电动车,湖北省,,
湖北省武汉市新洲区徐古镇徐古镇沙河中心村卫生室,武汉市,新洲区,115.002616,30.924751,新洲沙河店,湖北省,,
杨溪铺镇,十堰市,郧阳区,110.87449818849564,32.82508788817175,杨集镇,湖北省,,
白桑关镇,十堰市,郧阳区,110.9719240665436,32.95501112543682,白桑镇,湖北省,,
谭山镇,十堰市,郧阳区,111.09671115875243,33.02167680387407,谭山镇,湖北省,,
湖北省黄冈市麻城市中馆驿镇中共中馆驿镇纪律检查委员会,黄冈市,麻城市,114.893669,31.123587,麻城中驿新日专卖店,湖北省,,
湖北省黄冈市红安县永河镇永佳河镇,黄冈市,红安县,114.709335,31.146732,红安永佳河新日专卖店,湖北省,,
湖北省黄冈市红安县七里坪镇七里坪镇人民政府,黄冈市,红安县,114.654846,31.462915,红安七里坪新日专卖店,湖北省,,
新滩镇,荆州市,洪湖市,113.89388769865035,30.161851368136876,新滩新日电动车,湖北省,,
燕窝镇,荆州市,洪湖市,114.02451932430269,30.081998068942568,燕窝新日,湖北省,,
湖北省黄冈市浠水县巴河镇中国邮政储蓄银行(巴驿街支行),黄冈市,浠水县,115.104652,30.488056,浠水巴驿镇新日专卖店,湖北省,,
湖北省黄冈市蕲春县青石镇蕲春县政协,黄冈市,蕲春县,115.698761,30.311213,蕲春青石新日店,湖北省,,
湖北省黄冈市蕲春县刘河镇政府路18号,黄冈市,蕲春县,115.591286,30.299774,蕲春刘河新日专卖店,湖北省,,
湖北省黄冈市蕲春县狮子镇狮子镇人民政府,黄冈市,蕲春县,115.609085,30.38434,蕲春狮子镇新日店,湖北省,,
湖北省黄冈市蕲春县青石镇205省道,黄冈市,蕲春县,115.698639,30.310076,桐梓新日专卖店,湖北省,,
湖北省黄冈市蕲春县赤东镇022乡道,黄冈市,蕲春县,115.464935,30.153063,蕲春赤东竹瓦新日店,湖北省,,
湖北省黄冈市蕲春县漕河镇电力街4号,黄冈市,蕲春县,115.438828,30.242388,蕲春长岭岗新日,湖北省,,
湖北省黄冈市蕲春县八里湖农场蕲春县八里湖办事处总场社区,黄冈市,蕲春县,115.352272,30.129383,蕲春八里新日,湖北省,,
湖北省黄冈市蕲春县彭思镇螺丝港,黄冈市,蕲春县,115.257339,30.21648,蕲春螺丝港新日,湖北省,,
瞿家湾镇,荆州市,洪湖市,113.1967869400978,29.964219319457328,翟家湾新日电动车,湖北省,,
州陵大道107号,荆州市,洪湖市,113.46902,29.825889,矛江新日电动车,湖北省,,
沙口镇,荆州市,洪湖市,113.28533202409746,29.979265287920782,沙口新日电动车,湖北省,,
湖北省武汉市江夏区纸坊街道西交路江夏花园2期,武汉市,江夏区,114.308853,30.34389,江夏西郊路店,湖北省,,
湖北省武汉市新洲区汪集街道致富街57号,武汉市,新洲区,114.672099,30.803144,新洲孔埠镇,湖北省,,
湖北省咸宁市通山县通羊镇民营街,咸宁市,通山县,114.508942,29.603327,通山县祥发电动车配件批发部,湖北省,,
龙坝镇,十堰市,竹溪县,109.65483337640762,32.36372102670951,竹溪龙坝镇,湖北省,,
湖北省武汉市新洲区三店街道龙丘大街,武汉市,新洲区,114.794884,30.926696,新洲三店,湖北省,,
湖北省武汉市新洲区李集街道新李路,武汉市,新洲区,114.678044,30.874008,新洲李集,湖北省,,
沙道观镇,荆州市,松滋市,111.98131173849106,30.182547996178542,米积台新日电动车,湖北省,,
当阳市玉阳街道,宜昌市,当阳市,111.80439859628677,30.818045364399723,当阳市长坂路新日电动车二店,湖北省,,
宛市镇,荆州市,松滋市,112.0154790580273,30.26778946812274,涴市新日,湖北省,,
鸣凤镇,宜昌市,远安县,111.61983311176301,31.034545016927254,远安苏安车行,湖北省,,
舞阳坝街道,恩施土家族苗族自治州,恩施市,109.49082031846048,30.273025929820392,恩施三店钱江摩托,湖北省,,
舞阳坝街道,恩施土家族苗族自治州,恩施市,109.4859977066517,30.27239817144469,恩施东风大道新日店,湖北省,,
秦古镇,十堰市,竹溪县,109.78435993194581,32.357968552514336,秦古镇,湖北省,,
棠棣镇,孝感市,安陆市,113.58647704124452,31.249387550021652,唐梨,湖北省,,
双竹林场,十堰市,竹溪县,109.71192955970766,32.37880169167697,县河镇,湖北省,,
中峰镇,十堰市,竹溪县,109.6735739707947,32.310079001834275,汇湾,湖北省,,
中峰镇,十堰市,竹溪县,109.65047210454942,32.32585423516866,中锋,湖北省,,
伏水镇,孝感市,安陆市,113.74512434005739,31.370658632089636,付水,湖北省,,
孝南区杨店镇,孝感市,孝南区,114.10287469625472,31.02145662745406,杨店,湖北省,,
殷店镇,随州市,随县,113.4924066066742,32.075247431103016,殷店,湖北省,,
湖北省潜江市高石碑镇建设街,,潜江市,112.665016,30.540526,潜江高石碑,湖北省,,
湖北省潜江市杨市街道刘岭街16号,,潜江市,112.906176,30.368621,潜江杨市店,湖北省,,
湖北省武汉市黄陂区罗汉寺街道武汉市黄陂区研子岗镇财政所,武汉市,黄陂区,114.343003,31.016606,黄陂研子店,湖北省,,
沙道观镇大桥路222号,荆州市,松滋市,111.932451,30.169464,沙道观金彭车业,湖北省,,
东一路与喻园大道交叉口西北100米,武汉市,洪山区,114.414562,30.516598,武汉华中科技店,湖北省,,
湖北省潜江市江汉石油管理局向阳文化广场,,潜江市,112.748478,30.457235,潜江向阳店,湖北省,,
湖北省潜江市江汉石油管理局五七大道332号,,潜江市,112.784249,30.457092,五七店,湖北省,,
龙泉镇,宜昌市,夷陵区,111.49499505758287,30.723177094232117,龙泉镇新日电动车,湖北省,,
湖北省武汉市黄陂区滠口街道滠阳大街122号,武汉市,黄陂区,114.354039,30.714237,聂口店,湖北省,,
宏泰路与陵园大道交叉口西50米,黄冈市,红安县,114.621559,31.28228,红安县宏泰路新日专卖店,湖北省,,
湖北省潜江市张金镇张金客运站,,潜江市,112.60237,30.197883,潜江张金,湖北省,,
中国邮政储蓄银行(富康路),武汉市,黄陂区,114.421944,30.961099,王家河店,湖北省,,
湖北省黄冈市麻城市中馆驿镇迎河集小学,黄冈市,麻城市,114.942314,31.086611,麻城迎集乡新日专卖店,湖北省,,
湖北省黄冈市麻城市湖北省麻城开发区孝感乡南路金丰一品园,黄冈市,麻城市,114.999329,31.172928,麻城城南新日专卖店,湖北省,,
湖北省黄冈市蕲春县檀林镇莲花路,黄冈市,蕲春县,115.855873,30.520493,蕲春莲花新日专卖店,湖北省,,
柿铺街道,襄阳市,樊城区,112.07015588879587,32.05356373684888,柿铺新日电动车,湖北省,,
湖北省孝感市孝南区孝南区三汊镇兴业路,孝感市,孝南区,114.058116,30.932803,孝感市三叉镇,湖北省,,
湖北省武汉市黄陂区前川街道黄陂区鲁台社区卫生服务中心,武汉市,黄陂区,114.39194,30.869485,黄陂区鲁台店,湖北省,,
七星台镇,宜昌市,枝江市,111.892868578434,30.411194693760468,七星台新日电动车,湖北省,,
湖北省黄冈市浠水县巴河镇葛洲坝大道,黄冈市,浠水县,115.040802,30.451729,黄冈浠水七铺新日专卖店,湖北省,,
湖北省黄冈市武穴市四望镇四望镇中心小学,黄冈市,武穴市,115.557869,30.028288,武穴四望乡新日专卖店,湖北省,,
湖北省孝感市应城市长江埠街道车站路59号,孝感市,应城市,113.729161,30.857727,长江埠乡镇,湖北省,,
百里洲镇,宜昌市,枝江市,111.81067764759064,30.404323160535597,枝江百里州新日电动车,湖北省,,
安福寺镇,宜昌市,枝江市,111.59708663821222,30.52066327353065,枝江安福寺镇新日电动车,湖北省,,
大集街道,武汉市,蔡甸区,114.0512877702713,30.50386969450231,蔡甸大集店,湖北省,,
桥边镇,宜昌市,点军区,111.1855673789978,30.67781349211873,桥边新日,湖北省,,
茅坪镇,宜昌市,秭归县,110.97024098038673,30.820938488323993,姊归新日,湖北省,,
赤马港街道,咸宁市,赤壁市,113.89548629522326,29.716569472883716,赤壁店,湖北省,,
关山街道,武汉市,洪山区,114.40750122070314,30.497708433198284,武汉关山店,湖北省,,
纸坊街道,武汉市,武昌区,114.308420419693,30.35057760166321,武汉市李学英车行,湖北省,,
关山街道,武汉市,洪山区,114.3989583849907,30.491136530288372,武汉新竹路店,湖北省,,
前川街道,武汉市,黄陂区,114.37880560755733,30.873960957106508,武汉市黄陂区前川台铃电动车经营部,湖北省,,
邾城街道,武汉市,新洲区,114.80371311306955,30.83379755364142,武汉市新洲区心怡电动车行,湖北省,,
关东街道,武汉市,洪山区,114.39296498894693,30.471526810502624,民族大道店,湖北省,,
滠口街道,武汉市,黄陂区,114.34839740395547,30.71576267200292,武汉市滠口店,湖北省,,
冶金街道,武汉市,青山区,114.40526962280275,30.627550667940692,武汉市青山区工业四路,湖北省,,
左岭街道,武汉市,洪山区,114.61949765682219,30.4919408524271,武汉市左岭店,湖北省,,
杨柳湾镇,黄冈市,英山县,115.78033760190011,30.82496476096146,黄冈英山县杨柳镇新日电动车专卖店,湖北省,,
杨叶镇,鄂州市,鄂城区,115.07122591137889,30.30178963338823,鄂州杨叶镇新日电动车专卖店,湖北省,,
孔垄镇张河村2组105国道,黄冈市,黄梅县,115.908081,29.847051,武穴黄梅县张河镇新日电动车专卖店,湖北省,,
039乡道东150米,黄冈市,黄梅县,115.922445,29.882996,武穴黄梅县孔垄镇新日电动车专卖店,湖北省,,
湖北省荆州市公安县南平镇顺城路68号,荆州市,公安县,112.083671,29.910194,南平镇新日电动车,湖北省,,
天城镇沿河大道316号,咸宁市,崇阳县,114.049682,29.536881,崇阳新日,湖北省,,
湖北省武汉市武昌区粮道街街道民主路425附3号半边坊,武汉市,武昌区,114.309499,30.544774,武昌区民主路新日专卖店,湖北省,,
湖北省武汉市武昌区中华路街街道解放路雄楚楼社区(火炬路),武汉市,武昌区,114.301327,30.551888,武昌区解放路新日专卖店,湖北省,,
湖北省武汉市黄陂区盘龙城经济开发区汉口北大道天纵·汉北康城,武汉市,黄陂区,114.313941,30.695481,武汉市汉口北刘店新日专卖店,湖北省,,
天际路南湖社区蓝迪之星幼儿园西250米,武汉市,洪山区,114.374588,30.463509,武昌区南湖社区新日专卖店,湖北省,,
湖北省武汉市青山区武东街道武东中路23号重工小区B区,武汉市,青山区,114.458135,30.586815,青山区武东四村新日专卖店,湖北省,,
湖北省武汉市青山区白玉山街道白玉路武汉市青山区小太阳艺术幼儿园,武汉市,青山区,114.47959,30.607546,青山区白玉山新日专卖店,湖北省,,
湖北省荆州市江陵县三湖管理区天星路128号,荆州市,江陵县,112.569894,30.218808,三湖新日电动车,湖北省,,
湖北省荆州市荆州区太湖港管理区太湖路109-6号,荆州市,荆州区,112.076063,30.358456,太湖新日电动车,湖北省,,
太子镇,黄石市,阳新县,115.1812434196472,30.028263021192487,阳新太子镇铃木车行,湖北省,,
白沙镇,黄石市,阳新县,115.17935246229173,29.951999401358595,阳新潘桥新大洲车行,湖北省,,
湖北省荆州市沙市区观音当镇贾家塌,荆州市,沙市区,112.450109,30.403675,泗场新日电动车,湖北省,,
湖北省襄阳市谷城县盛康镇谷城县盛康镇中心幼儿园,襄阳市,谷城县,111.552724,32.192612,盛康新日专卖店,湖北省,,
双阳街84,襄阳市,谷城县,111.596514,32.362534,冷集新日电动车专卖店,湖北省,,
湖北省襄阳市老河口市张集镇018县道,襄阳市,老河口市,111.872615,32.351605,张集新日专卖店,湖北省,,
316国道东100米,襄阳市,老河口市,111.688991,32.34709,颐高商贸城新日专卖店,湖北省,,
天城镇沿河大道316号,咸宁市,崇阳县,114.049682,29.536881,崇阳店,湖北省,,
湖北省襄阳市枣阳市吴店镇寺沙北路,襄阳市,枣阳市,112.768145,31.99283,吴店新日电动车,湖北省,,
湖北省襄阳市老河口市孟楼镇老杨牙科,襄阳市,老河口市,111.841677,32.526488,孟楼新日专卖店,湖北省,,
湖北省襄阳市老河口市洪山嘴镇洪山路66,襄阳市,老河口市,111.667711,32.449322,洪山嘴新日专卖店,湖北省,,
新店镇,咸宁市,赤壁市,113.68498250842094,29.641122336732714,赤壁市新店镇店,湖北省,,
石南镇,咸宁市,通城县,113.71728435158731,29.27832419137942,通城县石南镇店,湖北省,,
沙堆镇,咸宁市,通城县,113.90274569392206,29.300214358039508,通城县沙堆店,湖北省,,
大坪乡,咸宁市,通城县,113.69991168379785,29.32636879457572,通城县大坪乡,湖北省,,
北港镇,咸宁市,通城县,113.66034775972368,29.296226170655267,通城县北港店,湖北省,,
湖北省武汉市洪山区狮子山街道南湖大道,武汉市,洪山区,114.329664,30.481572,南湖大道、张吴湾、新日、雅迪车行,湖北省,,
湖北省襄阳市老河口市袁冲乡中国人民政治协商会议老河口市委员会袁冲乡联络处,襄阳市,老河口市,111.742279,32.524519,袁冲新日专卖店,湖北省,,
湖北省武汉市江夏区佛祖岭街道高新五路佛祖岭D区西区,武汉市,江夏区,114.440834,30.445346,高新五路新日专卖店,湖北省,,
湖北省武汉市黄陂区武湖街道通江路武湖中心幼儿园,武汉市,黄陂区,114.42227,30.701472,武汉市武湖新日专卖店,湖北省,,
湖北省武汉市黄陂区盘龙城经济开发区巨龙大道名流人和天地,武汉市,黄陂区,114.277397,30.708115,"武汉盘龙城新日、圣宝龙,",湖北省,,
湖北省武汉市汉阳区琴断口街街道汉阳区门球场,武汉市,汉阳区,114.220836,30.554948,墨水湖新日电动车专卖店,湖北省,,
湖北省武汉市洪山区关东街道中建康城(东区)东湖新技术开发区曙光新二村(关山大道),武汉市,洪山区,114.410278,30.469777,武汉市关南小区新日专卖店,湖北省,,
横沟桥镇,咸宁市,咸安区,114.3692408502102,29.932336554312293,咸宁横沟镇店,湖北省,,
江北管理区,黄石市,黄石港区,115.07675260305406,30.226109048036616,黄石新日电动车专卖店,湖北省,,
湖北省十堰市丹江口市大坝路街道和谐院(和平路),十堰市,丹江口市,111.506736,32.541763,丹江口新日电动车,湖北省,,
园林大道3号陆城,宜昌市,宜都市,111.450948,30.382034,宜都新日,湖北省,,
恩咸大道与008乡道交叉口西北50米,恩施土家族苗族自治州,恩施市,109.436207,30.172804,鸿发车行,湖北省,,
芭蕉侗族乡,恩施土家族苗族自治州,恩施市,109.40493866801262,30.122846286355177,芭蕉新日,湖北省,,
清泉镇,黄冈市,浠水县,115.27488470077516,30.44543179750775,浠水城南新日电动车专卖店专卖店,湖北省,,
中心街129号附近,黄冈市,浠水县,115.180428,30.62009,浠水汪岗镇新日电动车专卖店,湖北省,,
东正街与仁和街交叉口西北100米,黄冈市,麻城市,114.893539,31.117372,麻城市中驿镇新日电动车专卖店,湖北省,,
湖北省襄阳市老河口市李楼镇湖北老河口农村商业银行(李楼支行),襄阳市,老河口市,111.703413,32.360878,李楼新日电动车,湖北省,,
湖北省十堰市竹山县秦古镇029县道秦古中学,十堰市,竹山县,109.832972,32.421787,竹山秦古新日电动车,湖北省,,
湖北省十堰市竹山县文峰乡竹山县文峰乡中心学校,十堰市,竹山县,110.29027,32.196908,竹山文锋新日电动车,湖北省,,
湖北省十堰市竹山县竹坪乡竹山县竹坪乡人民政府,十堰市,竹山县,109.721404,32.459808,竹山竹坪新日电动车,湖北省,,
湖北省十堰市竹山县得胜镇中国邮政储蓄银行(得胜镇支行),十堰市,竹山县,109.854947,32.449871,竹山县得胜新日电动车,湖北省,,
湖北省十堰市竹山县官渡镇鸽子岩,十堰市,竹山县,110.083554,31.991389,竹山官渡新日电动车,湖北省,,
刘河大道与政府路交叉口西南100米,黄冈市,蕲春县,115.590553,30.299559,武穴蕲春刘河镇新日电动车专卖店,湖北省,,
何店镇,随州市,曾都区,113.33339989185336,31.592999724440954,何店新日电动车,湖北省,,
安居镇,随州市,随县,113.2036118209362,31.750516075291582,安居镇新日电动车,湖北省,,
洪山镇,随州市,随县,112.91283890604974,31.66401935763147,洪山新日电动车,湖北省,,
三里岗镇,随州市,随县,113.08156460523605,31.491696798291837,三里岗新日电动车,湖北省,,
新街镇,随州市,随县,113.2199800014496,31.81272818538979,新街金彭新日电动车专卖,湖北省,,
厉山镇,随州市,随县,113.31469416618347,31.8538952617897,随县新日金彭专卖,湖北省,,
环潭镇,随州市,随县,113.07627260684968,31.806361948701834,环潭刘五电器,湖北省,,
殷店镇,随州市,随县,113.5099133849144,32.06747762442971,殷店镇豪爵新日专卖,湖北省,,
均川镇,随州市,随县,113.2199424505234,31.659553823842533,均川新日电动车,湖北省,,
高城镇,随州市,随县,113.44997674226761,31.959711987741763,高城新日电动车,湖北省,,
万店镇,随州市,曾都区,113.50149393081665,31.829230946755114,万店雅马哈摩托车专卖,湖北省,,
湖北省武汉市洪山区关东街道中南财经政法大学光谷·时尚城,武汉市,洪山区,114.385882,30.476703,洪山区中南财经政法大学店,湖北省,,
湖北省武汉市江夏区江夏区经济开发区大桥新区街道红旗村还建小区翰林府,武汉市,江夏区,114.310954,30.402407,大花岭小郭车行,湖北省,,
湖北省武汉市武昌区水果湖街街道北环路小区,武汉市,武昌区,114.343047,30.548961,水果湖第二小学新日店,湖北省,,
沙河乡,孝感市,云梦县,113.85444179177284,30.92676083334012,辛安寺新日电动车专卖店,湖北省,,
孝南区新铺镇,孝感市,孝南区,113.9887225627899,30.979847768136803,新浦新日电动车专卖,湖北省,,
孝南区朋兴乡,孝感市,孝南区,113.91467347741127,30.989952770774625,涂河新日电动车专卖,湖北省,,
G316(福兰线),孝感市,孝南区,113.880308,30.929744,河口大桥雅迪新日电动车专卖,湖北省,,
孝南区肖港镇,孝感市,孝南区,113.94463241100311,31.07513182806676,肖港新日电动车专卖,湖北省,,
孝南区陡岗镇,孝感市,孝南区,113.85445654392244,31.036076800588763,陡岗新日电动车专卖,湖北省,,
孝南区三汊镇,孝感市,孝南区,114.0608994662762,30.943388895117685,三汊新日电动车专卖,湖北省,,
湖北省十堰市竹山县大庙乡中共竹山县大庙乡委员会,十堰市,竹山县,109.73702,32.534193,竹山大庙新日电动车,湖北省,,
湖北省十堰市竹山县宝丰镇施洋路,十堰市,竹山县,110.01637,32.300668,竹山宝丰新日电动车,湖北省,,
花园镇,孝感市,孝昌县,113.98881912231447,31.25619083528349,孝昌县新日电动车专卖,湖北省,,
湖北省武汉市东西湖区新沟镇街道油纱路,武汉市,东西湖区,113.986079,30.682884,东西湖区沙厂新日电动车专卖店,湖北省,,
都亭街道,恩施土家族苗族自治州,利川市,108.91599610447884,30.288766063770062,利川新日,湖北省,,
学院街道,宜昌市,西陵区,111.28249034285547,30.70961602853004,新的电动车,湖北省,,
岳湾路与松林路交叉口西南150米,宜昌市,伍家岗区,111.338185,30.68329,上上城新日,湖北省,,
224省道与456省道交叉口西南50米,宜昌市,远安县,111.562907,31.175486,棚镇新日,湖北省,,
洋坪镇,宜昌市,远安县,111.56458497047427,31.22056044353114,洋坪新日,湖北省,,
走马镇,恩施土家族苗族自治州,鹤峰县,110.42304754257205,29.817333480723974,走马新日,湖北省,,
鸦鹊岭镇,宜昌市,夷陵区,111.58748030662538,30.63757509098705,鸦鹊岭新日,湖北省,,
湖北省武汉市青山区钢花村街道友谊大道,武汉市,洪山区,114.381295,30.617129,青山建二新日专卖店,湖北省,,
土城乡,宜昌市,点军区,111.11032068729403,30.654438980051495,土城新日,湖北省,,
道桥镇,孝感市,汉川市,113.7644335627556,30.817505197451784,道桥镇新日专卖,湖北省,,
