address,city,districd,lat,lon,name,province,street,town
湖南省耒阳市神农路新日专卖店,衡阳市,耒阳市,112.848874,26.426027,耒阳市新日电动车行,湖南省,,
湖南省永州市冷水滩区凤凰园凤凰路新日电动车,永州市,冷水滩区,111.598628,26.45751,永州市冷水滩红文车行,湖南省,,
湖南省祁阳县浯溪镇浯溪中路299号,永州市,祁阳县,111.853703,26.58631,祁阳县新日电动车行,湖南省,,
湖南省娄底市双峰县小商品服装城天和电动车超市,娄底市,双峰县,112.189025,27.451566,双峰县新日电动车店,湖南省,,
湖南涟源市人民东路幸福路口,娄底市,涟源市,111.679466,27.69474,涟源市新日摩托车电动车店,湖南省,,
湖南省武冈市陶侃路看守所右侧,邵阳市,武冈市,110.631552,26.735728,武冈市晓群电动车店,湖南省,,
湖南省邵阳隆回县桃洪镇桃洪西路,邵阳市,隆回县,111.01883,27.112891,陈苏华,湖南省,,
郴州市桂阳县机电大市场,郴州市,桂阳县,112.734176,25.754167,罗兵,湖南省,,
湖南省邵阳市新宁县大兴路移动公司旁,邵阳市,新宁县,110.870209,26.443596,新宁县新日电动车专卖店,湖南省,,
湖南省郴州市临武县东云路,郴州市,临武县,112.568782,25.280704,临武县新日电动车专卖店,湖南省,,
湖南省宁远县水市路向群车业,永州市,宁远县,111.943668,25.579505,宁远县向群日威车业,湖南省,,
道县道江镇潇水中路渡口巷15号,永州市,道县,111.592872,25.513029,道县腾龙实力有限责任公司,湖南省,,
湖南省常宁市泉峰西路65号,衡阳市,常宁市,112.398899,26.40165,朱旺贤,湖南省,,
湖南津市临津桥摩托大市场新日专卖店,常德市,津市市,111.877499,29.60548,津市市兴达车行,湖南省,,
澧县澧阳路摩托车市场,常德市,澧县,111.756139,29.648026,澧县华盛贸易有限公司,湖南省,,
湖南桃江县芙蓉路,益阳市,桃江县,112.143709,28.515872,桃江县超荣电动车店,湖南省,,
湖南怀化市正清路220-222号,怀化市,鹤城区,109.983932,27.542701,鹤城区昌远电动车行,湖南省,,
临澧县安福镇安福路汽配城摩托车市场,常德市,临澧县,111.646256,29.446755,临澧县育才摩托车有限公司,湖南省,,
凤凰土桥路工程公司对面,湘西土家族苗族自治州,凤凰县,109.592328,27.941879,凤凰县龙宇摩托车行,湖南省,,
花垣县步行街126号,湘西土家族苗族自治州,花垣县,109.4665,28.583125,吴大兵,湖南省,,
湖南省邵阳市洞口县慧创汽贸城105-107号,邵阳市,洞口县,110.592547,27.042761,洞口县顺通车业,湖南省,,
湖南省郴州市北湖区燕泉北路二建综合楼1栋108-111号新日电动车,郴州市,北湖区,113.026682,25.788171,郴州市北湖区千里达电动自行车行,湖南省,,
湖南省衡阳市祁东县祁丰路43号,衡阳市,祁东县,112.103482,26.786196,祁东县腾龙电动,湖南省,,
衡东县文冲东路金领100广场,衡阳市,衡东县,112.951123,27.093383,衡东县新日电动车经营部,湖南省,,
湖南省衡阳市衡阳县蒸阳路交通局107号,衡阳市,衡阳县,112.368459,26.966418,衡阳县新日专卖店,湖南省,,
湖南省娄底市娄星区娄星南路新日电动车专卖店,娄底市,娄星区,111.999926,27.733385,娄底市娄星区小吴电动车行,湖南省,,
湖南省邵阳市大祥区西湖路新日电动车专卖店,邵阳市,大祥区,111.447697,27.201177,邵阳市风顺电动自行车经营部,湖南省,,
湖南省邵阳市双清区建设路综合楼4号门面,邵阳市,大祥区,111.485565,27.233232,邵阳市新日电动车专卖店,湖南省,,
湖南省南县南洲镇兴盛大道,益阳市,南县,112.387875,29.36075,南县南洲薄利电动车行,湖南省,,
湖南省张家界崇文路295号,张家界市,永定区,110.498443,29.115259,张家界市永定区群通电动车城,湖南省,,
湖南省怀化溆浦县卢峰镇民主街,怀化市,溆浦县,110.590509,27.910607,溆浦新日车行,湖南省,,
湖南省怀化市麻阳县建设南路,怀化市,麻阳苗族自治县,109.798572,27.86392,麻阳新日电动车行,湖南省,,
湖南省安乡县新日电动车专卖店,常德市,安乡县,112.171131,29.411309,安乡县新日电动车车行,湖南省,,
石门县澧阳中路新日专卖,常德市,石门县,111.386418,29.591624,向延军,湖南省,,
湖南省常德市桥南大湖路汽车总站出口正对面新日电动车专卖店,常德市,鼎城区,111.686,29.0003,严大双,湖南省,,
湖南省益阳市安化县沿江路建筑公司1楼门面,益阳市,安化县,111.23368,28.381327,安化县应辉摩配部,湖南省,,
湖南省长沙市芙蓉中路A段308号长沙电动车大市场,长沙市,开福区,112.986412,28.213583,长沙市开福区飞马电动自行车超市,湖南省,,
湖南省岳阳市华容县港东路,岳阳市,华容县,112.55945,29.520393,华容县新日电动车专卖店,湖南省,,
湖南省岳阳市花板桥摩托车市场振兴摩托车销售有限公司,岳阳市,岳阳楼区,113.13929,29.361061,岳阳市岳阳楼区佛斯弟车行,湖南省,,
湖南岳阳市云溪区岳化总厂金盆路103号,岳阳市,云溪区,113.300038,29.4656,李朝辉,湖南省,,
湖南省临湘县长安中路,长沙市,天心区,112.98381,28.112444,临湘市国兴电动车店,湖南省,,
湖南省湘阴县兴湘大市场23栋铃木摩托车,岳阳市,湘阴县,112.914541,28.680104,蒋艳辉,湖南省,,
湖南省长沙市宁乡县楚沩中路208号新日电动车专卖店,长沙市,宁乡市,112.546429,28.251414,宁乡县玉潭镇特哥电动车行,湖南省,,
天元区天台路266号,株洲市,天元区,113.128444,27.824521,中国邮政集团公司株洲市分公司(直营),湖南省,,
长沙市望城区高塘岭街道高塘岭大道6号,长沙市,望城区,112.823535,28.342717,长沙超霆交通设备有限公司,湖南省,,
湘潭县易俗河镇玉兰中路297号,湘潭市,湘潭县,112.946186,27.775341,湘潭县易俗河镇新兴电动车行,湖南省,,
湖南省株洲市建设中路175号文化园对面,株洲市,天元区,113.13603,27.850688,株洲市芦淞区发发富通车行,湖南省,,
102团6小区八一路4-1-005,郴州市,北湖区,113.034981,25.791382,五家渠梧桐晨宇电动车行(直营),湖南省,,
湖南省炎陵县,株洲市,炎陵县,113.772655,26.489902,湖南炎陵新日电动车专卖店(直营),湖南省,,
平江摩托车大市场,岳阳市,平江县,113.581234,28.701868,平江新日电动车专卖店(直营),湖南省,,
湖南省湘潭市韶山西路,湘潭市,雨湖区,112.891461,27.859718,湖南湘潭新日电动车专卖店(直营),湖南省,,
湖南湘潭市韶山西路南盘岭新日专卖店,湘潭市,雨湖区,112.89014,27.866645,湖南湘潭新日专卖店(直营),湖南省,,
湖南省株洲市芦淞芦曼哈顿花园边157号,株洲市,芦淞区,113.165703,27.817944,株洲市新日电动车专卖店(直营),湖南省,,
岳阳县天鹅北路卫农粮库对面,岳阳市,岳阳县,113.112643,29.153924,岳阳县新日电动车专卖店(直营),湖南省,,
湖南长沙马王堆路市场B2栋5-8号,长沙市,雨花区,113.025221,28.161794,长沙马王堆新日专卖(直营),湖南省,,
湖南长沙雨花区高桥大市场,长沙市,雨花区,113.024546,28.172402,长沙雨花区高桥大市场新日专卖(直营),湖南省,,
湖南省长沙市浏阳市北盛镇,长沙市,浏阳市,113.411581,28.258475,浏阳北盛新日专卖店(直营),湖南省,,
长沙市家润多四家连锁超市,长沙市,望城区,112.845717,28.200855,湖南长沙家润多卖场新日专卖(直营),湖南省,,
湖南岳阳市临湘市长五东路,岳阳市,临湘市,113.47081,29.472404,临湘新日电动车专卖店(直营),湖南省,,
湖南省长沙市望城县高塘岭大道6号,长沙市,望城区,112.823535,28.342717,湖南省望城县新日专卖店(直营),湖南省,,
湖南省长沙市浏阳市天马路4号,长沙市,浏阳市,113.638515,28.136129,湖南省浏阳新日专卖店(直营),湖南省,,
湖南长沙市岳麓区玉兰路326号,长沙市,岳麓区,112.910901,28.211922,长沙西站新日专卖(直营),湖南省,,
湖南长沙雨花区洞井铺20区26号,长沙市,雨花区,113.01125,28.10007,长沙南站新日专卖(直营),湖南省,,
湖南湘潭市岳塘区下摄司史州路20-23号,湘潭市,湘潭县,112.931299,27.79555,湖南湘潭新日专卖(直营),湖南省,,
长沙市雨花区高桥大市场火焰服饰城10区3幢201室,长沙市,雨花区,113.024867,28.177911,长沙办事处(直营),湖南省,,
湖南省岳阳市平江县长寿镇黄金路维夏中学斜对过,岳阳市,平江县,113.939828,28.70932,岳阳市平江县长寿镇湘湘建材(直营),湖南省,,
湖南长沙宁乡县玉潭镇楚伪中路,长沙市,宁乡市,112.526912,28.256469,宁乡县玉潭镇特哥电动车行(直营),湖南省,,
湖南省株洲市文化园路,株洲市,天元区,113.134002,27.82755,株洲市新日电动车专卖店（阳亚丽）(直营),湖南省,,
湖南省株洲市攸县城关镇交通南路湖南长沙高桥（发货地址）,株洲市,攸县,113.342116,26.996212,湖南省株洲市攸县（邓广平）(直营),湖南省,,
湖南省吉首市人民北路76路,湘西土家族苗族自治州,吉首市,109.73924,28.311203,湖南省吉首市新日电动车专卖店（黄生许）(直营),湖南省,,
张家界紫舞路702-706号（锦江之星对面）,张家界市,永定区,110.472075,29.134058,湖南张家界新日专卖(直营),湖南省,,
湖南省汉寿县西正街新日专卖店,常德市,汉寿县,111.963771,28.908769,湖南汉寿新日专卖店(直营),湖南省,,
湖南省桃江县桃花江镇芙蓉路170号,益阳市,桃江县,112.140696,28.516739,湖南省桃江县（吴胜强）(直营),湖南省,,
湖南益阳市南县南洲镇兴盛大道88号,益阳市,南县,112.387875,29.36075,南县建军摩托车销售有限公司(直营),湖南省,,
湖南益阳桃花仑西路,益阳市,赫山区,112.339899,28.58239,湖南益阳新日专卖店(直营),湖南省,,
湖南省澧县澧阳北路鑫达电动车市场对面,常德市,澧县,111.756172,29.644374,湖南常德澧县新日专卖(直营),湖南省,,
湖南省怀化市芷江县凯旋路自来水公司门面,怀化市,芷江侗族自治县,109.690078,27.435728,芷江德隆摩托车电动车超市(直营),湖南省,,
湖南省怀化市舞水路102号,怀化市,鹤城区,109.961364,27.552394,湖南省怀化市新日电动车专卖店(直营),湖南省,,
湖南汉寿县西正街新日电动车专卖店,常德市,汉寿县,111.963771,28.908769,常德市汉寿县杨丹(直营),湖南省,,
湖南省张家界慈利县慈姑路美景门面,张家界市,慈利县,111.132049,29.426214,湖南省慈利县铁三电动摩托车行(直营),湖南省,,
湖南省娄底市青山街508号,娄底市,娄星区,111.99042,27.754502,湖南省娄底市谢田良(直营),湖南省,,
湖南省资兴市兴华路,郴州市,资兴市,113.233509,25.974987,湖南省资兴市谭忠华,湖南省,,
郴州市北湖区燕泉路粮机公司6号,郴州市,北湖区,113.027125,25.78975,郴州市北湖区旺通电动车行(直营),湖南省,,
湖南省衡阳常宁市泉峰西路116号,衡阳市,常宁市,112.397,26.402,常宁市新日电动车专卖店(直营),湖南省,,
龙山县民族路18号,湘西土家族苗族自治州,龙山县,109.441079,29.447712,龙山县诚义摩托车行,湖南省,,
湖南汉寿烟草局斜对面,常德市,汉寿县,111.970514,28.906107,湖南汉寿新日专卖店,湖南省,,
沅江新日电动车专卖店,益阳市,沅江市,112.386785,28.848497,沅江市龙信车行(直营),湖南省,,
湖南省益阳市大通湖河坝镇机关,益阳市,南县,112.644718,29.185056,大通湖宏伟摩托城(直营),湖南省,,
湖南龙山世纪公园新日专卖店,湘西土家族苗族自治州,龙山县,109.443939,29.457663,湖南龙山新日专卖店(直营),湖南省,,
湖南益阳市赫山区桃花仑东路朝阳大市场,益阳市,赫山区,112.376327,28.576274,湖南益阳新日专卖店(直营),湖南省,,
桃源县漳江南路劳动局100米,常德市,桃源县,111.48153,28.890375,桃源新日电动车专卖店(直营),湖南省,,
湖南省沅江市江南摩托车电动车大市场,益阳市,沅江市,112.356305,28.840613,益阳市沅江市杨伟峰(直营),湖南省,,
湖南石门新安镇石常公路与红蔡公路交叉口冉家坪三组,常德市,石门县,111.483739,29.646008,湖南常德石门新安镇刑成华(直营),湖南省,,
湖南省怀化市芷江县交警队斜对面金米摩托车行,怀化市,芷江侗族自治县,109.69654,27.427906,怀化芷江黄昌木(直营),湖南省,,
湖南衡山县白果镇楚南街2号,衡阳市,衡山县,112.641404,27.407965,衡山县白果镇前程摩托车行(直营),湖南省,,
湖南省汝城县新建东路农业局旁,郴州市,汝城县,113.693325,25.552725,湖南省汝城县范家武,湖南省,,
娄星南路四一八金香市场内新日电动车,娄底市,娄星区,112.000792,27.724035,娄底市新日专卖店(直营),湖南省,,
湖南省衡阳市南岳区芙蓉路8号,衡阳市,蒸湘区,112.574084,26.889711,南岳县阳清香(直营),湖南省,,
湖南省郴州市燕泉北路30-1号,郴州市,北湖区,113.024662,25.787616,湖南省郴州市首帅(直营),湖南省,,
湖南省临武县武水镇陶家村,郴州市,临武县,112.576188,25.282508,临武新日电动车良记车行(直营),湖南省,,
郴州市北湖区燕泉北路65号,郴州市,北湖区,113.0212,25.785713,湖南省郴州市石富林(直营),湖南省,,
湖南省祁东县祁丰大道43号,衡阳市,祁东县,112.104097,26.786284,湖南省祁东县曾康成(直营),湖南省,,
湖南省永兴县便江镇大桥路629号,郴州市,永兴县,113.113082,26.133382,永兴县创佳摩托车行,湖南省,,
湖南邵阳市建设路新日电动车专卖店,邵阳市,隆回县,111.018108,27.11294,湖南邵阳市陈浩波(直营),湖南省,,
湖南省邵阳市西湖桥头铁骑摩托车经营部,邵阳市,大祥区,111.45645,27.23664,湖南省邵阳市摩托车行(直营),湖南省,,
湖南省桂阳县龙潭街道欧阳海大道9号,郴州市,桂阳县,112.741534,25.736732,湖南省桂阳罗记车行(直营),湖南省,,
湖南省洞口县雪峰西路新日电动车专卖店,邵阳市,洞口县,110.569514,27.06553,湖南省洞口县林劲柏,湖南省,,
娄底市娄星区娄星南路420号,娄底市,娄星区,112.000778,27.731934,娄底市新日电动车专卖店(直营),湖南省,,
湖南省邵阳市新邵县酿溪镇新阳路142-144号,邵阳市,新邵县,111.469466,27.314369,湖南省新邵县孙伟林(直营),湖南省,,
湖南省衡阳市东风路128号,衡阳市,珠晖区,112.632744,26.883378,湖南省衡阳市席传华,湖南省,,
成车地址：湖南省衡阳市石鼓区船山路25号,衡阳市,石鼓区,112.598089,26.943215,衡阳市珠晖亚洲摩托车超市(直营),湖南省,,
邵阳市大祥区西湖路公汽公司门面,邵阳市,大祥区,111.455217,27.232322,湖南省邵阳市新日专卖店（大祥区路路通）(直营),湖南省,,
衡阳市衡东县北正街加油站对面,衡阳市,耒阳市,112.86132,26.412031,湖南省衡东县新日专卖店(直营),湖南省,,
湖南省衡阳市南岳区万福路278号,衡阳市,南岳区,112.73976,27.234099,湖南衡阳市南岳区新日专卖店(直营),湖南省,,
湖南省城步苗族自治县城人民北路,邵阳市,城步苗族自治县,110.32123,26.382043,湖南省城步新日电动车专卖店(直营),湖南省,,
湖南省洞口县过境路,邵阳市,洞口县,110.575846,27.060321,洞口县新日电动车专卖店(直营),湖南省,,
湖南省邵阳市宝庆中路汽车美容城,邵阳市,大祥区,111.45981,27.232704,邵阳市新日电动车专卖店(直营),湖南省,,
湖南省邵阳市新宁县国税大楼1楼门面,邵阳市,新宁县,110.856623,26.433418,湖南省新宁县新日电动车专卖店(直营),湖南省,,
湖南省邵阳市洞口县石江镇大正街,邵阳市,洞口县,110.803605,27.089745,洞口县石江镇新日专卖店(直营),湖南省,,
湖南省邵阳市邵阳县汽车站对面,邵阳市,邵阳县,111.312441,27.005282,邵阳县新日电动车专卖店(直营),湖南省,,
湖南省娄底市新化县新洋路,娄底市,新化县,111.302244,27.731995,湖南省娄底市新化县新日专卖店(直营),湖南省,,
湖南省宁远县新日专卖店,永州市,宁远县,111.945805,25.570976,湖南省宁远县（张成仁）(直营),湖南省,,
湖南省郴州市安仁县七一路大市场对面,郴州市,安仁县,113.266608,26.710591,湖南省郴州市安仁县（沈定海）(直营),湖南省,,
湖南省临武县解放南路农机二厂对面,郴州市,临武县,112.555323,25.273525,湖南省临武县新日电动车专卖店(直营),湖南省,,
湖南郴州市宜章县一六镇107国道,郴州市,宜章县,112.944741,25.202983,湖南郴州市宜章县一六镇新日专卖(直营),湖南省,,
湖南省郴州市永兴县鸿发街1号,郴州市,永兴县,113.113067,26.133518,湖南省永兴县新日电动车专卖店(直营),湖南省,,
湖南省郴州市健康路4号,郴州市,北湖区,113.033249,25.800378,湖南省郴州市利达电动车行(直营),湖南省,,
湖南省衡阳县西渡镇蒸阳西路58号,衡阳市,衡阳县,112.368028,26.967389,衡阳县西渡镇新日电动车销售店(直营),湖南省,,
抚宁县石门寨镇农行北行80米,常德市,石门县,111.392795,29.584102,抚宁县石门寨绿源电动车专卖店(直营),湖南省,,
星沙街道,长沙市,长沙县,113.07965889573097,28.241781819182766,长沙--星沙新日,湖南省,,
东屯渡街道,长沙市,芙蓉区,113.03592950105667,28.192020225027107,长沙--马王堆新日,湖南省,,
高桥街道,长沙市,雨花区,113.02309915423392,28.176271168773198,长沙--高桥新日,湖南省,,
坡子街街道,长沙市,天心区,112.97238662838937,28.18073381420023,长沙--书院路新日,湖南省,,
桃花江镇,益阳市,桃江县,112.13500633835795,28.51560249216684,桃江县超荣电动车店,湖南省,,
望城坡街道,长沙市,岳麓区,112.91044235229494,28.21401749894264,长沙--西站新日,湖南省,,
武陵镇,常德市,鼎城区,111.68839171528816,29.01518903544359,严大双,湖南省,,
深柳镇,常德市,安乡县,112.16784194111824,29.419447546797098,安乡县新日电动车车行,湖南省,,
南洲镇,益阳市,南县,112.41091445088387,29.36141055607642,南县南洲薄利电动车行,湖南省,,
湖南省衡阳市常宁市泉峰办事处泉峰东路,衡阳市,常宁市,112.393017,26.407311,常宁新日车行,湖南省,,
楚江镇,常德市,石门县,111.38516262173653,29.59099222837367,向延军,湖南省,,
三洲驿街道,常德市,澧县,111.86840817332268,29.63401654069346,津市市兴达车行,湖南省,,
石门桥镇,常德市,鼎城区,111.74057543277742,28.902594470838245,石门桥新日电动车,湖南省,,
谢家铺镇,常德市,鼎城区,111.80661141872409,28.849230299405505,谢家铺新日专卖店,湖南省,,
太子庙镇,常德市,汉寿县,111.95035234093669,28.772320189518446,太子庙新日专门店,湖南省,,
黄珠洲乡,常德市,鼎城区,112.09788858890535,29.11506421636434,黄株洲新日电动车,湖南省,,
枫树维吾尔族回族乡,常德市,桃源县,111.49409785866737,29.016673769353165,枫树新日电动车专门店,湖南省,,
桃花江镇,益阳市,桃江县,112.1352517604828,28.515547106821785,桃江县超荣电动车店,湖南省,,
官黎坪街道,张家界市,永定区,110.49876764416695,29.1152762844958,张家界市永定区群通电动车城,湖南省,,
花垣镇,湘西土家族苗族自治州,花垣县,109.46889325976373,28.57970034941795,花垣新日电动车专卖店,湖南省,,
沱江镇,湘西土家族苗族自治州,凤凰县,109.59226414561273,27.940778776913955,凤凰县龙宇摩托车行,湖南省,,
高村镇,怀化市,麻阳苗族自治县,109.79900345206262,27.862850556833543,麻阳新日电动车行,湖南省,,
盈口乡,怀化市,鹤城区,109.98410403728487,27.54285381528658,鹤城区昌远电动车行,湖南省,,
卢峰镇,怀化市,溆浦县,110.57882755994797,27.923627795773772,溆浦新日车行,湖南省,,
东坪镇,益阳市,安化县,111.23107776045799,28.379700869311343,安化县应辉摩配部,湖南省,,
建设中路609号,株洲市,天元区,113.137775,27.84998,株洲市芦凇区发发富通车行,湖南省,,
洞口镇,邵阳市,洞口县,110.58998554944992,27.0421856928067,洞口县顺通车行,湖南省,,
水西门街道,邵阳市,武冈市,110.63214853405952,26.734879161868513,武冈市晓群电动车店,湖南省,,
长青街道,娄底市,娄星区,112.00079262256624,27.724036200498603,娄底娄星区新日电动车专卖店,湖南省,,
蓝田街道,娄底市,涟源市,111.6786190867424,27.693050909074888,涟源市新日摩托车电动车店,湖南省,,
永丰镇,娄底市,双峰县,112.18847617506984,27.452118172968145,双峰县新日电动车店,湖南省,,
西渡镇,衡阳市,衡阳县,112.36867904663086,26.96655895110889,衡阳县新日专卖店,湖南省,,
城南街道,邵阳市,大祥区,111.45412757992744,27.218661784223958,祁东县腾龙电动,湖南省,,
五里牌街道,衡阳市,耒阳市,112.84946098923685,26.42358757165007,耒阳市新日电动车行,湖南省,,
北湖街道,郴州市,北湖区,113.0294506251812,25.800811234592548,郴州市北湖区千里达电动自行车行,湖南省,,
东云路708号(近城东学校),郴州市,临武县,112.572371,25.281365,临武县新日电动车专卖店,湖南省,,
红旗路街道,邵阳市,大祥区,111.45575702190399,27.23264891807357,邵阳市风顺电动车自行车经营部,湖南省,,
桃洪西路180号,邵阳市,隆回县,111.017426,27.113,隆回县新日电动车专卖店,湖南省,,
鹿峰街道,郴州市,桂阳县,112.74701938033104,25.73622964776075,桂阳县新日电动车专卖店,湖南省,,
九嶷中路铂富广场,永州市,宁远县,111.944679,25.583474,宁远县向群日威车业,湖南省,,
浯溪街道,永州市,祁阳县,111.85397252440454,26.589100399081985,祁阳县新日电动车车行,湖南省,,
梧桐街道,永州市,冷水滩区,111.59860879182817,26.45745072531804,永州市冷水滩红文车行,湖南省,,
湘潭县,湘潭市,湘潭县,112.943876,27.777827,湘潭县易俗河镇新兴电动车行,湖南省,,
江东路南50米,岳阳市,湘阴县,112.916069,28.682437,蒋艳辉,湖南省,,
开福区,长沙市,开福区,112.986805,28.213371,长沙市望城区意美电动车行,湖南省,,
华容县,岳阳市,华容县,112.565727,29.514907,华容县新日电动车专卖店,湖南省,,
云溪区,岳阳市,云溪区,113.300131,29.465894,李朝辉,湖南省,,
宁乡县,长沙市,宁乡市,112.549253,28.250175,宁乡县玉潭镇特哥电动车行,湖南省,,
临湘市,岳阳市,临湘市,113.491764,29.474831,临湘市国兴电动车店,湖南省,,
楼街道花板桥摩托车市场,岳阳市,岳阳楼区,113.140302,29.360535,岳阳市岳阳楼区佛斯弟车行,湖南省,,
建设中路558号(近纺织路),株洲市,天元区,113.136647,27.850166,中国邮政集团公司株洲市分公司,湖南省,,
042乡道南100米,岳阳市,华容县,112.514069,29.570276,华容县万庾镇新日电动车专卖店,湖南省,,
大浦工业园,衡阳市,衡东县,112.79668852686882,26.994802454080993,衡东县大浦镇新日电动车专卖店,湖南省,,
高塘岭街道高塘岭大道2号,长沙市,望城区,112.823541,28.342604,长沙市望城店,湖南省,,
枫林一路583号,长沙市,岳麓区,112.93611,28.202232,长沙新日枫林路店,湖南省,,
含浦镇,长沙市,岳麓区,112.856348,28.100402,长沙新日含浦店,湖南省,,
长沙县,长沙市,长沙县,113.08081,28.24615,长沙新日星沙店,湖南省,,
开福区,长沙市,开福区,112.986805,28.213371,长沙新日北站门店,湖南省,,
茅草街镇,益阳市,南县,112.31667906045914,29.067391696722996,茅草街新日电动车专卖店,湖南省,,
湖南省株洲市茶陵县摩托车大市场,株洲市,茶陵县,113.542052,26.788121,茶陵县万富摩托车行,湖南省,,
德山街道,常德市,武陵区,111.707181930542,28.953628869673622,德山新日电动车,湖南省,,
斗姆湖镇,常德市,鼎城区,111.63549721240997,28.951435608111233,斗母湖新日电动车,湖南省,,
合泰路698号,株洲市,芦淞区,113.160263,27.832331,株洲市荷塘区和泰街店,湖南省,,
立三路(醴陵市东方男科东南),株洲市,醴陵市,113.515492,27.648119,株洲醴陵新日电动车专卖店,湖南省,,
东山镇华容,岳阳市,华容县,112.780183,29.615689,华容县东山镇新日电动车专卖店,湖南省,,
梅田湖镇,岳阳市,华容县,112.35842,29.530126,华容县梅田湖镇新日电动车专卖店,湖南省,,
082县道与306省道交叉口西100米,岳阳市,华容县,112.441792,29.398312,华容县张家湾新日专卖店,湖南省,,
华容县,岳阳市,华容县,112.450621,29.469179,华容县留仙镇新日专卖店,湖南省,,
202省道与306省道交叉口南50米,岳阳市,华容县,112.706355,29.537849,华容县松木桥镇新日专卖店,湖南省,,
青树嘴镇,益阳市,南县,112.4011,29.217979,青树嘴新日电动车专卖店,湖南省,,
巴陵中路海川大厦,岳阳市,岳阳楼区,113.128244,29.372018,岳阳市新日电动车巴陵中路店,湖南省,,
19路;32路;47路;48路;49路;57路,岳阳市,岳阳楼区,113.176201,29.35112,岳阳市新日电动车中南市场店,湖南省,,
暮云镇,长沙市,天心区,112.980875,28.017839,长沙市暮云镇新日专卖店,湖南省,,
三仙湖镇,益阳市,南县,112.34931617975236,29.156995988822676,三仙湖新日电动车专卖店,湖南省,,
梅田湖镇,岳阳市,华容县,112.36117959022522,29.525934154713273,梅田湖新日电动车专卖店,湖南省,,
浪拔湖镇,益阳市,南县,112.3819747567177,29.392150869028676,浪拔湖新日电动车专卖店,湖南省,,
林城镇,怀化市,会同县,109.7356604039669,26.887235644721375,会同县新日电动车专卖店,湖南省,,
桃洪镇,邵阳市,隆回县,111.03243738412856,27.113981069004613,六都寨新日电动车专卖店,湖南省,,
廖家桥镇,湘西土家族苗族自治州,凤凰县,109.52050030231477,27.931397320118688,廖家桥新日电动车专卖店,湖南省,,
麻河口镇,益阳市,南县,112.27226302027705,29.29349516657004,麻河口新日电动车专卖店,湖南省,,
零阳镇,张家界市,慈利县,111.1397109925747,29.429971002377084,慈利新日电动车专卖店,湖南省,,
中鱼口乡,益阳市,南县,112.38800838589668,29.28942367113988,中鱼口新日电动车专卖店,湖南省,,
湖南省娄底市新化县上梅西路,娄底市,新化县,111.29514,27.733561,新化县吉祥狮电动车经营部,湖南省,,
湖南省永州市江华瑶族自治县沱江镇苍松西路2号,永州市,江华瑶族自治县,111.57852,25.17769,江华瑶族自治县陈记摩托车行,湖南省,,
19路;32路;47路;48路;49路;57路,岳阳市,岳阳楼区,113.176201,29.35112,新日电动车岳阳市中南市场店,湖南省,,
8路;135路;138路;147路;406路;805路,长沙市,雨花区,113.023827,28.149414,长沙新日树木岭分销店,湖南省,,
枫林三路1242号,长沙市,望城区,112.85219,28.200502,长沙新日雷锋镇分销店,湖南省,,
茶恩寺镇湖南,湘潭市,湘潭县,112.871939,27.383102,湘潭县茶恩寺分销店,湖南省,,
老屋路西50米,湘潭市,雨湖区,112.929443,27.875092,湘潭县中路铺分销店,湖南省,,
霞阳镇文化路财富大厦,株洲市,炎陵县,113.775245,26.487862,炎陵铃木摩托,湖南省,,
零阳镇,张家界市,慈利县,111.1196681857109,29.418445256076673,慈利新日,湖南省,,
湖南省怀化市靖州苗族侗族自治县飞山中路236号,怀化市,靖州苗族侗族自治县,109.681891,26.575636,靖州县立马车行,湖南省,,
湖南省怀化市辰溪县辰阳镇先锋路好运来119-200号,怀化市,辰溪县,110.196745,28.008738,辰溪县伴力行电动车专卖店,湖南省,,
湖南省益阳市沅江市巴山东路光明小区对面,益阳市,沅江市,112.372081,28.833957,沅江市速派奇电动车专店,湖南省,,
湖南省邵阳市双清区建设中路4号门面,邵阳市,邵东县,111.745638,27.246729,邵阳市双清区四海电动自行车行,湖南省,,
湖南省浏阳市大瑶镇李畋路,长沙市,浏阳市,113.72159,27.971573,浏阳市大瑶镇健波电动车行,湖南省,,
湖南省湘乡市壕塘口水果市场,湘潭市,湘乡市,112.522151,27.730492,湘乡市新湘路百姓车行,湖南省,,
人民路街道,郴州市,北湖区,113.02663162350655,25.788395960926344,郴州市北湖区千里达电动自行车车行,湖南省,,
湖南省岳阳市汨罗市营田镇兴盛南街,岳阳市,汨罗市,112.915058,28.848671,屈原区新日电动车车行,湖南省,,
永丰镇,娄底市,双峰县,112.18857541680336,27.45200630432751,双峰县新日电动车店,湖南省,,
上梅镇,娄底市,新化县,111.29718482494353,27.733163766670994,新化县吉祥狮电动车经营部,湖南省,,
红旗路街道,邵阳市,大祥区,111.45556256175043,27.232848057178714,邵阳市风顺电动自行车经营部,湖南省,,
凤凰街道,永州市,冷水滩区,111.59900575876237,26.457297042711716,永州市冷水滩红文车行,湖南省,,
浯溪街道,永州市,祁阳县,111.85370296239854,26.5863120658858,祁阳县新日电动车行,湖南省,,
沱江镇,永州市,江华瑶族自治县,111.57531246542932,25.177491749742146,江华瑶族自治县陈记摩托车行,湖南省,,
舜陵镇,永州市,宁远县,111.94366827607158,25.57950510414608,宁远县向群日威车业,湖南省,,
迎春亭街道,邵阳市,武冈市,110.63609942793848,26.734229986373894,武冈市晓群电动车店,湖南省,,
建设路西100米,邵阳市,大祥区,111.485252,27.235488,邵阳市双清区四海电动自行车行,湖南省,,
桃洪镇,邵阳市,隆回县,111.01883053779603,27.11289358544533,陈苏华,湖南省,,
龙潭街道,郴州市,桂阳县,112.73417562246323,25.75416814005722,罗兵,湖南省,,
舜峰镇,郴州市,临武县,112.56878256797792,25.280704017738657,临武县新日电动车专卖店,湖南省,,
西渡镇,衡阳市,衡阳县,112.36845910549167,26.966414321165512,衡阳县新日专卖店,湖南省,,
文冲路,衡阳市,衡东县,112.951518,27.093953,衡东县新日电动车经营部,湖南省,,
洪桥镇,衡阳市,祁东县,112.09771156311035,26.787537461695813,祁东县龙腾电动,湖南省,,
蓝田街道,娄底市,涟源市,111.67496860027313,27.689734224308836,涟源市新日摩托车电动车店,湖南省,,
火车南站街道,邵阳市,大祥区,111.45731806755066,27.216856172314714,娄底市娄星区小吴电动车店,湖南省,,
常德市桃源县漳江镇渔夫祠社区迎宾路渔父祠居委会对面,常德市,桃源县,111.48579,28.90755,何哲飞,湖南省,,
北洲子镇,益阳市,南县,112.6773101091385,29.162263778498325,北洲子镇新日,湖南省,,
龙泉镇,永州市,新田县,112.20328733325005,25.904304070715092,新田县新日,湖南省,,
徐家井街道,永州市,零陵区,111.63110911846161,26.221932513663198,零陵区新日,湖南省,,
洞井街道,长沙市,雨花区,113.01618307828903,28.09933429539134,长沙市洞井铺新日电动车专卖店,湖南省,,
兴隆镇,怀化市,新晃侗族自治县,109.18962970376015,27.347017634850676,新晃新日电动车,湖南省,,
东洞庭湖管委会,岳阳市,岳阳县,113.07298555970193,29.250257214919124,新日电动车岳阳莄口店,湖南省,,
东洞庭湖管委会,岳阳市,岳阳县,112.99747467041016,29.203012671030837,新日电动车长湖乡店,湖南省,,
青林乡,常德市,桃源县,111.47666752338411,28.947632201741406,青林新日电动车专卖店,湖南省,,
陬市镇,常德市,桃源县,111.53855815529826,29.04280557881216,陬市新日电动车专卖店,湖南省,,
龙泉镇,永州市,新田县,112.22806960344316,25.913725342505703,新田新日电动车专卖店,湖南省,,
岳麓街道,长沙市,岳麓区,112.9279598593712,28.159906148552974,长沙新日王家湾店,湖南省,,
凌津滩镇,常德市,桃源县,111.27265065908435,28.75242125791138,马石乡新日电动车,湖南省,,
桃花源镇,常德市,桃源县,111.45049452781677,28.735211490858237,龙湖乡新日电动车专卖店,湖南省,,
清水塘街道,长沙市,芙蓉区,112.98614501953125,28.204580688932424,长沙新日松桂园店,湖南省,,
高塘岭街道,长沙市,望城区,112.81572684645654,28.36644592594429,长沙新日望城二店,湖南省,,
泉塘街道,长沙市,芙蓉区,113.11165496706965,28.21125449674572,长沙新日泉塘店,湖南省,,
月亮岛街道,长沙市,岳麓区,112.94609963893892,28.270900771943502,长沙新日望城区城北小区店,湖南省,,
梅溪湖街道,长沙市,岳麓区,112.87503987550737,28.171460760461642,长沙新日梅溪湖店,湖南省,,
白牙市镇,永州市,东安县,111.31411761045457,26.39440564665669,永州市东安县新日专卖店,湖南省,,
宋家桥街道,株洲市,荷塘区,113.20577099919319,27.875206474766507,株洲荷塘区四三0店,湖南省,,
渌口镇,株洲市,渌口区,113.15185993909839,27.704161603101685,株洲市株洲县渌口店,湖南省,,
新华东路98号,株洲市,荷塘区,113.179698,27.862825,株洲市荷塘区新苗路口店,湖南省,,
井龙街道,株洲市,石峰区,113.12930256128313,27.8952631676411,株洲市石峰区田心北门店,湖南省,,
双江镇,怀化市,通道侗族自治县,109.7844122350216,26.158050136411244,通道新日电动车专卖店,湖南省,,
新安镇,常德市,临澧县,111.51983901858328,29.646021267262537,新安新日电动车专卖店,湖南省,,
尧天坪镇,常德市,鼎城区,111.51945948600769,28.780246492772836,饶天坪镇新日电动车专卖店,湖南省,,
逆江坪乡,常德市,鼎城区,111.51435390114784,28.69701675857456,逆江坪新日电动车专卖店,湖南省,,
夹山镇,常德市,石门县,111.44204020500183,29.510462862845497,夹山新日电动车专卖店,湖南省,,
楚江镇,常德市,石门县,111.42093792557718,29.594660988167497,东城新日电动车专卖店,湖南省,,
宋家塘街道,邵阳市,邵东县,111.73975333571434,27.257973691371262,邵阳市邵东县新日专卖店,湖南省,,
雨溪镇,邵阳市,大祥区,111.40749469399452,27.16813177336264,邵阳市唐四镇新日专卖店,湖南省,,
白仓镇,邵阳市,邵阳县,111.34075865149501,26.86461458516402,邵阳杨田乡新日电动车专卖店,湖南省,,
九公桥镇,邵阳市,邵阳县,111.35895609855652,27.120424580201888,邵阳九公桥新日电动车专卖店,湖南省,,
谷洲镇,邵阳市,邵阳县,111.50488972663881,27.064022323615966,邵阳市谷洲镇新日专卖店,湖南省,,
三仙湖镇,益阳市,南县,112.262961,29.198015,下柴市新日电动车专卖店,湖南省,,
阿拉营镇,湘西土家族苗族自治州,凤凰县,109.39085975289346,27.90613869488455,阿拉营新日电动车专卖店,湖南省,,
漆河镇,常德市,桃源县,111.38502985239029,29.129009401212006,漆河新日电动车专卖店,湖南省,,
澧阳镇,常德市,澧县,111.75954267382623,29.64089620855955,澧县新日电动车专卖店,湖南省,,
清水塘街道,株洲市,石峰区,113.09858188033107,27.882027589668624,株洲市石峰区摩托车市场店,湖南省,,
黎托街道,长沙市,雨花区,113.06367829442026,28.16420749949424,荷塘镇新日电动车专卖店,湖南省,,
霞阳镇,株洲市,炎陵县,113.77944186329842,26.492799475142345,株洲市炎陵县新日店,湖南省,,
沙坪镇,常德市,桃源县,111.31840646266937,28.643216579767582,沙坪新日电动车专卖店,湖南省,,
桃洪镇,邵阳市,隆回县,111.01202979683876,27.113828272830897,隆回大运电动车,湖南省,,
城关镇,株洲市,茶陵县,113.54181692004204,26.78772182762952,湖南茶陵新日专卖店,湖南省,,
榔梨街道,长沙市,雨花区,113.11700597405435,28.183037766725988,长沙新日榔梨旗舰店,湖南省,,
城关镇,岳阳市,平江县,113.59295189380649,28.694148709217117,长沙新日平江分销店,湖南省,,
镇溪街道,湘西土家族苗族自治州,吉首市,109.73192542791367,28.298255886239467,吉首新日电动车专卖店,湖南省,,
迎丰街道,怀化市,鹤城区,110.0107289850712,27.563671981912282,怀化城东新日电动车专卖店,湖南省,,
草尾镇,益阳市,沅江市,112.38452553749086,29.041722210516234,草尾新日电动车专卖店,湖南省,,
漳江镇,常德市,桃源县,111.48223444819452,28.893102935236033,桃源新日电动车专卖店,湖南省,,
低庄镇,怀化市,溆浦县,110.7334354519844,28.07325947723131,低庄新日电动车专卖店,湖南省,,
芷江镇,怀化市,芷江侗族自治县,109.68462869524957,27.443500385094293,芷江新日电动车专卖店,湖南省,,
新开铺街道,长沙市,天心区,112.97286942601205,28.13528060302651,长沙新日新开铺店,湖南省,,
新开铺街道,长沙市,天心区,112.96640664339066,28.12212179673528,长沙新韶路店,湖南省,,
月亮岛街道,长沙市,望城区,112.91595965623856,28.295914271611352,长沙新日罐子岭店,湖南省,,
达浒镇,长沙市,浏阳市,113.92405584454536,28.41808990770979,浏阳新日达浒镇店,湖南省,,
杨花乡,长沙市,浏阳市,113.66774663329126,27.95548320483835,浏阳新日阳花店,湖南省,,
捞刀河街道,长沙市,开福区,112.99565076828006,28.294688534485555,长沙新日捞刀河店,湖南省,,
干杉镇,长沙市,长沙县,113.19916471838951,28.145689651736895,长沙新日干衫店,湖南省,,
黄兴镇,长沙市,长沙县,113.11908066272738,28.130623284676084,长沙新日黄兴店,湖南省,,
永济镇,衡阳市,耒阳市,112.83455595374107,26.631779199725763,耒阳永济镇新日专卖店,湖南省,,
珠泉镇,郴州市,嘉禾县,112.37416282296181,25.580234526220845,嘉禾县新日,湖南省,,
便江镇,郴州市,永兴县,113.11367332935333,26.140681132425293,永兴县新日,湖南省,,
白牙市镇,永州市,东安县,111.29242792725564,26.39130744904468,东安县新日,湖南省,,
湖南省岳阳市临湘市桃林镇089县道,岳阳市,临湘市,113.412386,29.339061,桃林镇新日专卖店,湖南省,,
二都乡,常德市,石门县,111.47517889738084,29.58048549643791,石门牌楼,湖南省,,
安福镇,常德市,临澧县,111.653148829937,29.457655715697104,临澧县,湖南省,,
皇图岭镇,株洲市,攸县,113.49058404564859,27.34708910823273,株洲皇图岭新日,湖南省,,
新市镇,株洲市,攸县,113.38932663202289,27.180558839098918,株洲新市镇新日,湖南省,,
湘湖街道,长沙市,芙蓉区,113.0170574784279,28.201722890594905,长沙三湘店,湖南省,,
镇头镇,长沙市,浏阳市,113.32941681146622,28.00616684595767,浏阳镇头镇店,湖南省,,
迎丰街道,怀化市,鹤城区,110.01055061817168,27.562628135633712,摩托车维修,湖南省,,
水口山街道,衡阳市,常宁市,112.57363870739937,26.580720803486415,松柏新日电动车,湖南省,,
罗桥镇,衡阳市,常宁市,112.4698626995087,26.232070515472167,小何车行,湖南省,,
荷花街道,长沙市,浏阳市,113.64004746079445,28.12219394631167,浏阳金沙南路店,湖南省,,
杨花乡,长沙市,浏阳市,113.66774663329126,27.95548320483835,浏阳新日杨花乡店,湖南省,,
黎托街道,长沙市,雨花区,113.0591279268265,28.16798493147402,长沙新日黎拖店,湖南省,,
东屯渡街道,长沙市,芙蓉区,113.0357873439789,28.192040319166043,长沙新日三湘店,湖南省,,
601乡道双江口派出所南60米路东,长沙市,宁乡市,112.67286,28.335886,宁乡新日双江口店,湖南省,,
先锋路,怀化市,辰溪县,110.198652,28.001001,晨溪新日电动车,湖南省,,
板桥镇,衡阳市,常宁市,112.42267459630968,26.27430928734431,建国车行,湖南省,,
黔城镇,怀化市,洪江市,109.83664825558664,27.201038524468245,新日电动车,湖南省,,
湖南省岳阳市湘阴县石塘乡059县道,岳阳市,湘阴县,112.925413,28.683115,栗塘新日专卖店,湖南省,,
昭潭乡,湘潭市,雨湖区,112.89000391960145,27.859339853376312,新日电动车,湖南省,,
北湖街道,郴州市,北湖区,113.03364157676698,25.80449016580877,郴州逸尔车行,湖南省,,
湖南省常德市桃源县漳江镇漳江南路,常德市,桃源县,111.481417,28.891565,勇二电动车行,湖南省,,
湖南省常德市桃源县青林回族维吾尔族乡青林村,常德市,桃源县,111.478605,28.932129,青林新日电动车,湖南省,,
金山桥街道,长沙市,望城区,112.88170114159585,28.26231711885958,长沙新日雷锋大道青山店,湖南省,,
双凫铺镇,长沙市,宁乡市,112.302428483963,28.136635894312978,宁乡新日双凫铺店,湖南省,,
灰汤镇,长沙市,宁乡市,112.27282494306566,28.02487569315257,宁乡新日高桥店,湖南省,,
玉潭镇,长沙市,宁乡市,112.5458174943924,28.253058235588753,宁乡新日摩托车市场店,湖南省,,
湖南省岳阳市临湘市长安街道火车站北街76号临湘站,岳阳市,临湘市,113.484109,29.474553,临湘火车站北街新日专卖店,湖南省,,
107乡道东50米,株洲市,攸县,113.437777,27.224564,网岭镇新日电动车,湖南省,,
明月镇大障中学,株洲市,醴陵市,113.421837,27.462219,醴陵市明月镇新日电动车,湖南省,,
新市镇320省道,株洲市,茶陵县,113.446126,26.661176,茶陵枣市镇,湖南省,,
106国道东200米,株洲市,炎陵县,113.809972,26.324426,炎陵水口镇新日电动车,湖南省,,
均楚镇金山居委会文化路,株洲市,醴陵市,113.270113,27.569288,均楚镇新日电动车,湖南省,,
永大路与雷潭路交叉口西200米,株洲市,天元区,113.062341,27.674896,伞铺新日电动车,湖南省,,
城关镇湘运汽车站旁,株洲市,茶陵县,113.542139,26.790599,茶陵新日电动车,湖南省,,
坳上镇,郴州市,苏仙区,113.02522078156473,25.67691430813966,中意车行,湖南省,,
白露塘镇,郴州市,苏仙区,113.13832551240924,25.803957711877672,文平车行,湖南省,,
湖南省常德市桃源县三阳港镇桃源县三阳港中心卫生院,常德市,桃源县,111.353418,28.970201,三阳,湖南省,,
湖南省常德市桃源县桃花源镇黄土坡村,常德市,桃源县,111.386994,28.747311,黄土坡,湖南省,,
湖南省常德市桃源县桃花源镇龙坪村,常德市,桃源县,111.462403,28.819925,龙坪,湖南省,,
湖南省常德市桃源县夷望溪镇一甲城小学,常德市,桃源县,111.207078,28.836439,一甲城,湖南省,,
湖南省常德市桃源县茶庵铺镇桃源县茶庵铺镇上高坪村委会,常德市,桃源县,111.140605,28.633733,茶庵铺,湖南省,,
湖南省常德市桃源县木塘垸乡龙虎村,常德市,桃源县,111.564462,28.991767,龙虎镇,湖南省,,
湖南省常德市桃源县沙坪镇桃源县沙坪镇卫生院,常德市,桃源县,111.318824,28.639696,沙坪镇,湖南省,,
湖南省常德市桃源县漳江镇061县道,常德市,桃源县,111.418333,28.907597,深水港镇,湖南省,,
湖南省常德市桃源县夷望溪镇马石完小,常德市,桃源县,111.2727,28.752395,马石镇,湖南省,,
湖南省常德市桃源县剪市镇剪市镇中学,常德市,桃源县,111.372423,28.77514,剪市镇,湖南省,,
湖南省常德市桃源县漳江镇桃源县车湖垸乡卫生院,常德市,桃源县,111.516118,28.951156,车湖院,湖南省,,
湖南省常德市桃源县剪市镇剪市镇政府,常德市,桃源县,111.379,28.781305,剪市大拐上,湖南省,,
湖南省常德市桃源县夷望溪镇桃源县兴隆街乡卫生院,常德市,桃源县,111.182626,28.814072,兴隆街,湖南省,,
湖南省常德市桃源县龙潭镇桃源县龙潭中心卫生院,常德市,桃源县,111.141202,28.959997,老倌坪,湖南省,,
王仙岭街道,郴州市,北湖区,113.07112276554108,25.773047137613734,新日电动车王仙岭店,湖南省,,
湖南省常德市安乡县大湖口镇026县道,常德市,安乡县,112.084795,29.648451,焦圻,湖南省,,
湖南省常德市安乡县大湖口镇026县道,常德市,澧县,112.080652,29.498026,安凝张九台,湖南省,,
湖南省常德市安乡县大鲸港镇中共安乡县大鲸港镇委员会,常德市,安乡县,112.147564,29.413238,大鲸港,湖南省,,
湖南省常德市安乡县安丰乡常丰中学,常德市,安乡县,112.07285,29.418631,安丰永阳,湖南省,,
湖南省邵阳市隆回县桃洪镇隆回县人民政府,邵阳市,隆回县,111.032437,27.113978,松吉电动车专卖店,湖南省,,
湖南省邵阳市隆回县桃洪镇隆回县人民政府,邵阳市,隆回县,111.032437,27.113978,铃木摩托,湖南省,,
湖南省邵阳市隆回县荷香桥镇荷香桥镇人民政府荷香桥车站,邵阳市,隆回县,110.967286,27.2138,奇强电动车,湖南省,,
湖南省邵阳市隆回县七江镇七江镇人民政府,邵阳市,隆回县,110.977958,27.441863,台铃电动车,湖南省,,
湖南省邵阳市隆回县滩头镇三溪村,邵阳市,隆回县,111.182669,27.30575,钱江摩托,湖南省,,
湖南省常德市汉寿县坡头镇偏坡,常德市,汉寿县,112.166632,29.010779,汉寿偏坡,湖南省,,
湖南省怀化市辰溪县安坪镇24县道,怀化市,辰溪县,110.123588,27.873725,王安坪,湖南省,,
东江街道,常德市,武陵区,111.75159931182861,29.033247157817435,东江,湖南省,,
芦荻山乡,常德市,武陵区,111.72260865569116,28.982047882231907,芦山,湖南省,,
南津渡街道,永州市,零陵区,111.63094148039818,26.213962969229005,零陵区新日电动车,湖南省,,
068县道西50米,岳阳市,湘阴县,112.583183,28.693274,新日电动车,湖南省,,
洲镇北正街,岳阳市,湘阴县,112.603793,28.654213,新日电动车,湖南省,,
静河乡麦子村,岳阳市,湘阴县,112.841673,28.60699,湾河口新日电动车,湖南省,,
文星镇高岭社区,岳阳市,湘阴县,112.922983,28.682965,板桥新日电动车,湖南省,,
奇家岭,岳阳市,岳阳楼区,113.157991,29.33067,奇家岭新日电动车,湖南省,,
合口镇107乡道,常德市,临澧县,111.586586,29.646738,豪爵铃木,湖南省,,
修梅镇,常德市,临澧县,111.62776038050652,29.504028340507507,立马,湖南省,,
大庙口镇,永州市,东安县,111.1001805961132,26.387171183612338,豪爵摩托,湖南省,,
紫溪市镇,永州市,东安县,111.24258041381836,26.325843866050402,永兴车行,湖南省,,
207国道与226乡道交叉口西北150米,永州市,江华瑶族自治县,111.511245,24.827181,先锋车行,湖南省,,
珠山镇中心小学,永州市,零陵区,111.345375,26.11381,新日电动车,湖南省,,
水口镇,永州市,江华瑶族自治县,111.79386019706727,24.986352193919373,金山车行,湖南省,,
010县道附近,永州市,冷水滩区,111.571472,26.730729,摩配家电超市,湖南省,,
湖南省邵阳市洞口县黄桥镇E59县道洞口七中,邵阳市,洞口县,110.851844,27.018694,淮海车辆,湖南省,,
湖南省邵阳市洞口县高沙镇高沙镇人民政府,邵阳市,洞口县,110.677062,26.959855,钱江摩托,湖南省,,
湖南省娄底市新化县洋溪镇洋溪镇,娄底市,新化县,111.183039,27.66575,立马电动车,湖南省,,
谭家山镇分路口,湘潭市,湘潭县,112.961524,27.647448,新日电动车,湖南省,,
楠竹山镇,湘潭市,雨湖区,112.66553252935411,27.84588525387728,楠竹山新日电动车,湖南省,,
大瑶镇,长沙市,浏阳市,113.7233917415142,27.97489017284798,大瑶镇新日电动车2店,湖南省,,
金刚镇,长沙市,浏阳市,113.68777468800545,27.947825589536475,新日电动车浏阳金刚店,湖南省,,
湖南省邵阳市新邵县坪上镇张家冲邮政储蓄,邵阳市,新邵县,111.564394,27.574409,张家冲摩托车,湖南省,,
古港镇,长沙市,浏阳市,113.74886333942413,28.281992232375227,新日电动车古港店,湖南省,,
左家塘街道,长沙市,雨花区,113.00977796316148,28.171231406518398,新日电动车车站南路店,湖南省,,
湖南省娄底市新化县上渡街道新化县,娄底市,新化县,111.327411,27.726516,常力立马电动车,湖南省,,
咸嘉湖街道,长沙市,岳麓区,112.92074471712111,28.21028069279392,长沙新日枫林二路店,湖南省,,
朝阳街街道,长沙市,雨花区,113.00194457173347,28.18924601558708,长沙新日曙光中路店,湖南省,,
葛家乡,长沙市,浏阳市,113.46442446112634,28.072348317739582,浏阳葛家镇新日店,湖南省,,
湖南省娄底市涟源市桥头河镇灵官殿,娄底市,涟源市,111.891851,27.852448,五羊电动车,湖南省,,
煤炭坝镇,长沙市,宁乡市,112.38965660333635,28.243135760971235,新日电动车煤炭坝店,湖南省,,
东湖塘镇南田坪乡南芬塘村石潭口,长沙市,宁乡市,112.534638,28.095885,宁乡新日南芬塘店,湖南省,,
龙伏镇,长沙市,浏阳市,113.51160049438477,28.41435318826306,新日电动车浏阳龙伏店,湖南省,,
湖南省邵阳市洞口县山门镇山水路,邵阳市,洞口县,110.690526,27.222425,小飞哥电动车,湖南省,,
湖南省娄底市涟源市三甲乡038县道,娄底市,涟源市,111.609369,27.64287,新大洲本田,湖南省,,
湖南省邵阳市新邵县雀塘镇杨家垅,邵阳市,新邵县,111.577784,27.324857,松吉电动车行,湖南省,,
湖南省邵阳市新邵县酿溪镇新邵县,邵阳市,新邵县,111.458656,27.320919,新日电动车新邵县,湖南省,,
湖南省邵阳市新邵县寸石镇花桥村,邵阳市,新邵县,111.554914,27.401405,铃木摩托,湖南省,,
湖南省娄底市涟源市石马山镇119乡道,娄底市,涟源市,111.793032,27.719889,湖泉豪爵车行,湖南省,,
湖南省邵阳市隆回县六都寨镇隆回农村商业银行,邵阳市,隆回县,110.941738,27.35454,小毛车行,湖南省,,
湖南省邵阳市隆回县六都寨镇六都寨镇中学,邵阳市,隆回县,110.93189,27.36001,宗申摩托,湖南省,,
湖南省邵阳市大祥区火车南站街道邵阳站,邵阳市,大祥区,111.461386,27.21304,天能电池,湖南省,,
湖南省邵阳市大祥区城南街道宝庆路,邵阳市,大祥区,111.431238,27.23088,兴君电动车,湖南省,,
玉华镇,岳阳市,湘阴县,112.9409632086754,28.57955902600685,湘阴文家铺新日电动车,湖南省,,
323省道南200米,永州市,宁远县,111.893057,25.548612,金鹏三轮车,湖南省,,
河路口镇大地窝村,永州市,江华瑶族自治县,111.492408,24.72454,华生车行,湖南省,,
土市镇,永州市,蓝山县,112.2411198914051,25.52347027945564,宗申摩托,湖南省,,
东溪街附近,永州市,新田县,112.199623,25.905568,新大洲本田,湖南省,,
太平镇,永州市,宁远县,112.12855964899065,25.66101436723016,顺风车行,湖南省,,
216省道西50米,永州市,宁远县,111.962694,25.680532,小刘车行,湖南省,,
堰井村3号,永州市,冷水滩区,111.665403,26.434422,小不点车行,湖南省,,
茶林镇,永州市,双牌县,111.82411015033723,26.11188801477439,摩托维修,湖南省,,
