address,city,districd,lat,lon,name,province,street,town
杨凌示范区康乐路金鑫步行街南一号,临夏回族自治州,康乐县,103.708252,35.368856,杨凌裕兴电动车行,甘肃省,,
甘肃省兰州市城关区,兰州市,城关区,103.825255,36.057054,兰州乐驰极地商贸有限公司,甘肃省,,
甘肃省天水市麦积区桥南家居建材城新日电动车,天水市,麦积区,105.889259,34.550598,天水新宏远五交化有限公司,甘肃省,,
甘肃省成县陇南大道南路,陇南市,成县,105.742121,33.753787,成县支旗新日电动自行车经销部,甘肃省,,
陇南市伏家镇街道,陇南市,徽县,105.958711,33.815347,徽县美乐家电城,甘肃省,,
甘肃省康县城关东街18号,陇南市,康县,105.61094,33.326269,康县龙达商贸有限公司,甘肃省,,
甘肃省天水市张家川回族自治县西城路33号新日电动车专卖店维佳车业,天水市,张家川回族自治县,106.206964,34.995191,马桂连(直营),甘肃省,,
甘肃省天水市秦安县解放路城建局楼下,天水市,秦州区,105.712267,34.578701,秦安县鑫茂手机数码城,甘肃省,,
陇西县文峰镇人民西路新日专卖店,定西市,陇西县,104.692723,34.962223,王辉军,甘肃省,,
甘肃省礼县城关镇东西路新日电动车,陇南市,礼县,105.192423,34.189591,礼县薛强摩托车服务部,甘肃省,,
澄县城关镇青正街电影院对面北30米,兰州市,榆中县,104.116598,35.84525,澄城县鑫鹏车行,甘肃省,,
甘肃白银市靖远县南大街春光巷20号1幢商铺1层3室,白银市,靖远县,104.684018,36.559997,甘肃国栋电动车销售有限公司,甘肃省,,
甘肃省白银市景泰县一条山镇705路南路,白银市,景泰县,104.060918,37.190307,景泰县新日电动车行第一分店,甘肃省,,
甘肃省庄浪县紫荆花园商铺7号,平凉市,庄浪县,106.037857,35.200294,庄浪县大宇车业销售中心,甘肃省,,
甘肃省西和县中山南路大水街新日电动车专,陇南市,西和县,105.299077,34.0189,西和县彭开新日电动车旗舰店,甘肃省,,
甘肃省甘谷县西关街西关小学对面,天水市,甘谷县,105.320589,34.735989,甘谷县爱众车行,甘肃省,,
甘肃省陇南市武都区城关镇新日电动车,陇南市,武都区,104.9216,33.388957,武都新日电动车天泽店,甘肃省,,
甘肃省临夏市民主路新日专卖店,临夏回族自治州,临夏市,103.210538,35.601182,刘元奎,甘肃省,,
甘肃省酒泉市肃州区西环南路30号3-4号,酒泉市,肃州区,98.501731,39.741439,肃州区超越电动车销售部,甘肃省,,
甘肃省庆阳市西峰区解放东路新日电动车专卖店,庆阳市,西峰区,107.644042,35.742542,西峰区宝颖电动车行,甘肃省,,
甘肃省永昌县南大街天锦苑社区415号,金昌市,永昌县,101.976272,38.241893,姚武学,甘肃省,,
甘肃省武威市凉州区南城门广场,武威市,凉州区,102.63653,37.922307,武威市凉州区聚源新日电动车行,甘肃省,,
甘肃省金昌市公园路11区对面,金昌市,金川区,102.186256,38.513759,金昌市裕华窗饰布艺有限公司,甘肃省,,
甘肃省敦煌市阳关中路宏泰市场,酒泉市,敦煌市,94.659004,40.140781,敦煌市名优车行,甘肃省,,
甘肃省嘉峪关市永新街2号,嘉峪关市,,98.286795,39.788184,嘉峪关新日电动车店,甘肃省,,
甘肃省玉门市玉门镇东渠村8组34号,酒泉市,玉门市,97.068994,40.266576,高俊峰,甘肃省,,
民勤县电动车市场,武威市,民勤县,103.093792,38.62435,民勤县城关镇兴达自行车商行,甘肃省,,
甘肃酒泉龙兴货运部转十号基地,酒泉市,肃州区,98.494483,39.73241,王子公主车行,甘肃省,,
甘肃省张掖市宏宇广场,张掖市,甘州区,100.474035,38.919036,张掖市金彪商贸有限公司,甘肃省,,
甘肃省张掖市临泽县雪晶路,张掖市,临泽县,100.176316,39.147448,临泽县玉财兴荣摩托车销售店(直营),甘肃省,,
瓜州县瓜州大道良友宾馆南侧500米,酒泉市,瓜州县,95.775842,40.541319,瓜州县许卢车行,甘肃省,,
甘肃省平凉市泾川县建设路,平凉市,泾川县,107.3701,35.339299,泾川县远行品牌电动车专卖店,甘肃省,,
甘肃泾川县党原镇,平凉市,泾川县,107.232219,35.450269,赵小银,甘肃省,,
甘肃省山丹县宏禹宾馆楼下新日电动车专卖店,张掖市,山丹县,101.096719,38.782831,山丹县天辰商务宾馆,甘肃省,,
甘肃省灵台县世纪花园C区8号门店,平凉市,灵台县,107.626514,35.063324,灵台县新阳光车行,甘肃省,,
甘肃省平凉市崆峒区,平凉市,崆峒区,106.674767,35.542491,平凉市崆峒区孙晓英电动车行,甘肃省,,
甘肃高台县西城河路88号,张掖市,高台县,99.813514,39.3768,甘肃高台县新日专卖店(直营),甘肃省,,
甘肃省平凉市崆峒区,平凉市,崆峒区,106.674767,35.542491,平凉市崆峒区湾仔车行(直营),甘肃省,,
甘肃泾川县丰台乡,平凉市,泾川县,107.43349,35.431251,泾川县昌昊电动车行(直营),甘肃省,,
甘肃平凉市崆峒区沙港市场3楼4号,平凉市,崆峒区,106.693687,35.537038,甘肃平凉新日专卖店(直营),甘肃省,,
甘肃省平凉市泾川县丰台乡丰台街金昊摩托车经销部,平凉市,泾川县,107.43349,35.431251,金昊摩托车经销部(直营),甘肃省,,
甘肃省武威市古浪县古浪镇昌灵路,武威市,古浪县,102.898461,37.469911,古浪新日专卖店(直营),甘肃省,,
甘肃省张掖市鸿宇广场鸿宇北路150号,张掖市,甘州区,100.473,38.91875,肖杰,甘肃省,,
甘肃省张掖市山丹县东环路,张掖市,山丹县,101.095691,38.77985,甘肃山丹新日电动车专卖店(直营),甘肃省,,
甘肃省嘉峪关五一中路77号新日专卖店,嘉峪关市,,98.280235,39.79241,甘肃省嘉峪关(张生武）,甘肃省,,
甘肃省秦安县解放路海信电器部,天水市,秦州区,105.712267,34.578701,甘肃省秦安(成桂桂)(直营),甘肃省,,
白银市兰包路毛巾厂十字白银货物市场院内9号,白银市,白银区,104.178096,36.533021,甘肃省白银市王会霞(直营),甘肃省,,
甘肃徽县新汽车站金地宾馆楼下金地摩托车行,陇南市,徽县,106.083088,33.77151,徽县金地摩托车行,甘肃省,,
甘肃省陇南市成县陇南大道粮食局家属楼301,陇南市,成县,105.743139,33.749128,甘肃省陇南市成县（姜小强）(直营),甘肃省,,
甘肃省兰州市鱼池口小商品市场四号楼178号新日店,兰州市,城关区,103.890925,36.041608,兰州市润林车业(直营),甘肃省,,
甘肃张家川县东城路,天水市,张家川回族自治县,106.213866,34.99287,甘肃张家川县爱玛电动车专卖店(直营),甘肃省,,
甘肃省临洮县线市街1号安置楼3号,定西市,临洮县,103.864151,35.374804,临洮县佳佳车行(直营),甘肃省,,
甘肃天水市秦安县解放路,天水市,秦州区,105.712267,34.578701,甘肃秦安县大长江摩托车销售中心(直营),甘肃省,,
甘肃省白银市平川区兴平东路人行家属楼下,白银市,平川区,104.825208,36.728304,甘肃白银平川新日专卖店(直营),甘肃省,,
甘肃省天水市秦安县映南街,天水市,秦安县,105.671691,34.864702,秦安县新日电动车(直营),甘肃省,,
徽县建新路烟草公司对面,陇南市,徽县,106.080512,33.771826,徽县小崔电动车行,甘肃省,,
南苑路与城南路交叉口西150米,平凉市,崆峒区,106.690289,35.534122,平凉新日电动车,甘肃省,,
西街街道,庆阳市,西峰区,107.64492541551593,35.74281360995353,庆阳新日电动车体验点,甘肃省,,
环城镇,庆阳市,环县,107.3119103908539,36.56597908920743,环县新日电动车,甘肃省,,
城关镇,张掖市,高台县,99.81384605169299,39.377518388899276,高台新日电动车专卖店,甘肃省,,
南湖镇西华街浪二中西50米,平凉市,庄浪县,105.966393,35.345579,南湖镇新日电动车,甘肃省,,
316国道西50米,陇南市,徽县,105.829072,33.893279,江洛镇新日电动车,甘肃省,,
沙河镇,张掖市,临泽县,100.17279937863351,39.149912903582894,临泽新日电动车专卖店,甘肃省,,
滨河中路18号,临夏回族自治州,临夏市,103.216148,35.58456,临夏新日专卖店,甘肃省,,
靖远县,白银市,靖远县,104.726063,36.601907,三合镇新日专卖店,甘肃省,,
世纪大道,张掖市,民乐县,100.82209,38.43889,民乐新日电动车专卖店,甘肃省,,
长安公馆售楼处旁,定西市,陇西县,104.659625,34.990968,陇西城关镇新日专卖店,甘肃省,,
文峰镇,定西市,陇西县,104.696456,34.9469,文峰新日专卖店,甘肃省,,
316国道东50米,天水市,武山县,105.025629,34.75727,洛门新日专卖店,甘肃省,,
巩昌镇鼓楼新金茂商场一楼,定西市,陇西县,104.638369,35.002952,陇西新日电动车,甘肃省,,
316国道东50米,陇南市,徽县,106.08073,33.772781,徽县新日电动车,甘肃省,,
驿马镇,庆阳市,庆城县,107.61109471321106,35.90080840392357,驿马新日电动车,甘肃省,,
西华池镇,庆阳市,合水县,108.01744267344476,35.81132826616714,合水新日电动车,甘肃省,,
山河镇,庆阳市,正宁县,108.35986956954002,35.491800221432875,正宁新日电动车,甘肃省,,
屯字镇,庆阳市,镇原县,107.37483233213426,35.57733646843784,屯字新日电动车,甘肃省,,
岷阳镇,定西市,岷县,104.04444336891174,34.441509623581695,岷县新日专卖店,甘肃省,,
长征街道,白银市,平川区,104.84711855649947,36.72188230910902,平川区新日专卖店,甘肃省,,
李家堡镇,定西市,安定区,104.7425834834576,35.46659790739161,李家堡镇新日专卖店,甘肃省,,
金崖镇,兰州市,榆中县,104.08737480640411,36.021277401592705,金崖新日专卖店,甘肃省,,
马力镇,天水市,武山县,104.70147863030435,34.66311870026262,马力镇新日专卖店,甘肃省,,
闾井镇,定西市,岷县,104.56206008791924,34.324340533213935,闾井镇新日专卖店,甘肃省,,
衙下集镇,定西市,临洮县,103.8115109503269,35.21864271509162,衙下镇新日专卖店,甘肃省,,
人民路街道,白银市,白银区,104.17629137635232,36.541372291442876,白银新日专卖店,甘肃省,,
平安镇,兰州市,红古区,103.28786730766295,36.16654825414111,平安镇新日专卖店,甘肃省,,
会师镇,白银市,会宁县,105.0649340450764,35.68184169178138,会宁新日专卖店,甘肃省,,
申都乡,定西市,岷县,104.39507514238359,34.40625794194444,申都新日专卖店,甘肃省,,
哈达铺镇,陇南市,宕昌县,104.22758728265762,34.22661438553054,哈达铺新日专卖店,甘肃省,,
庆城镇,庆阳市,庆城县,107.90524318814279,35.98161790622787,庆城电动车门市,甘肃省,,
205省道东150米,陇南市,徽县,105.82633,33.812391,泥阳新日电动车,甘肃省,,
219省道西50米,陇南市,成县,105.490759,33.722637,纸坊镇新日电动车,甘肃省,,
大石镇中街信用社斜对面,天水市,甘谷县,105.188302,34.899782,大石镇新日电动车,甘肃省,,
乌江镇,张掖市,甘州区,100.3621593117714,39.072350088463885,平原堡镇,甘肃省,,
大柳乡,武威市,凉州区,102.71184146404266,37.98819563587811,金塔新日,甘肃省,,
双城镇,武威市,凉州区,102.59642601013185,38.14899727490939,双城新日,甘肃省,,
羊下坝镇,武威市,凉州区,102.66654565930367,38.010920245574276,羊下坝新日,甘肃省,,
武南镇,武威市,凉州区,102.72776037454605,37.82987645539733,武南新日,甘肃省,,
永昌镇,武威市,凉州区,102.58607938885689,38.05933567770585,永昌镇新日,甘肃省,,
金陈公路,金昌市,金川区,102.337956,38.62455,双湾镇新日,甘肃省,,
宁远堡镇,金昌市,金川区,102.23350033164024,38.454320719191344,宁远堡新日,甘肃省,,
宣化镇,张掖市,高台县,99.70453128218651,39.429907611524364,宣化镇新日,甘肃省,,
城关镇,兰州市,永登县,103.26028212904933,36.73679483881348,兰州永登分销,甘肃省,,
东华街道,平凉市,华亭市,106.65157198905945,35.21631886095918,兰州分销华亭县,甘肃省,,
水泉镇,白银市,平川区,104.69978481531145,36.77466505581153,兰州分销水泉镇,甘肃省,,
蒲麻镇,定西市,岷县,104.4187778234482,34.537582418548,兰州分销蒲麻镇,甘肃省,,
马力镇,天水市,武山县,104.69862341880798,34.6570879845981,兰州分销马力镇,甘肃省,,
庄禾集镇,临夏回族自治州,广河县,103.47416684031488,35.371671960351726,兰州分销庄集镇,甘肃省,,
南龙镇,临夏回族自治州,临夏市,103.23308184742929,35.57482658618134,兰州分销南龙镇,甘肃省,,
北湾镇,白银市,靖远县,104.4654643535614,36.458573259861375,兰州分销北湾镇,甘肃省,,
太京镇,天水市,秦州区,105.58180242776871,34.544912051395805,天水分销平南镇,甘肃省,,
甘泉镇,天水市,麦积区,105.94108164310455,34.44730383113115,天水分销甘泉镇,甘肃省,,
娘娘坝镇,天水市,秦州区,105.82852676510814,34.29719642159082,天水分销娘娘坝,甘肃省,,
刘家峡镇,临夏回族自治州,永靖县,103.318307697773,35.94060512690031,兰州分销刘家峡,甘肃省,,
三甲集镇,临夏回族自治州,广河县,103.74885991215707,35.56015076364634,兰州分销三甲集,甘肃省,,
黄羊河街道,武威市,古浪县,103.29582810401918,37.57476989597763,兰州分销大靖,甘肃省,,
丁家沟乡,白银市,会宁县,105.02735629677774,35.52786606295707,兰州分销丁家沟乡,甘肃省,,
南河乡,陇南市,宕昌县,104.2603075504303,34.088621493754545,兰州分销南阳镇,甘肃省,,
石堡乡,陇南市,西和县,105.32071083784105,34.100354853527705,兰州分销石堡镇,甘肃省,,
永清镇,天水市,清水县,106.1399231851101,34.753088203612876,天水分销清水县,甘肃省,,
元龙镇,天水市,麦积区,106.15714833140373,34.5257553277554,天水分销元龙镇,甘肃省,,
城关镇,临夏回族自治州,广河县,103.57478320598604,35.48793580439805,兰州分销广河县,甘肃省,,
盐官镇,陇南市,礼县,105.48937886953357,34.2665712256061,天水分销盐官镇,甘肃省,,
红古乡,海东市,民和回族土族自治县,102.94771492481233,36.29453004886624,兰州分销青土坡,青海省,,
大同镇,兰州市,永登县,103.35624352097514,36.615429674755894,兰州分销大同镇,甘肃省,,
石洞镇,兰州市,皋兰县,103.94871935248376,36.33237108573296,兰州分销皋兰县,甘肃省,,
华藏寺镇,武威市,天祝藏族自治县,103.11771869659425,37.0103021613976,兰州分销天祝县,甘肃省,,
城关镇,兰州市,榆中县,104.1153945028782,35.84598687155108,兰州分销榆中县,甘肃省,,
西城巷北200米,天水市,甘谷县,105.27621,34.88547,安远新日电动车,甘肃省,,
新寺镇,定西市,漳县,104.6355,34.649581,新寺镇新日电动车,甘肃省,,
西关街49号,甘南藏族自治州,舟曲县,104.365321,33.78437,舟曲新日电动车代售点,甘肃省,,
河西堡镇,金昌市,永昌县,102.08877101540567,38.35947886235994,兰州分销河西堡镇,甘肃省,,
锁南镇,临夏回族自治州,东乡族自治县,103.3978217840195,35.66306258336274,兰州分销东乡县哪勒寺镇,甘肃省,,
梅川镇,定西市,岷县,104.07563745975496,34.53467689940522,兰州分销梅川镇,甘肃省,,
雁南街道,兰州市,城关区,103.88590604066849,36.05393912737361,兰州分销雁滩新日,甘肃省,,
七里墩街道,天水市,秦州区,105.75364217162132,34.580625243764764,天水分销岷山店,甘肃省,,
水川镇,白银市,白银区,104.23594504594804,36.36664956813725,兰州分销水川,甘肃省,,
大门乡,天水市,秦州区,105.68481802940369,34.23353555040063,天水分销大门镇,甘肃省,,
乌江镇,张掖市,甘州区,100.41739940643313,39.040359220639985,乌江镇,甘肃省,,
沙井镇,张掖市,甘州区,100.26893377304076,39.09837759487068,沙井新日,甘肃省,,
靖安乡,张掖市,甘州区,100.42881488800049,39.11551096852706,靖安新日,甘肃省,,
云田镇,定西市,陇西县,104.719688,35.104981,云田镇新日电动车,甘肃省,,
374县道北50米,临夏回族自治州,东乡族自治县,103.667244,35.577758,东乡县果园新日电动车,甘肃省,,
北湾镇,白银市,靖远县,104.42512929439548,36.448470129332954,兰州分销北湾金山新日,甘肃省,,
皂郊镇,天水市,秦州区,105.72097957134248,34.434590112129754,天水分销陈沟乡,甘肃省,,
城关镇,兰州市,榆中县,104.10689860582353,35.86216874910117,兰州分销榆中店,甘肃省,,
甘肃省张家川回族自治县东城路,天水市,张家川回族自治县,106.213866,34.99287,张家川回族自治县张川镇金福电动车经销部,甘肃省,,
甘肃金塔县汽车站东200米,酒泉市,金塔县,98.90327,39.983599,金塔县祥年电动车经销部,甘肃省,,
甘肃省天水市秦安县成纪大道,天水市,秦安县,105.664167,34.861132,秦安县晟泰商贸有限责任公司,甘肃省,,
西环路128号附近,平凉市,静宁县,105.728106,35.523101,静宁新日电动车,甘肃省,,
中川大道北50米,兰州市,永登县,103.643143,36.494447,中川新日电动车,甘肃省,,
306省道东50米,定西市,岷县,104.710328,34.386064,锁龙镇新日电动车,甘肃省,,
207省道南50米,天水市,秦安县,105.651564,34.936743,叶堡镇新日专卖店,甘肃省,,
443县道与624乡道交叉口东南100米,天水市,秦州区,105.57968,34.222828,汪川镇新日电动车,甘肃省,,
509县道与736乡道交叉口南200米,陇南市,西和县,105.23671,33.836925,洛峪镇新日电动车,甘肃省,,
交通中路183-1,定西市,安定区,104.629532,35.583241,定西新日电动车,甘肃省,,
309国道西50米,兰州市,榆中县,104.007899,35.962808,定远镇新日电动车,甘肃省,,
郭城驿镇,白银市,会宁县,104.888396,36.230585,新堡子新日电动车,甘肃省,,
124县道北50米,兰州市,皋兰县,103.761263,36.525793,西岔新日电动车,甘肃省,,
理川镇,陇南市,宕昌县,104.323329,34.247961,理川镇新日电动车,甘肃省,,
甘肃省白银市白银区四龙镇商业街12号,白银市,白银区,104.397247,36.435228,四龙镇新日电动车,甘肃省,,
甘肃省平凉市华亭县安口镇安口镇政府,平凉市,华亭市,106.801101,35.225388,安口镇新日电动车,甘肃省,,
甘肃省兰州市七里河区敦煌路街道中国银行(敦煌路支行)兰州长征机械厂家属院(光华街),兰州市,七里河区,103.766176,36.079667,兰州西站新日电动车,甘肃省,,
城关镇,陇南市,礼县,105.1922933757305,34.189430836779934,礼县薛强摩托车服务部,甘肃省,,
甘肃省武威市凉州区新华乡297乡道,武威市,凉州区,102.60274,37.82783,新华乡新日电动车,甘肃省,,
甘肃省金昌市永昌县朱王堡镇永昌县地方税务局朱王堡征收管理分局,金昌市,永昌县,102.6115,38.212415,朱王堡新日电动车,甘肃省,,
土桥镇,临夏回族自治州,临夏县,103.19440037012102,35.656876723329646,兰州分销土桥店,甘肃省,,
城关镇,临夏回族自治州,和政县,103.3617688715458,35.42503949410363,兰州分销和政店,甘肃省,,
甘肃省金昌市金川区金川路街道公园路3-5号,金昌市,金川区,102.19234,38.517318,公园路新日电动车,甘肃省,,
北街街道,庆阳市,西峰区,107.66409784555438,35.73625510447402,西峰区新日电动车,甘肃省,,
甘肃省武威市凉州区金羊镇祁连大道1415号,武威市,凉州区,102.605199,37.93431,皇台新村新日电动车,甘肃省,,
甘肃省武威市凉州区黄羊镇黄羊镇汽车客运站,武威市,凉州区,102.846508,37.669054,黄羊镇新日电动车,甘肃省,,
拱星墩街道,兰州市,城关区,103.88846755027772,36.04297567640236,兰州分销鱼池口店,甘肃省,,
西固城街道,兰州市,西固区,103.62423643469812,36.10508315022804,兰州分销西固店,甘肃省,,
伏家镇,陇南市,徽县,105.95871046185493,33.815345409001424,成县分销伏家镇新日专卖店,甘肃省,,
磐安镇,天水市,甘谷县,105.12474060058595,34.75393774348679,天水分销磐安镇新日电动车专卖店,甘肃省,,
甘肃省武威市民勤县三雷镇东大街66号,武威市,民勤县,103.101416,38.623865,三雷新日电动车,甘肃省,,
南大街28号,金昌市,永昌县,101.96968,38.243541,永昌县新日二店,甘肃省,,
西路街道,兰州市,安宁区,103.71909007430077,36.10392268234572,兰州市安宁区新日专卖店,甘肃省,,
八里铺镇,定西市,临洮县,103.87658536434176,35.42825235594156,临洮县八里铺镇,甘肃省,,
莲花镇,平凉市,静宁县,105.77957510948181,35.056220748188,秦安县莲花镇新日专卖店,甘肃省,,
会川镇,定西市,渭源县,103.97458791732788,35.1114747347667,渭源县会川镇新日专卖店,甘肃省,,
河桥镇,兰州市,永登县,102.8913187980652,36.49730374877111,永登县河桥镇新日专卖店,甘肃省,,
纸坊路北50米,定西市,临洮县,103.848503,35.383251,临洮县新日专卖店,甘肃省,,
齐家镇,临夏回族自治州,广河县,103.83468389511108,35.474454206036334,广河县齐家镇新日电动车,甘肃省,,
滨河中路北50米,定西市,通渭县,105.245233,35.205243,通渭县新日电动车,甘肃省,,
达川乡,临夏回族自治州,永靖县,103.35543751716617,36.121375565915464,达川新日专卖店,甘肃省,,
龙林乡,陇南市,礼县,105.07593512535095,33.9318819334275,礼县龙林镇新日电动车,甘肃省,,
附城镇,临夏回族自治州,康乐县,103.70835453271866,35.37050075388242,康乐县新日电动车,甘肃省,,
永兴乡,陇南市,礼县,105.33172532916072,34.20864242586831,礼县永兴镇新日电动车,甘肃省,,
大像山镇杨场安居小区,天水市,甘谷县,105.350913,34.7451,甘谷县杨场村新日电动车,甘肃省,,
南滨河路附近,天水市,武山县,104.91017,34.726918,武山县城关镇新日电动车,甘肃省,,
大像山镇西关北巷口,天水市,甘谷县,105.326907,34.737657,甘谷西关街新日电动车,甘肃省,,
二十铺村附近,天水市,甘谷县,105.234993,34.739202,甘谷县三十铺新日电动车,甘肃省,,
关子镇关子街,天水市,秦州区,105.384297,34.629693,关子镇新日专卖店,甘肃省,,
武阳镇贵清路第一中学,定西市,漳县,104.457213,34.847885,彰县新日电动车,甘肃省,,
城关镇,天水市,武山县,104.88196849823,34.721965442578835,武山城关镇新日电动车2店,甘肃省,,
文屏山路北100米,平凉市,静宁县,105.74033,35.514046,静宁新日电动车专卖店,甘肃省,,
西岔镇,兰州市,皋兰县,103.77171501517294,36.52356488828075,西岔镇新日电动车,甘肃省,,
新兴镇,天水市,甘谷县,105.32924830913544,34.760255577765136,甘谷新兴镇姚庄新日电动车,甘肃省,,
姜席镇,陇南市,西和县,105.21602824330331,33.993232821907206,西和姜席镇新日电动车,甘肃省,,
西峪镇,陇南市,西和县,105.31342193484308,34.04836699317177,西峪镇新日电动车,甘肃省,,
何坝镇,陇南市,西和县,105.23556008934973,33.9330803210182,西和县何坝镇新日电动车,甘肃省,,
兴隆乡,陇南市,西和县,105.34669876098634,34.03261215291299,西和县兴隆镇新日电动车,甘肃省,,
石堡乡,陇南市,西和县,105.32216593623163,34.105552994873925,西和县王崖乡新日电动车,甘肃省,,
社棠镇,天水市,麦积区,105.97822889685632,34.55614330931897,麦积区社棠镇新日电动车,甘肃省,,
219省道东50米,陇南市,西和县,105.337209,34.203564,西和长道镇新日电动车,甘肃省,,
