address,city,districd,lat,lon,name,province,street,town
陕西省岐山县五丈原镇新日专卖店,宝鸡市,岐山县,107.621054,34.443459,岐山县五丈原新日电动车专卖店,陕西省,,
岐山县县城医苑路258号,宝鸡市,岐山县,107.633463,34.441402,徐建军,陕西省,,
眉县首善镇群众中路,宝鸡市,眉县,107.75613,34.269111,眉县首善镇健龙电动车经营店,陕西省,,
户县南环路大转盘,西安市,鄠邑区,108.626486,34.206391,户县新日电动车经营部,陕西省,,
陕西省咸阳市乾县,咸阳市,乾县,108.239473,34.527551,乾县城关新日电动车行,陕西省,,
陕西省宝鸡市金台区东风路22号(宝鸡市自提司机88910368),宝鸡市,金台区,107.178002,34.3642,宝鸡市金台区新日电动车经销店,陕西省,,
兴平市西大街44号,咸阳市,彬州市,108.078379,35.037625,兴平市航空车行,陕西省,,
陕西省咸阳市渭城区乐育北路7号新日电动车,咸阳市,秦都区,108.715829,34.341181,咸阳市渭城区金阳光车行,陕西省,,
周至县中心东街七中对面新日电动车,西安市,周至县,108.226014,34.160319,周至县新日电动车经销部,陕西省,,
陕西省户县大王镇中心街新日专卖店,西安市,鄠邑区,108.64509,34.203941,户县大王申科精修摩托车部,陕西省,,
陕西省宝鸡市凤翔县南环路冯抽楼下,宝鸡市,凤翔县,107.402113,34.513338,凤翔县南环路娜娜电动车经销部,陕西省,,
陕西省陇县和滨东路新日专卖店,宝鸡市,陇县,106.864397,34.89305,陇县友诚电动车行,陕西省,,
陕西省周至终南镇雷家车行,西安市,周至县,108.361574,34.138992,周至县终南雷家自行车行,陕西省,,
陕西省彬县城关仲华车行（温州商贸城新日电动车）,咸阳市,彬州市,108.083847,35.039581,彬县城关仲华车行,陕西省,,
陕西省咸阳市礼泉县武装部东50米新日专卖,咸阳市,长武县,107.793215,35.207969,礼泉城关志玺电动自行车销售部,陕西省,,
陕西省咸阳市旬邑县供销商城院内,咸阳市,旬邑县,108.335392,35.111798,旬邑县城关新日电动车行,陕西省,,
陕西省汉中城固县南环二路中段,汉中市,城固县,107.33393,33.157131,城固县环球电动车经销行,陕西省,,
安康市汉滨区安悦街60号（原仓房楼）,安康市,汉滨区,109.025009,32.696414,安康市汉滨区明静商贸有限责任公司,陕西省,,
陕西省西乡县汉白路西段,汉中市,西乡县,107.762349,32.98315,西乡县汉白路新日电动车经营部,陕西省,,
西安市未央区西宝疏导路106号朱宏物流3区,西安市,未央区,108.819865,34.28779,西安米博商贸有限公司,陕西省,,
陕西省渭南市蒲城县南源双酒新村建华驾校对面西北摩托公司,渭南市,蒲城县,109.604046,34.9363,蒲城县西北摩托车销售有限责任公司,陕西省,,
陕西省商洛市山阳县西关丰阳塔下新日专卖店,商洛市,商州区,109.936958,33.866775,山阳县新日电动车专卖店(直营),陕西省,,
渭南市临渭区东风大街中段商业一条街,渭南市,临渭区,109.500605,34.500868,临渭区兄弟车行,陕西省,,
陕西省西安市蓝田县蓝新路北段,西安市,蓝田县,109.314935,34.166303,蓝田县龙飞车行,陕西省,,
陕西省华阴市西桥,渭南市,华阴市,110.092301,34.566096,华阴市顺腾电动车行,陕西省,,
阎良区文化东路,西安市,阎良区,109.233069,34.663757,西安市阎良区孙欢车行,陕西省,,
渭南市合阳县泰山东路,渭南市,合阳县,110.152794,35.241882,合阳县飞鸽电动车行,陕西省,,
陕西省西安市白杨寨宏发南库,西安市,雁塔区,109.037288,34.234817,西安市碑林区鸿润车行,陕西省,,
陕西省汉中市汉台区东大街街道虎头桥路,汉中市,汉台区,107.024911,33.081187,汉中市汉台区虎桥中路新日电动车经营部,陕西省,,
陕西省南郑县大河坎镇,汉中市,南郑区,107.028603,33.045262,黄丹丹,陕西省,,
贾旗路中段,汉中市,勉县,106.685585,33.176353,勉县朱氏电动车行,陕西省,,
陕西省汉中市宁强县汉源镇王家坝开发区,汉中市,宁强县,106.253504,32.823703,宁强县和平车行,陕西省,,
陕西省汉中市南郑县人民路路口,汉中市,南郑区,106.940621,33.007861,南郑县新日电动车经销部,陕西省,,
陕西渭南市韩城摩托车城,渭南市,韩城市,110.442847,35.476788,韩城市新城摩托车维修服务站(直营),陕西省,,
陕西省西安市高陵县东环路新日专卖,西安市,高陵区,109.090497,34.537336,高陵县红日电动车经销部,陕西省,,
陕西省西安市太华路龙钢北路陕西省五交文化公司交电库,西安市,未央区,108.956862,34.308836,西安办事处,陕西省,,
陕西省渭南市富平县车站大街新日专卖,渭南市,富平县,109.181759,34.744154,富平县范伟新日电动车行,陕西省,,
陕西省华县文体西路新日电动车专卖店,西安市,周至县,108.209492,34.161052,华县新日电动车经销部,陕西省,,
陕西省铜川市耀州区锦阳路中段(耀县),铜川市,耀州区,108.974286,34.907234,铜川市耀州区路路通新日电动车行,陕西省,,
陕西省榆林市靖边县东环南路体育场东大门对面新日专卖店,榆林市,靖边县,108.807784,37.594445,靖边县贵斌电动车门市,陕西省,,
陕西省榆林市西沙文化南路经贸委,榆林市,榆阳区,109.734778,38.275119,榆林市榆阳区鼎毅电动车行,陕西省,,
陕西省神木市麟州街中段新日电动车212-11号,西安市,莲湖区,108.88919,34.261974,神木县杨雨胜电动车行,陕西省,,
陕西省横山县横山中学对面,榆林市,横山区,109.292371,37.966698,新日电动车横山店,陕西省,,
陕西榆林绥德县龙湾千狮路22号,榆林市,绥德县,110.270679,37.513869,绥德县钱江摩托专卖店,陕西省,,
陕西榆林定边县二道西街,榆林市,定边县,107.590468,37.596135,定边县喜得顺商贸有限公司,陕西省,,
陕西省延安市子长县安定东路,延安市,子长县,109.686123,37.146224,子长新日电动车专卖店,陕西省,,
子长县安定东路16号,延安市,子长县,109.685348,37.145076,子长县钱江摩托专卖店(直营),陕西省,,
陕西省延安市洛川县百益街新日专卖店,延安市,洛川县,109.612668,35.543942,鹏飞家电专卖店(直营),陕西省,,
二街二马路东30米（汽配中心楼下）,渭南市,临渭区,109.509392,34.483177,龙江县亨通摩托车经销有限责任公司,陕西省,,
陕西省延安市常青路,延安市,甘泉县,109.358654,36.279954,陕西延安姬存强(直营),陕西省,,
陕西延安吴起县水利局门口,延安市,吴起县,108.175933,36.927216,嘉陵摩托吴起直营店,陕西省,,
陕西省延安市安塞县北城区老佛爷对面,延安市,宝塔区,109.489727,36.585455,陕西安塞新日专卖店(直营),陕西省,,
陕西省榆林市定边县二街三十号新日电动车大卖场,榆林市,定边县,107.596812,37.595846,定边县润江电动车门市,陕西省,,
陕西省府谷县天府路1号（滨苑酒店南一楼）,忻州市,保德县,111.070493,39.027633,府谷县新日电动车,山西省,,
陕西省榆林市米脂县青年路24号,榆林市,米脂县,110.179152,37.762272,米脂县电动车专卖店(直营),陕西省,,
陕西省商洛市商州民人街什字国税局,商洛市,商州区,109.941241,33.862703,商洛市收成实业有限责任公司(直营),陕西省,,
陕西省商洛市镇安县迎宾路133-134号,商洛市,镇安县,109.138113,33.422938,镇安县龙博车行(直营),陕西省,,
陕西省渭南合阳三马路中端,渭南市,合阳县,110.149466,35.237986,陕西省渭南合阳县（姚丽）(直营),陕西省,,
陕西省蓝田县蓝新路北段财政局家属楼隔壁,西安市,蓝田县,109.308038,34.159475,陕西蓝田新日电动车专卖店(直营),陕西省,,
陕西省西安市文化西路阎良二中对面,西安市,阎良区,109.227867,34.663254,陕西省西安市阎良区（高侠）(直营),陕西省,,
陕西省商洛市商州区名人街西段晨光路晨光公司,商洛市,商州区,109.923542,33.865944,商洛晨光（集团）科技有限责任公司(直营),陕西省,,
陕西省渭南市大荔县城关镇西环路,渭南市,大荔县,109.938379,34.794001,陕西大荔县新日电动车,陕西省,,
陕西蒲城县红旗路中段,渭南市,蒲城县,109.586743,34.955165,蒲城县华奇车行(直营),陕西省,,
陕西省渭南市临渭区东风街268号一楼路南,渭南市,临渭区,109.440234,34.500668,渭南市临渭区爱华车行(直营),陕西省,,
陕西省汉中市镇巴县泾洋镇新街,汉中市,镇巴县,107.896195,32.536671,镇巴新日电动车专卖店(直营),陕西省,,
陕西省西乡县汉白路东段种子公司对面,汉中市,西乡县,107.771537,32.987678,西乡县安顺摩托车销售部(直营),陕西省,,
陕西省渭南市大荔县,渭南市,大荔县,109.941658,34.797184,大荔县建军电动车行(直营),陕西省,,
陕西大荔县电动车一条街,渭南市,大荔县,109.941658,34.797184,大荔县新日电动车专卖店,陕西省,,
陕西省商洛市商州区东新路天骄国际楼下-新日电动车专卖店,商洛市,商州区,109.951565,33.858617,商洛市收成实业有限责任公司,陕西省,,
潼关县桃林路北段,渭南市,潼关县,110.24388,34.548142,陕西潼关新日专卖店(直营),陕西省,,
西安市临潼区姜寨路中段,西安市,临潼区,109.210491,34.372823,西安市临潼区四方摩托车行(直营),陕西省,,
陕西安康市平利县电力局对面,安康市,平利县,109.369358,32.385117,平利县新日电动车专卖店(直营),陕西省,,
陕西省汉中勉县贾旗路,汉中市,勉县,106.685202,33.155459,朱氏车行,陕西省,,
汉中市汉台区虎桥路,汉中市,汉台区,107.020942,33.081169,汉中市汉台区虎桥路新日电动车经营部,陕西省,,
南郑县周家坪东大街,汉中市,南郑区,106.932412,32.995339,南郑县阳光铃木电动车行(直营),陕西省,,
"陕西省政府汉中市汉台区北团结街中段\n', '配件接收地址：汉中市汉台区虎头桥路新日电动车售后维修中心\n', '配件接收人：徐鸿波",汉中市,汉台区,107.02462,33.08078,汉中凯旋商贸有限责任公司(直营),陕西省,,
陕西省汉中洋县文明西路76号新日专卖,汉中市,洋县,107.542536,33.224034,洋县汇通车行,陕西省,,
陕西省岐山县南大街邮局对面,宝鸡市,岐山县,107.623639,34.436112,陕西省岐山县新日电动车专卖店(直营),陕西省,,
陕西省宝鸡市千阳县宝平路武装部对面,宝鸡市,千阳县,107.121738,34.64592,千阳县鸿图电动车车行(直营),陕西省,,
陕西省宝鸡市眉县首善镇平阳街东段机电市场对面,宝鸡市,眉县,107.754207,34.272845,眉县首善镇岐眉车行(直营),陕西省,,
陕西省杨凌区康乐路172号,西安市,新城区,109.00957,34.267837,陕西省杨凌区(郭军昌)(直营),陕西省,,
陕西省咸阳市武功县人民路西段,咸阳市,武功县,108.200398,34.260204,陕西省咸阳市武功县（段鹏飞）,陕西省,,
陕西户县南环路中段（土地局对面）,西安市,高陵区,109.090287,34.538331,陕西户县世纪摩托车车行(直营),陕西省,,
陕西省咸阳市泾阳县泾干大街中段,咸阳市,泾阳县,108.839011,34.532841,泾阳县城关新日电动车经销部(直营),陕西省,,
陕西咸阳市三原县丰原街西段,咸阳市,三原县,108.949515,34.617206,三原乔氏摩托销售有限公司(直营),陕西省,,
陕西省乾县东新街16号,咸阳市,乾县,108.25318,34.526632,乾县新日电动车乾县专卖店,陕西省,,
绛帐镇迎宾大道,宝鸡市,扶风县,107.933746,34.257286,扶风县绛帐镇亚峰电动车行,陕西省,,
陕西省扶风县法门寺四面佛新日电动车,宝鸡市,扶风县,107.904116,34.437337,扶风县城杨晓,陕西省,,
户县草堂路,西安市,鄠邑区,108.608168,34.107907,户县克乐电动车行(直营),陕西省,,
陕西省宝鸡市扶风县南二路十字二号门面,宝鸡市,扶风县,107.89106,34.372914,扶风县新日电动车专卖店(直营),陕西省,,
汉武路,汉中市,汉台区,107.044783,33.116724,九号新日电动车,陕西省,,
汉武路20-22号,汉中市,汉台区,107.047622,33.183569,武乡新日电动车,陕西省,,
226县道附近,汉中市,勉县,106.892568,33.164623,老道寺新日电动车,陕西省,,
纪水路东50米,汉中市,勉县,106.82855,33.159107,新街子新日电动车,陕西省,,
中学路154号,汉中市,略阳县,106.155155,33.336143,略阳新日电动车,陕西省,,
毕七路与汉黄路交叉口东南50米,汉中市,城固县,107.229844,33.085656,南乐新日电动车,陕西省,,
咸兴路与留渭路交叉口北100米,咸阳市,秦都区,108.623208,34.314917,茂陵新日专卖店,陕西省,,
马连镇,咸阳市,乾县,108.34933,34.366802,马莲新日电动车,陕西省,,
薛姜路与218县道交叉口北150米,咸阳市,乾县,108.344113,34.408974,薛录新日电动车,陕西省,,
阡东镇街道中段,咸阳市,礼泉县,108.643003,34.51544,阡东新日专卖店,陕西省,,
322县道与三郑路交叉口东400米,咸阳市,礼泉县,108.565619,34.501653,西张堡新日电动车,陕西省,,
店张街道南新街,咸阳市,兴平市,108.544295,34.429534,店张新日电动车,陕西省,,
姜村镇,咸阳市,乾县,108.25192138552669,34.39128923910827,新日电动车姜村专卖店,陕西省,,
312国道东50米,咸阳市,永寿县,108.1469,34.684617,永寿新日电动车,陕西省,,
楼观台终台路108省道交口北100米(环山路北300米),西安市,周至县,108.326855,34.077954,楼观新日电动车,陕西省,,
104省道北50米,咸阳市,武功县,108.15558,34.333661,代家新日电动车,陕西省,,
104省道南50米,咸阳市,武功县,108.293915,34.298779,长宁新日电动车,陕西省,,
104省道南50米,咸阳市,武功县,108.20725,34.32382,贞元新日电动车,陕西省,,
西郑路与236乡道交叉口南50米,西安市,长安区,109.057227,34.040178,王莽新日电动车,陕西省,,
九成宫镇,宝鸡市,麟游县,107.78631806373598,34.66945229927586,新日电动车麟游专卖店,陕西省,,
大雁塔街道,西安市,雁塔区,108.9792747795582,34.23119603412057,西安经九路,陕西省,,
北关街道,西安市,莲湖区,108.94644320011139,34.27807706740642,西安北关,陕西省,,
韦曲街道,西安市,长安区,108.94533410668373,34.16442259535984,西安韦曲,陕西省,,
太华路街道,西安市,新城区,108.97368907928465,34.2883492055707,西安太华路,陕西省,,
富五路与316国道交叉口东南100米,安康市,汉滨区,108.889882,32.722601,五里新日电动车,陕西省,,
城关街道,渭南市,蒲城县,109.59596559405328,34.95818655963689,蒲城新日专卖店,陕西省,,
文汇路街道,咸阳市,渭城区,108.74079421162604,34.347044717035196,新日电动车咸阳中储店,陕西省,,
长乐坊街道,西安市,碑林区,108.99213999509814,34.264038665094716,西安伞塔路,陕西省,,
文化东路北50米,西安市,阎良区,109.232085,34.663748,阎良新日,陕西省,,
城关街道,渭南市,富平县,109.17800500988963,34.74477084584631,富平新日,陕西省,,
新城街道,渭南市,韩城市,110.45547410845757,35.481691631929166,韩城新日,陕西省,,
城关街道,渭南市,合阳县,110.15064507722855,35.24238581971933,合阳新日,陕西省,,
红柳沟镇,榆林市,定边县,107.32010453939439,37.45056617634612,定边红柳沟新日电动车,陕西省,,
定边街道,榆林市,定边县,107.59046852588654,37.59613544050559,定边新日电动车,陕西省,,
陈村镇,宝鸡市,凤翔县,107.27252215147018,34.47322740568189,新日电动车凤翔陈村专卖店,陕西省,,
天王镇,宝鸡市,陈仓区,107.45529189705849,34.309818018543176,新日电动车宝鸡天王专卖店,陕西省,,
城关街道,渭南市,澄城县,109.93545681238174,35.172766892848806,澄县九路店,陕西省,,
陈杨寨街道,咸阳市,秦都区,108.71113032102585,34.311324551320524,新日电动车咸阳陈阳寨店,陕西省,,
太华路街道,渭南市,华阴市,110.0813663005829,34.56231389113593,华阴新日,陕西省,,
华州镇,渭南市,华州区,109.759903,34.514031,华县新日,陕西省,,
张家畔街道,榆林市,靖边县,108.81051152944565,37.598754699463186,靖边新日电动车,陕西省,,
航宇路街道,榆林市,榆阳区,109.72627267241478,38.275246948525016,横山新日电动车,陕西省,,
文化南路二号,榆林市,榆阳区,109.7341,38.278228,榆林新日电动车,陕西省,,
解放街道,渭南市,临渭区,109.5025147497654,34.50066153021075,渭南新日东风大街店,陕西省,,
陕西省渭南韩城市董村摩托车城,渭南市,韩城市,110.455754,35.482776,韩城市兴盛车行董村摩托城分店,陕西省,,
城关街道,咸阳市,礼泉县,108.43329638242722,34.483676827418385,新日电动车礼泉专卖店,陕西省,,
神木镇,榆林市,神木市,110.49457535147668,38.83372081056147,神木新日电动车,陕西省,,
大保当镇,榆林市,神木市,109.9963054060936,38.63302027040869,大保档新日电动车,陕西省,,
凤鸣镇,宝鸡市,岐山县,107.62752994894983,34.43938494325441,新日电动车岐山专卖店,陕西省,,
横水镇,宝鸡市,凤翔县,107.52398058772087,34.46865122595423,新日电动车凤翔横水专卖店,陕西省,,
名州镇,榆林市,绥德县,110.26872664690018,37.5106460512021,绥德新日电动车,陕西省,,
虢镇街道,宝鸡市,陈仓区,107.3781569302082,34.353823108561116,新日电动车陈仓专卖店,陕西省,,
东风路街道,宝鸡市,金台区,107.17490985989572,34.36439816470876,新日电动车宝鸡专卖店,陕西省,,
尧山镇,渭南市,蒲城县,109.57379311323167,34.98002005748646,蒲城祥村新日,陕西省,,
兴镇,渭南市,蒲城县,109.44190353155139,34.92108694089362,蒲城兴镇新日,陕西省,,
苏坊镇,渭南市,蒲城县,109.37654078006746,34.88779448522357,蒲城苏坊新日,陕西省,,
荆姚镇,渭南市,蒲城县,109.48699146509173,34.85739385253975,蒲城甜水井新日,陕西省,,
荆姚镇,渭南市,蒲城县,109.45917963981628,34.805571362835835,蒲城原任新日,陕西省,,
官底镇,渭南市,临渭区,109.45169091224672,34.715460583398325,蒲城官底新日,陕西省,,
党睦镇,渭南市,蒲城县,109.61812064051631,34.79754562713347,蒲城党睦新日,陕西省,,
陈庄镇,渭南市,蒲城县,109.60885360836983,34.87304118470537,蒲城陈庄新日,陕西省,,
罕井镇,渭南市,蒲城县,109.5925484597683,35.109188409202574,蒲城罕井新日,陕西省,,
尧山镇,渭南市,蒲城县,109.64614436030388,35.07844295103762,蒲城上王新日,陕西省,,
椿林镇,渭南市,蒲城县,109.6689096093178,35.0039162670976,蒲城敬母寺新日,陕西省,,
孙镇,渭南市,蒲城县,109.75633084774017,34.980867256179025,蒲城孙镇新日,陕西省,,
永丰镇,渭南市,蒲城县,109.9016073346138,35.00151048186647,蒲城东陈新日,陕西省,,
椿林镇,渭南市,蒲城县,109.66042846441269,34.96034412258852,蒲城椿林新日,陕西省,,
龙阳镇,渭南市,蒲城县,109.68066036701202,34.85484290114467,蒲城龙阳新日,陕西省,,
龙池镇,渭南市,蒲城县,109.75659504532814,34.803373393268785,蒲城鈐饵新日,陕西省,,
北城街27号,安康市,汉阴县,108.515216,32.890024,汉阴新日电动车,陕西省,,
城关镇紫府路(体育场负2层),安康市,紫阳县,108.531958,32.521674,紫阳新日电动车,陕西省,,
涧池镇东坝村二组,安康市,汉阴县,108.59778,32.842351,涧池新日电动车,陕西省,,
龙池镇,渭南市,蒲城县,109.71280530095102,34.784000977135534,蒲城金星新日,陕西省,,
农贸街与316国道交叉口西南150米,安康市,汉滨区,108.781215,32.737949,恒口新日电动车,陕西省,,
下新路与南江路交叉口东北200米附近,安康市,镇坪县,109.520244,31.881969,镇坪新日电动车,陕西省,,
长安东街1号,安康市,宁陕县,108.314283,33.310527,宁陕新日电动车,陕西省,,
大王镇,西安市,鄠邑区,108.65372970700265,34.20142971951093,新日电动车大王专卖店,陕西省,,
北环路南50米,安康市,石泉县,108.256943,33.038911,石泉新日电动车,陕西省,,
龙江街道,汉中市,汉台区,106.9677709043026,33.098702933280045,龙江新日,陕西省,,
丰仪镇咸阳,咸阳市,兴平市,108.415206,34.264284,丰仪新日电动车,陕西省,,
10路,渭南市,临渭区,109.532326,34.572674,辛市新日电动车,陕西省,,
104省道杨贵妃墓西侧路北侧,咸阳市,兴平市,108.359496,34.313082,马嵬新日电动车,陕西省,,
106县道西50米,咸阳市,礼泉县,108.631762,34.554372,烽火新日电动车,陕西省,,
桑镇,咸阳市,兴平市,108.351728,34.256651,桑镇新日电动车,陕西省,,
徐杨街道,西安市,临潼区,109.14674520492554,34.61617409840463,西安徐阳新日,陕西省,,
东大街道,西安市,长安区,108.77147734165193,34.05511721925217,西安东大新日,陕西省,,
红庙坡街道,西安市,莲湖区,108.93747121095659,34.286464412134244,西安文景路店,陕西省,,
城关街道,商洛市,商南县,110.87387189269066,33.53067884144496,商洛商南新日,陕西省,,
北田街道,西安市,临潼区,109.18938964605331,34.452130002984894,西安北田新日,陕西省,,
镇川镇,榆林市,米脂县,110.1084914803505,37.84967968521245,镇川新日电动车,陕西省,,
宫里镇,渭南市,富平县,109.15377661585809,34.83233651796186,富平宫里新日,陕西省,,
到贤镇,渭南市,富平县,109.27230879664423,34.90756481469353,富平小惠新日,陕西省,,
到贤镇,渭南市,富平县,109.2707075178623,34.90741524066117,富平流曲新日,陕西省,,
美原镇,渭南市,富平县,109.36170816421507,34.941556141425856,富平美原新日,陕西省,,
留古镇,渭南市,富平县,109.28035274147987,34.74124662528864,富平留古新日,陕西省,,
永安路街道,铜川市,耀州区,108.97305205464366,34.91305047403022,铜川新日,陕西省,,
蓝关街道,西安市,蓝田县,109.31761398911476,34.14929533751504,蓝田新日,陕西省,,
城关街道,商洛市,山阳县,109.87379416823387,33.53317179282529,商洛山阳新日,陕西省,,
马庄街道,咸阳市,秦都区,108.65254282951355,34.44354798291897,新日电动车咸阳马庄专卖店,陕西省,,
哑翠二路24,西安市,周至县,108.091368,34.181034,哑柏新日电动车,陕西省,,
陕西省延安市延川县秀延大桥旁,延安市,延川县,110.193514,36.878117,延川县乔春阳家用电器门市(直营),陕西省,,
陕西省延安市延川县秀延大桥旁,延安市,延川县,110.193514,36.878117,延川县乔春阳家用电器门市,陕西省,,
安边镇,榆林市,定边县,108.06052029132842,37.519645409096626,安边电动车行,陕西省,,
店塔镇,榆林市,神木市,110.4561969637871,38.99832283263848,店塔电动车门市,陕西省,,
延水关镇,延安市,延川县,110.22489935159683,36.83964066474039,延川新日电动车,陕西省,,
窑店街道,咸阳市,渭城区,108.8533839583397,34.402266770969035,新日电动车咸阳窑店专卖店,陕西省,,
王村镇,咸阳市,乾县,108.18888008594516,34.37535044335176,新日电动车乾县王村专卖店,陕西省,,
城关镇,宝鸡市,陇县,106.84882164001466,34.88663059994851,新日电动车陇县专卖店,陕西省,,
陕西省榆林市榆阳区文化南路新日电动车,榆林市,榆阳区,109.733039,38.279953,榆林市榆阳区鼎毅商贸有限公司,陕西省,,
吝店镇,渭南市,临渭区,109.60798859596254,34.72741497636913,蒲城吝店,陕西省,,
官路镇,渭南市,临渭区,109.72432136535646,34.735853108637635,蒲城官路,陕西省,,
汉宁路南50米,汉中市,南郑区,106.868506,33.016175,高台新日电动车,陕西省,,
102路,汉中市,汉台区,106.985573,33.157166,宗营新日电动车,陕西省,,
汉黄路山口子村东北方向350米,汉中市,南郑区,107.152186,33.047604,圣水新日电动车,陕西省,,
石堡镇,延安市,黄龙县,109.84037250280382,35.584467551696854,新日黄龙新日,陕西省,,
普集街道,咸阳市,武功县,108.20389240980148,34.25708564630894,新日电动车武功专卖店,陕西省,,
柳林镇,宝鸡市,凤翔县,107.31341242790225,34.54947079057331,新日电动车柳林专卖店,陕西省,,
陈村镇,宝鸡市,凤翔县,107.31632798910141,34.430827055445896,新日电动车槐芽专卖店,陕西省,,
陈村镇,宝鸡市,凤翔县,107.305267,34.460539,新日电动车尹家务专卖店,陕西省,,
彪角镇,宝鸡市,凤翔县,107.49871551990509,34.43456135337374,新日电动车彪角专卖店,陕西省,,
罕井镇,渭南市,蒲城县,109.57070723176005,35.123304676780265,蒲城东党新日,陕西省,,
杜桥街道,渭南市,临渭区,109.47784781455994,34.51097269368764,渭南市临渭区海兴城店,陕西省,,
331县道东50米,咸阳市,泾阳县,108.739534,34.502887,太平新日电动车,陕西省,,
桃园路街道,西安市,莲湖区,108.8897480070591,34.262428205112954,西安土门新日,陕西省,,
小丘镇,铜川市,耀州区,108.81361350417137,34.86822846160514,铜川小丘新日,陕西省,,
薛镇,渭南市,富平县,109.27735805511475,34.932526661754665,富平薛镇新日,陕西省,,
康乐路与美水路交叉口东北50米,延安市,甘泉县,109.347582,36.280366,甘泉新日电动车,陕西省,,
乾武路梁村镇政府,咸阳市,乾县,108.2183,34.426163,梁村新日电动车,陕西省,,
桥陵镇,渭南市,蒲城县,109.5019166171551,34.97592019523151,蒲城桥陵武家新日,陕西省,,
泾干街道,咸阳市,泾阳县,108.83687764406206,34.532585525719696,新日电动车泾阳专卖店,陕西省,,
长乐坊街道,西安市,碑林区,108.99783432483673,34.26406083225715,西安伞塔路二店,陕西省,,
城关街道,渭南市,富平县,109.17838320136072,34.74474109226828,富平新日二店,陕西省,,
陕西省西安市未央区朱宏物流园,西安市,未央区,108.819859,34.286146,西安智盛达电动车技术服务有限公司,陕西省,,
陕西省宝鸡市凤翔县南环路西段,宝鸡市,凤翔县,107.394979,34.515198,凤翔县西关晓卫车行,陕西省,,
陕西省商洛市商州区东新路5号,商洛市,商州区,109.95097,33.862846,商洛市商州区敏良摩托维修店,陕西省,,
陕西省汉中市城固县,汉中市,城固县,107.33393,33.157131,城固县霖镁摩托车经销部,陕西省,,
陕西省扶风县城新区南二路,宝鸡市,扶风县,107.888134,34.373559,扶风县新日电动车行,陕西省,,
陕西省咸阳市武功县西宝中线沿河路,咸阳市,武功县,108.211757,34.255851,武功县新日电动车专卖店,陕西省,,
陕西省安康市平利县,安康市,平利县,109.361864,32.388854,平利县顺信商贸有限公司,陕西省,,
新兴街道,咸阳市,秦都区,108.71599182486534,34.34118487521844,新日电动车咸阳乐育北路店,陕西省,,
316国道,安康市,汉滨区,108.838459,32.730952,大同新日电动车,陕西省,,
建民街道,安康市,汉滨区,108.95443618297577,32.70500378495613,建民新日电动车,陕西省,,
东大街道,西安市,长安区,108.77562001347543,34.06425666872845,西安五星新日,陕西省,,
原公镇,汉中市,城固县,107.27677,33.231611,原公新日电动车,陕西省,,
陕西省汉中市城固县文川镇文褒路,汉中市,城固县,107.169544,33.207482,文川新日电动车,陕西省,,
庄里镇,渭南市,富平县,109.0699991583824,34.81702496294893,富平庄里新日,陕西省,,
马畅镇,汉中市,洋县,107.3801,33.191591,马畅新日电动车,陕西省,,
陕西省汉中市南郑区新集镇金华村,汉中市,南郑区,106.803554,32.957672,金华新日电动车,陕西省,,
陕西省汉中市勉县勉阳街道贾旗路11号,汉中市,勉县,106.685416,33.156013,勉县新日电动车,陕西省,,
陕西省汉中市西乡县城关镇汉白路,汉中市,西乡县,107.773042,32.988233,西乡新日电动车,陕西省,,
陕西省汉中市南郑区大河坎镇红军路,汉中市,南郑区,107.020776,33.01158,卢家沟新日电动车,陕西省,,
尧山镇,渭南市,蒲城县,109.59175318479538,35.00894951220045,蒲城尧山新日,陕西省,,
尧山镇,渭南市,蒲城县,109.62324365973473,34.98111009621128,蒲城八府庄,陕西省,,
永丰镇,渭南市,蒲城县,109.84180212020874,34.95089790736148,蒲城坞坭新日,陕西省,,
陕西省安康市汉滨区五里镇建五路,安康市,汉滨区,108.892959,32.72171,五里新日电动车,陕西省,,
陕西省安康市镇坪县城关镇镇坪县人民政府,安康市,镇坪县,109.526873,31.883673,镇坪新日电动车,陕西省,,
陕西省安康市汉阴县城关镇北城街157号,安康市,汉阴县,108.51526,32.889533,汉阴新日电动车,陕西省,,
陕西省安康市石泉县城关镇北环路,安康市,石泉县,108.256785,33.038935,石泉新日电动车,陕西省,,
陕西省安康市汉滨区恒口镇农贸街汉滨区第二人民医院,安康市,汉滨区,108.778983,32.735335,恒口新日电动车,陕西省,,
陕西省安康市汉阴县涧池镇友谊路,安康市,汉阴县,108.594911,32.84207,涧池新日电动车,陕西省,,
陕西省安康市紫阳县城关镇桥沟路54号,安康市,紫阳县,108.537084,32.521571,紫阳新日电动车,陕西省,,
陕西省安康市汉滨区大同镇316国道,安康市,汉滨区,108.83844,32.730733,大同新日电动车,陕西省,,
陕西省安康市汉滨区建民街道建民土地管理所,安康市,汉滨区,108.954185,32.704809,建民新日电动车,陕西省,,
陕西省安康市宁陕县城关镇长安东街1号,安康市,宁陕县,108.314282,33.310528,宁陕新日电动车,陕西省,,
西人民路65号,榆林市,榆阳区,109.723373,38.287811,人民路新日电动车店,陕西省,,
马额街道,西安市,临潼区,109.38905462622644,34.40328920163452,西安马额新日,陕西省,,
驼峰路街道,榆林市,榆阳区,109.76677402853967,38.30624921469166,榆林市东沙新日电动车,陕西省,,
东坑镇,榆林市,靖边县,108.5701856017113,37.57348377171885,靖边县东坑镇新日,陕西省,,
老君殿镇,榆林市,子洲县,109.91635143756866,37.370614418221024,老君殿新日电动车,陕西省,,
陕西省汉中市洋县洋州镇中国农业银行(西关分理处),汉中市,洋县,107.54117,33.223624,洋县新日电动车,陕西省,,
银州街道,榆林市,米脂县,110.17053231596948,37.76187615295605,米脂新日电动车,陕西省,,
陕西省汉中市城固县柳林镇劲松路,汉中市,城固县,107.190505,33.150074,崔家山新日电动车,陕西省,,
陕西省汉中市南郑区阳春镇南郑区阳春镇人大主席团,汉中市,南郑区,106.907493,33.035062,阳春桥新日电动车,陕西省,,
灞桥街道,西安市,灞桥区,109.0735477209091,34.31227498235689,西安灞桥新日,陕西省,,
汉城街道,西安市,未央区,108.91935825347902,34.34870559544457,西安庞马新日,陕西省,,
郭杜街道,西安市,长安区,108.87400075793266,34.159984911014305,西安郭杜新日,陕西省,,
韦曲街道,西安市,长安区,108.94529655575754,34.16442259535984,西安韦曲新日速修,陕西省,,
府谷镇,忻州市,保德县,111.06049060821533,39.02724793350667,府谷新日,山西省,,
流曲镇,渭南市,富平县,109.24994856119156,34.817460965489026,富平王寮新日,陕西省,,
陕西省汉中市南郑区油坊街71号,汉中市,南郑区,107.026231,33.035231,大河坎新日电动车,陕西省,,
陕西省汉中市南郑区红庙镇人民政府,汉中市,南郑区,106.920404,32.86236,红庙新日电动车,陕西省,,
商镇,商洛市,丹凤县,110.27366995811462,33.70327457880897,丹凤商镇,陕西省,,
等驾坡街道,西安市,雁塔区,109.03606653213502,34.23060837289794,西安田马路新日速修,陕西省,,
洪庆街道,西安市,灞桥区,109.11745145916939,34.31050150036651,西安洪庆新日速修,陕西省,,
陕西省安康市平利县城关镇新正街61号鑫华御庭,安康市,平利县,109.372394,32.384128,平利新日电动车,陕西省,,
陕西省汉中市城固县博望街道晓智建材家家乐购物中心(城固店),汉中市,城固县,107.326166,33.147411,城固新日电动车,陕西省,,
桥沟街道,延安市,宝塔区,109.50553357601169,36.60982010663181,延安市新日电动车,陕西省,,
虢镇街道,宝鸡市,陈仓区,107.37805232405664,34.3538751457096,嘉陵摩托陈仓店,陕西省,,
滦镇街道,西安市,长安区,108.82696956396104,34.065268769363485,西安滦镇新日,陕西省,,
双泉镇,渭南市,大荔县,110.07348865270616,34.96222136497354,西安大荔周家新日,陕西省,,
行者街道,西安市,临潼区,109.18038949370384,34.39651481238009,西安白庙新日,陕西省,,
下邽镇,渭南市,临渭区,109.5121505856514,34.717358851408484,西安临渭下吉新日,陕西省,,
糜杆桥镇,宝鸡市,凤翔县,107.45771527290346,34.539667038435084,华锋车行,陕西省,,
城关街道,咸阳市,三原县,108.94405737519264,34.60697758665897,三原县金箭银锁电动车经销部,陕西省,,
滦镇街道,西安市,长安区,108.8223347067833,34.0560327640779,西安引镇新日,陕西省,,
五星街道,西安市,长安区,108.83272424340248,34.092984072452445,西安高桥新日,陕西省,,
二曲街道,西安市,周至县,108.2253634929657,34.160334474508204,周至新日电动车,陕西省,,
二曲街道,西安市,周至县,108.227753341198,34.160334474508204,周至新日电动车东街店,陕西省,,
吝店镇,渭南市,临渭区,109.64434996247293,34.758521361660925,蒲城凭信新日,陕西省,,
宫里镇,渭南市,富平县,109.13916260004045,34.89368956392153,富平雷村新日,陕西省,,
太华路街道,渭南市,华阴市,110.05970880389214,34.56968993547626,华阴西纪新日,陕西省,,
建章路街道,西安市,未央区,108.84104847908021,34.33365572840335,西安丰产路新日,陕西省,,
谭家街道,西安市,未央区,108.96523609757423,34.34719309017808,西安红旗厂新日（中间捷安特）,陕西省,,
长延堡街道,西安市,雁塔区,108.94489556550981,34.190968368726715,西安城南新日,陕西省,,
泾洋街道,汉中市,镇巴县,107.89503738284112,32.536703790095316,镇巴新日电动车,陕西省,,
龙头镇,汉中市,城固县,107.25611642003061,33.17252642199906,龙头新日电动车,陕西省,,
城关镇,宝鸡市,凤翔县,107.39551350474359,34.514718877640355,凤翔县新日电动车,陕西省,,
城关街道,渭南市,富平县,109.17666122317317,34.744932837360984,富平县新日电动车,陕西省,,
城关街道,渭南市,富平县,109.17843952775004,34.74479949742986,富平县新日电动车,陕西省,,
凤鸣镇,宝鸡市,岐山县,107.62384325265884,34.43900667591669,岐山新日电动车,陕西省,,
首善街道,宝鸡市,眉县,107.75488927960399,34.26389014495565,眉县新日电动车,陕西省,,
X308(沙中路),汉中市,城固县,107.29833,32.97721,天明镇新日电动车,陕西省,,
义合镇,榆林市,绥德县,110.4747860133648,37.50892158226217,绥德县王高峰修理部,陕西省,,
陕西省汉中市城固县五堵镇孙坪村,汉中市,城固县,107.428495,32.971691,龙超车行,陕西省,,
绛帐镇,宝鸡市,扶风县,107.94899940490723,34.26935418336266,扶风县绛帐镇新日电动车,陕西省,,
陕西省汉中市南郑区汉黄路,汉中市,南郑区,107.155206,33.047182,813新日电动车,陕西省,,
陕西省汉中市南郑区电视台专线,汉中市,南郑区,106.909198,32.932848,青树新日电动车,陕西省,,
西吴街道,咸阳市,兴平市,108.54191511869432,34.291786268530934,兴平市西安镇海斌车行,陕西省,,
陕西省汉中市城固县博望街道张骞路城固县中医院,汉中市,城固县,107.322262,33.139738,火车站新日速修,陕西省,,
蔡家坡镇,宝鸡市,岐山县,107.6143616437912,34.28525439900526,岐山五丈原社区连城车行,陕西省,,
陕西省汉中市城固县博望街道江湾村委会城固县江湾社区,汉中市,城固县,107.300496,33.128639,江湾社区新日速修,陕西省,,
赵村镇,咸阳市,兴平市,108.35209518671037,34.31050150036651,兴平市赵村镇文科车行,陕西省,,
长宁镇,咸阳市,武功县,108.29420641064645,34.298902602795394,武功县王志华电动车销售中心,陕西省,,
贞元镇,咸阳市,武功县,108.20701315999031,34.32404149067436,武功县贞元东飞电动车行,陕西省,,
104省道与228县道交叉口东北50米,咸阳市,武功县,108.15392,34.3337,代家李凡车行,陕西省,,
陕西省西安市临潼区新丰街道庆山路,西安市,临潼区,109.26525,34.420574,新丰新日电动车,陕西省,,
陕西省西安市临潼区铁炉街道临蓝路铁炉初级中学,西安市,临潼区,109.444442,34.392785,铁炉新日专卖店,陕西省,,
陕西省西安市长安区韦曲街道北长安街嘉禾丽都小区,西安市,长安区,108.945307,34.164421,城南路新日速修店,陕西省,,
陕西省西安市长安区韦曲街道北长安街嘉禾丽都小区,西安市,长安区,108.945322,34.164563,韦曲新日专卖店,陕西省,,
丰仪镇,咸阳市,兴平市,108.41364786028863,34.26374162455432,兴平市369摩托车行,陕西省,,
桑镇,咸阳市,兴平市,108.34623456001283,34.23377282472459,桑镇超凡电动车行,陕西省,,
美水街道,延安市,甘泉县,109.35101956129074,36.27652217493379,甘泉县孟新电动车门市,陕西省,,
梁村镇,咸阳市,乾县,108.21712777018548,34.429374660505495,乾县梁村胜国摩托修理部,陕西省,,
姜村镇,咸阳市,乾县,108.26178520917892,34.39251875001405,乾县姜村绿驹电动车专卖店,陕西省,,
薛家峁镇,榆林市,绥德县,110.35848274827005,37.38374938438628,绥德县永永摩托修理门市,陕西省,,
朝阳路中段,延安市,子长县,109.68549,37.14454,子长县随阳电动车门市,陕西省,,
陕西省渭南市大荔县安仁镇安堤路,渭南市,大荔县,110.085428,34.864931,大荔县安仁镇新日电动车专卖店,陕西省,,
城关镇南大街89号,渭南市,大荔县,109.944407,34.791299,大荔县城关镇新日电动车专卖店,陕西省,,
陕西省渭南市大荔县苏村镇苏三路,渭南市,大荔县,109.860994,34.639373,大荔县苏村镇新日电动车专卖店,陕西省,,
陕西省渭南市澄城县安里镇澄城县安里烟站,渭南市,澄城县,109.863491,35.218578,澄城县安里镇新日电动车专卖,陕西省,,
陕西省渭南市澄城县交道镇交道镇,渭南市,澄城县,109.926909,35.091,澄城县交道镇新日电动车专卖,陕西省,,
陕西省渭南市潼关县城关街道南营村,渭南市,潼关县,110.215396,34.561699,潼关县城关镇新日电动车专卖店,陕西省,,
阜寨镇,咸阳市,兴平市,108.59211266040803,34.274892117196465,咸阳阜寨新日电动车专卖,陕西省,,
泾渭街道,西安市,高陵区,109.00167122483255,34.48534936513822,西安市高陵区新祥电动车经销部,陕西省,,
前卫中学,西安市,蓝田县,109.226774,34.127377,蓝田县前卫镇军政摩托车行,陕西省,,
焦岱镇,西安市,蓝田县,109.24702763557436,34.06054256689074,蓝田县安驰车行,陕西省,,
陕西省西安市雁塔区电子城街道丈八东路唐园小区,西安市,雁塔区,108.921119,34.198491,电子正街新日社区店,陕西省,,
陕西省西安市莲湖区枣园街道大庆路,西安市,莲湖区,108.868254,34.269019,科技路速修店,陕西省,,
陕西省西安市碑林区长乐坊街道环城东路北段如家快捷酒店(永兴坊美食街中山门店),西安市,碑林区,108.972327,34.265346,新日北二环速修店,陕西省,,
陕西省汉中市南郑区大河坎镇中所营村南郑县华燕学校初中部,汉中市,南郑区,107.01434,33.03675,大河坎新日速修,陕西省,,
108国道,汉中市,汉台区,106.940262,33.133863,褒河新日速修,陕西省,,
陕西省西安市莲湖区红庙坡街道星火路西铁小学,西安市,莲湖区,108.922256,34.28392,星火路新日社区店,陕西省,,
文汇路街道,咸阳市,渭城区,108.74161496758462,34.34855390324845,新日中储店,陕西省,,
大庄镇,咸阳市,武功县,108.1659619510174,34.262247539061974,大庄旭东车行,陕西省,,
泾干大街中段,咸阳市,泾阳县,108.821044,34.53267,泾阳若风电动车行,陕西省,,
兴汉路18号附近,汉中市,汉台区,107.031251,33.080658,兴汉路新日速修,陕西省,,
陕西省西安市莲湖区桃园路街道劳动路20号西缆劳动路小区,西安市,莲湖区,108.908657,34.267087,土门兴庆路速修店,陕西省,,
陕西省西安市莲湖区北关街道农兴路24号院,西安市,莲湖区,108.942271,34.289837,农兴路新日速修店,陕西省,,
陕西省西安市长安区韦曲街道神禾一路,西安市,长安区,108.94342,34.129506,三水厂速修店,陕西省,,
马庄街道,咸阳市,秦都区,108.65844503045082,34.44212567122975,咸阳市秦都区左涛车行,陕西省,,
烽火镇,咸阳市,礼泉县,108.63181740045547,34.5546864683376,礼泉县烽火镇新日电动车行,陕西省,,
西张堡镇,咸阳市,礼泉县,108.56445506215096,34.50159433959777,礼泉西张堡摩托车销售部,陕西省,,
陕西省渭南市大荔县双泉镇相底村,渭南市,大荔县,110.035185,34.949944,大荔县双泉新日,陕西省,,
陕西省渭南市大荔县羌白镇陕西省渭南市大荔县羌白镇政府,渭南市,大荔县,109.817176,34.746179,大荔羌白小寇车行,陕西省,,
陕西省渭南市澄城县王庄镇202省道,渭南市,澄城县,109.851427,35.281045,澄城县王庄镇新日,陕西省,,
陕西省渭南市澄城县寺前镇108国道,渭南市,澄城县,110.041394,35.028776,澄城县寺前镇新日,陕西省,,
陕西省渭南市澄城县王庄镇澄城县刘家洼村卫生院,渭南市,澄城县,109.875919,35.360069,澄城县刘家洼新日,陕西省,,
陕西省渭南市白水县城关街道201省道,渭南市,白水县,109.593788,35.185697,白水县城关镇新日电动车,陕西省,,
陕西省渭南市澄城县韦庄镇食运来酱骨头韦庄富民综合市场,渭南市,澄城县,109.932476,34.970404,澄城县韦庄镇李常力车行,陕西省,,
小村镇,咸阳市,武功县,108.26727971434595,34.25865630513758,武功县小村镇电动车行,陕西省,,
陕西省西安市临潼区栎阳街道新马路,西安市,临潼区,109.224297,34.585119,栎阳新日专卖店,陕西省,,
渭滨街道,咸阳市,秦都区,108.62304255366325,34.31478282798302,咸阳市根锐电动车行,陕西省,,
陕西省渭南市合阳县金峪镇甘防路,渭南市,合阳县,110.025568,35.301114,合阳县金峪镇新日电动车,陕西省,,
陕西省渭南市澄城县冯原镇201省道,渭南市,澄城县,109.782806,35.376514,澄城县冯原镇刚刚摩配,陕西省,,
职田镇,咸阳市,旬邑县,108.37713494896889,35.21911711937953,五星钻豹电动车职田专卖店,陕西省,,
陕西省西安市莲湖区桃园路街道郭家口东小区,西安市,莲湖区,108.900035,34.274996,阿房二路新日速修,陕西省,,
陕西省安康市旬阳县城关镇102省道,安康市,旬阳县,109.363882,32.839942,旬阳新日电动车,陕西省,,
陕西省汉中市南郑区汉山街道东大街14,汉中市,南郑区,106.942672,33.004379,周家坪新日电动车,陕西省,,
陕西省汉中市洋县磨子桥镇洋县磨子桥镇中心卫生院,汉中市,洋县,107.523137,33.187458,磨子桥新日电动车,陕西省,,
苏坊镇,咸阳市,武功县,108.09441938996316,34.388435066314784,武功苏坊镇福田五星专卖,陕西省,,
陈仓镇,宝鸡市,金台区,107.17839539051056,34.36417565057589,宝鸡新日专卖店,陕西省,,
华胥镇,西安市,蓝田县,109.18784201145172,34.22707344868209,蓝田县华胥镇凯源摩托车行,陕西省,,
太平镇,咸阳市,泾阳县,108.73951479792595,34.50086047147702,泾阳县太平镇帅帅车行,陕西省,,
城关街道,咸阳市,三原县,108.94420087337495,34.60695440645371,三原新日专卖店,陕西省,,
口镇,咸阳市,泾阳县,108.70050877332686,34.706229882207595,曹龙车行,陕西省,,
陕西省西安市临潼区代王街道代王街7,西安市,临潼区,109.303906,34.396958,代王新日专卖店,陕西省,,
陕西省渭南市大荔县赵渡镇平民村,渭南市,大荔县,110.163671,34.799428,大荔县平民乡雅迪,陕西省,,
陕西省渭南市合阳县路井镇108国道,渭南市,合阳县,110.095992,35.078098,合阳县路井镇五星钻豹,陕西省,,
陕西省渭南市大荔县朝邑镇大荔县伯士卫生院,渭南市,大荔县,110.050857,34.787463,大荔伯士乡宗申农具,陕西省,,
陕西省渭南市大荔县两宜镇东高明村,渭南市,大荔县,110.123222,34.982296,大荔县高明镇摩托车修理,陕西省,,
陕西省渭南市合阳县黑池镇黑太路,渭南市,合阳县,110.215046,35.077801,合阳县黑池镇五星钻豹,陕西省,,
陕西省渭南市大荔县许庄镇高源餐厅,渭南市,大荔县,109.936217,34.912413,大荔县汉村绿驹,陕西省,,
陕西省渭南市大荔县朝邑镇朝渡路,渭南市,大荔县,110.105811,34.79233,大荔县朝邑镇摩托修理,陕西省,,
陕西省渭南市合阳县坊镇东合路,渭南市,合阳县,110.256408,35.202894,合阳坊镇安尔达,陕西省,,
陕西省渭南市大荔县朝邑镇沙底村,渭南市,大荔县,110.08733,34.740557,大荔沙底五星钻豹,陕西省,,
陕西省渭南市华州区柳枝镇北赤路,渭南市,华州区,109.858788,34.537079,华县柳枝宗申农机,陕西省,,
陕西省汉中市南郑区新集镇中国邮政储蓄银行(新集邮政支局),汉中市,南郑区,106.821797,33.000761,新集新日电动车,陕西省,,
陕西省渭南市大荔县赵渡镇赵渡镇,渭南市,大荔县,110.160811,34.755863,大荔县赵渡镇雅迪,陕西省,,
陕西省汉中市宁强县汉源街道羌州中路74街心花园,汉中市,宁强县,106.251276,32.837456,宁强新日电动车,陕西省,,
陕西省汉中市城固县三合镇秦家坝大桥,汉中市,城固县,107.38842,33.121641,秦家坝速修店,陕西省,,
陕西省汉中市城固县三合镇汉黄路,汉中市,城固县,107.355268,33.134319,三合社区速修店,陕西省,,
陕西省汉中市城固县博望街道城熊路,汉中市,城固县,107.307755,33.165232,五里庙速修店,陕西省,,
东风路35号,咸阳市,渭城区,108.741842,34.345574,咸阳市东风路新日维修站,陕西省,,
薛录镇,咸阳市,乾县,108.34471106529237,34.41013164108145,乾县薛录诚信车行,陕西省,,
泾干街道,咸阳市,泾阳县,108.88330802321434,34.54209737196929,泾阳县城关镇争战车行,陕西省,,
甘河镇,西安市,鄠邑区,108.51967155933383,34.16321082773648,鄠邑区甘河绿驹,陕西省,,
武屯镇,西安市,阎良区,109.30804386734964,34.637240997389554,西安市阎良区杨晓峰电动车行,陕西省,,
城关街道,商洛市,山阳县,109.87436145544054,33.53308236083501,山阳县发挥新日电动车行,陕西省,,
陕西省渭南市蒲城县永丰镇蒲城县永丰派出所,渭南市,蒲城县,109.865819,34.997656,蒲城县永丰镇宏喜车行,陕西省,,
陕西省渭南市蒲城县高阳镇305省道,渭南市,蒲城县,109.497677,35.125703,蒲城县高阳镇鹏飞车行,陕西省,,
益店镇,宝鸡市,岐山县,107.7595603466034,34.40380041228202,岐山益店镇新日,陕西省,,
陕西省渭南市大荔县韦林镇迪西村,渭南市,大荔县,110.018092,34.675783,大荔县迪村海锋车行,陕西省,,
常兴镇,宝鸡市,眉县,107.84018889069557,34.26428361191528,常兴镇建军摩托车行,陕西省,,
横渠镇,宝鸡市,眉县,107.96164333820344,34.19573387407368,横渠镇会军车行,陕西省,,
天王镇,宝鸡市,陈仓区,107.4699729681015,34.306051568334325,天王镇海军车行,陕西省,,
二太路东100米,宝鸡市,扶风县,107.966579,34.354786,杏林太白乡新日,陕西省,,
陕西省西安市临潼区徐杨街道徐杨街道,西安市,临潼区,109.146745,34.616177,徐阳新日电动车专卖店,陕西省,,
陕西省西安市未央区未央湖街道西安未央湖游乐园,西安市,未央区,108.987963,34.405564,西安未央湖新日电动车专卖,陕西省,,
九成宫镇,宝鸡市,麟游县,107.7992744743824,34.678259190000986,麟游县新日店,陕西省,,
陕西省西安市临潼区北田街道渭北工业区机光电产业园,西安市,临潼区,109.205128,34.465788,渭北新日专卖店,陕西省,,
陕西省西安市未央区六村堡街道施家寨村,西安市,未央区,108.878143,34.323609,释家寨新日电动车专卖,陕西省,,
陕西省西安市临潼区零口街道零口镇中心小学,西安市,临潼区,109.364472,34.476251,零口新日电动车专卖,陕西省,,
陕西省西安市临潼区交口街道南交路,西安市,临潼区,109.29726,34.577985,交口新日专卖店,陕西省,,
陕西省西安市临潼区新市街道新市街道工作委员会新市中心幼儿园,西安市,临潼区,109.183132,34.537233,新市新日电动车专卖,陕西省,,
渭滨街道,咸阳市,秦都区,108.64780336618425,34.30715493418638,西橡新日电动车,陕西省,,
南一路与南大街交叉口东南150米,宝鸡市,扶风县,107.897031,34.374372,扶风新日电动车,陕西省,,
陕西省西安市灞桥区纺织城街道纺一路71西安市灞桥区人民政府,西安市,灞桥区,109.06467,34.27341,灞桥新日速修,陕西省,,
陕西省渭南市合阳县城关街道合东路,渭南市,合阳县,110.20033,35.250911,合阳知堡乡新日,陕西省,,
陕西省渭南市临渭区官道镇官道街招待所,渭南市,临渭区,109.493375,34.628375,临渭区官道镇渭斌车行,陕西省,,
陕西省渭南市临渭区下邽镇罕固路景贤书院,渭南市,临渭区,109.511698,34.724585,临渭区下邽镇绿源,陕西省,,
陕西省渭南市合阳县甘井镇皇新路,渭南市,合阳县,110.100047,35.331651,合阳县甘井镇新日,陕西省,,
陕西省渭南市大荔县范家镇华蒲路,渭南市,大荔县,110.179203,34.956449,大荔县范家镇雅迪,陕西省,,
陕西省渭南市大荔县范家镇华蒲路,渭南市,大荔县,110.202769,34.956141,大荔县华原乡绿佳,陕西省,,
陕西省渭南市大荔县城关街道洛滨大道名士豪居,渭南市,大荔县,109.939349,34.810964,大荔县城关镇洛滨大道真爱车行,陕西省,,
陕西省渭南市大荔县下寨镇108国道,渭南市,大荔县,109.769185,34.711377,大荔县下寨镇雅迪车行,陕西省,,
陕西省渭南市华阴市华西镇202省道,渭南市,华阴市,109.953879,34.610681,华阴华西镇常青车行,陕西省,,
陕西省渭南市临渭区三张镇兰三路,渭南市,临渭区,109.469074,34.451007,临渭区三张镇五星钻豹,陕西省,,
陕西省渭南市澄城县赵庄镇冯庄路赵庄镇中小学,渭南市,澄城县,109.950702,35.359845,澄城县赵庄新日,陕西省,,
陕西省渭南市大荔县韦林镇新官路,渭南市,大荔县,110.055622,34.685826,大荔韦林镇宗申,陕西省,,
独李镇,咸阳市,三原县,109.12220433354378,34.63712293172096,独立镇大阳电动车,陕西省,,
陕西省汉中市南郑区大河坎镇油坊街71,汉中市,南郑区,107.026231,33.035231,大河坎雨点电动车行,陕西省,,
陕西省安康市汉滨区张滩镇308省道,安康市,汉滨区,109.083281,32.679994,张滩新日电动车,陕西省,,
