address,city,districd,lat,lon,name,province,street,town
江苏省淮安市深圳路（威尼斯水城隔壁）,淮安市,清江浦区,33.591118,119.073841,淮安清河区深圳路店,江苏省,,
江苏省苏州市常熟市阜湖路5号,苏州市,常熟市,31.639665,120.750307,苏州常熟市阜湖路店,江苏省,,
江苏省南通市崇川区濠西路5号,南通市,崇川区,32.01779,120.858728,南通崇川区濠西路店,江苏省,,
河南省郑州市管城区航海路豫英路向南100米路西,郑州市,管城回族区,34.723789,113.69577,郑州管城区航海路航母城店,河南省,,
河南省郑州市金水区嵩山北路二环支路电动车大卖场西排14号,郑州市,中原区,34.766651,113.63521,郑州金水区二环支路店,河南省,,
九江市庐山路149号,九江市,浔阳区,29.718271,115.982106,九江浔阳区庐山路店,江西省,,
安庆市迎江区孝肃路140号老公安局吴越街公交站牌,安庆市,迎江区,30.507185,117.045112,安庆迎江区孝肃路店,安徽省,,
鄂州市鄂城区官柳南路（摩托车市场）小牛电动专卖店,鄂州市,鄂城区,30.386249,114.873726,鄂州鄂城区官柳南路店,湖北省,,
黄冈市黄州区赤壁大道梦巴黎隔壁20米小牛电动	,黄冈市,黄州区,30.450566,114.886462,黄冈黄州区赤壁大道店,湖北省,,
武汉江夏区光谷一路梁山头社区店面3栋3号小牛电动专卖店,武汉市,江夏区,30.43163,114.441359,武汉江夏区光谷一路流芳市场店,湖北省,,
武汉市洪山区楚雄大道关山中学对面小牛电动专卖店,武汉市,洪山区,30.497543,114.408968,武汉洪山区雄楚大道店,湖北省,,
武汉市洪山区关山街道新竹路,武汉市,洪山区,30.4909399955,114.3988229094,武汉洪山区新竹路店,湖北省,,
武汉市江夏区民族大道山北杨公交站向前100米小牛电动专卖店,武汉市,洪山区,30.470256,114.393213,武汉江夏区民族大道店,湖北省,,
湖北省武汉市洪山区珞喻路306号,武汉市,洪山区,30.520167,114.367154,武汉洪山区珞喻路卓刀泉店,湖北省,,
武汉市青山区和平大道建设五路973号附9号小牛电动专卖店,武汉市,青山区,30.634907,114.392506,武汉青山区红钢城店,湖北省,,
江西省南昌市高新区火炬二路66号,南昌市,青山湖区,28.693734,115.951085,南昌高新区火炬二路店,江西省,,
江西省 景德镇市 景德镇市乐平市聚龙广场3-16号,景德镇市,乐平市,28.966094,117.114668,江西省景德镇市乐平市火车站店,江西省,,
南昌市青山湖区上海北路青湖村公寓25栋,南昌市,青山湖区,28.688111,115.941123,南昌青山湖区青湖村店,江西省,,
江西省南昌市东湖区叠山路386号,南昌市,东湖区,28.684378,115.89081,南昌东湖区叠山路店,江西省,,
湖北省武汉市洪山区南湖花木城小牛电动,武汉市,洪山区,30.481629,114.332553,武汉洪山区南湖花木城店,湖北省,,
武汉市洪山区徐东团结大道小红帽对面小牛电动专卖店,武汉市,洪山区,30.58791,114.356224,武汉洪山区团结大道店,湖北省,,
南昌市红谷滩新区金融大街554号壹号仓旁,南昌市,新建区,28.683098,115.848183,南昌红谷滩新区金融大街店,江西省,,
安徽省六安市裕安区磨子潭路,六安市,裕安区,31.740232,116.487077,六安裕安区磨子潭路店,安徽省,,
武汉市武昌区中南万国电动市场小牛电动专卖店,武汉市,武昌区,30.539949,114.334608,武汉市武昌区中南万国店,湖北省,,
南昌市新建区长征西路366号,南昌市,新建区,28.67945,115.822819,南昌新建区长征西路店,江西省,,
江西省南昌市上海路619号（十七中斜对面）,南昌市,青山湖区,28.665288,115.940981,南昌青山湖区上海路店,江西省,,
南昌市西湖区南浦路109号,南昌市,西湖区,28.667465,115.889003,南昌西湖区南浦路店,江西省,,
湖北省武汉市南湖瑞安街169号,武汉市,武昌区,30.513053,114.318469,武汉洪山区南湖瑞安街店,湖北省,,
南昌市西湖区桃苑大街157号,南昌市,西湖区,28.659705,115.890091,南昌西湖区桃苑大街店,江西省,,
江西省南昌市西湖区解放西路68号,南昌市,青云谱区,28.655499,115.916152,南昌西湖区解放西路店,江西省,,
江西省南昌市西湖区洪城路105号,南昌市,西湖区,28.655291,115.904057,南昌西湖区洪城路店,江西省,,
武汉市江岸区三阳路33号,武汉市,江岸区,30.59743,114.303385,武汉江岸区三阳路店,湖北省,,
湖北省武汉市江岸区胜利街136号,武汉市,江汉区,30.587286,114.297802,湖北省武汉市江岸区胜利街店,湖北省,,
湖北省武汉市金桥大道万国摩配市场801-803,武汉市,江岸区,30.6463527985,114.2928727529,武汉江岸区金桥大道万国店,湖北省,,
安徽省铜陵市淮河路55号爱玛专卖店,铜陵市,铜官区,30.933388,117.812841,安徽省铜陵市铜官山区淮河路店,安徽省,,
湖北省武汉市江汉区马场路金贸中心C区一层（湖北动力联盟汽车修理厂内）,武汉市,江汉区,30.613198,114.258823,湖北省武汉市江汉区金贸大厦店,湖北省,,
武汉市硚口区解放大道312号,武汉市,汉阳区,30.575396,114.239708,武汉硚口区解放大道太平洋店,湖北省,,
武汉市黄陂区巨龙大道下集还建小区小牛电动车,武汉市,黄陂区,30.708,114.2772,武汉黄陂区巨龙大道店,湖北省,,
湖北省武汉市江汉区红旗渠路新湾一路公交车站旁,武汉市,江汉区,30.62215,114.245568,武汉汉江区红旗渠路店,湖北省,,
武汉市汉阳区玫瑰街十里玫瑰二期H2-1栋3号	,武汉市,汉阳区,30.565504,114.218938,武汉汉阳区玫瑰街店,湖北省,,
武汉市汉阳区江汉二桥街道二桥D2区22栋水仙里81号（银杏街7号）	,武汉市,汉阳区,30.56856,114.20635,武汉汉阳区银杏街店,湖北省,,
武汉市硚口区解放大道78号-1（古田三路普爱医院往古田四路方向走150米）,武汉市,硚口区,30.592465,114.205983,武汉硚口区解放大道店,湖北省,,
南昌县莲塘镇莲塘中大道499号,南昌市,南昌县,28.547597,115.946257,南昌南昌县莲塘镇莲塘中大道店,江西省,,
湖北省武汉市东西湖区舵落口大市场17区2栋18号,武汉市,东西湖区,30.616089,114.161748,武汉东西湖区舵落口店,湖北省,,
安徽省合肥市包河区金寨南路,合肥市,蜀山区,31.805008,117.245224,合肥包河区金寨南路店,安徽省,,
南昌市进贤县民和镇进贤大道108-110号,南昌市,进贤县,28.360385,116.26418,南昌进贤县进贤大道店,江西省,,
合肥市蜀山区望江西路与金寨路交口往西50米（南七百大商业大厦斜对面）,合肥市,蜀山区,31.829716,117.262794,合肥蜀山区望江西路店,安徽省,,
合肥市蜀山区长江西路与潜山路交口越秀苑小区门面,合肥市,蜀山区,31.854565,117.225412,合肥蜀山区长江西路店,安徽省,,
安徽省合肥市蜀山区合作化南路安大西门门面A-18、A-19,合肥市,蜀山区,31.845708,117.251468,合肥蜀山区合作化路店,安徽省,,
合肥市蜀山区金牛路与史河路交叉口北50米中央美域B区对面,合肥市,蜀山区,31.86412,117.236083,合肥蜀山区金牛路店,安徽省,,
安徽省合肥市南一环与徽州大道交口省军区正对面,合肥市,包河区,31.848127,117.287877,合肥包河区南一环路店,安徽省,,
安徽省合肥市包河区包公街道南一环宁国路交口西50米地矿局C座门面人行天桥旁小牛授权服务店,合肥市,包河区,31.848232,117.290602,安徽省合肥市包河区南一环授权服务店,安徽省,,
安徽省合肥市庐阳区蒙城路31号（原合肥四中斜对面，近城隍庙公交站）,合肥市,庐阳区,31.864818,117.276547,合肥庐阳区蒙城路城隍庙店,安徽省,,
合肥市庐阳区阜阳路77号五环大厦一楼门面,合肥市,庐阳区,31.871238,117.286679,合肥庐阳区阜阳路店,安徽省,,
合肥市瑶海区长江东路与明光路交叉口东100米工商银行对面,合肥市,包河区,31.865655,117.30752,合肥瑶海区长江东路店,安徽省,,
安徽省合肥市瑶海区铜陵北路1号迅捷市场,合肥市,瑶海区,31.884791,117.325525,合肥瑶海区铜陵北路店,安徽省,,
黄山市屯溪区延安路64-6-7号,黄山市,屯溪区,29.709271,118.308098,黄山屯溪区延安路店,安徽省,,
湖北省孝感市城区槐荫大道251号（中医院旁）,孝感市,孝南区,30.917228,113.919424,孝感城区槐荫大道店,湖北省,,
安徽省宣城市泾县荷花塘城市文化广场天一电动车销售有限公司,宣城市,泾县,30.690677,118.406492,安徽省宣城市泾县荷花塘店,安徽省,,
安徽省南陵县城东南翔路128号,芜湖市,南陵县,30.925124,118.347576,安徽省芜湖市南陵县东南翔路店,安徽省,,
江西省上饶市弋阳县志敏大道汽车站1号楼优弧电动车专卖店,上饶市,弋阳县,28.383113,117.448295,江西省上饶市弋阳县志敏大道店,江西省,,
抚州市临川区环城南路钧天小区对面,抚州市,临川区,27.986707,116.362882,抚州临川区环城南路店,江西省,,
芜湖市镜湖区九华中路128号农业银行大厦对面,芜湖市,弋江区,31.326161,118.380623,芜湖镜湖区九华中路二店,安徽省,,
安徽省芜湖市镜湖区九华中路292号,芜湖市,弋江区,31.325254,118.380881,芜湖镜湖区九华中路店,安徽省,,
安徽省芜湖市芜湖县安徽省芜湖县芜屯北路县二中斜对面新大洲电动车,芜湖市,芜湖县,31.136622,118.586547,安徽省芜湖市芜湖县芜屯北路店,安徽省,,
江西省上饶市信州区庆丰路206号吉庆家园北4号,上饶市,信州区,28.455193,117.96301,上饶信州区江南商贸城店,江西省,,
淮南市谢家集区蔡新路谢一矿路口,淮南市,谢家集区,32.599812,116.865525,淮南谢家集区蔡新路店,安徽省,,
崇仁县巴山镇宝水大街,抚州市,崇仁县,27.754206,116.060135,江西省抚州市崇仁县宝水大街店,江西省,,
安徽省宣城市宁国市中溪北路绿宝商住楼1017号爱玛电动车专卖店,宣城市,宁国市,30.624064,118.979213,安徽省宣城市宁国市中溪北路店,安徽省,,
安徽省马鞍山市红旗北路于湖西路交叉口,马鞍山市,雨山区,31.69451,118.49342,马鞍山雨山区红旗北路店,安徽省,,
安徽省马鞍山市红旗北路于湖西路交叉口	,马鞍山市,雨山区,31.69451,118.49342,马鞍山雨山区红旗北路二店,安徽省,,
河南省信阳市平桥区平安大道法院对面,信阳市,平桥区,32.113427,114.131392,信阳平桥区平安大道店,河南省,,
安徽省淮南市田家庵区国庆中路与人民路交叉口,淮南市,田家庵区,32.648027,117.018514,淮南田家庵区国庆中路店,安徽省,,
河南省信阳市民权路中段白果树小区对面,信阳市,浉河区,32.116265,114.079944,信阳浉河区民权街店,河南省,,
新余市渝水区锦龙路168号,新余市,渝水区,27.806488,114.935987,新余渝水区锦龙路店,江西省,,
江苏省南京市高淳区淳溪镇温州商贸城11号（八佰伴对面）,南京市,高淳区,31.323141,118.877008,南京高淳区淳溪镇温州商贸城店,江苏省,,
南京市高淳区宝塔路148-3,南京市,高淳区,31.323772,118.879977,南京高淳区宝塔路店,江苏省,,
浙江省杭州市淳安县千岛湖镇龙门路65.67号,杭州市,淳安县,29.609853,119.054923,浙江省杭州市淳安县千岛湖镇龙门路店,浙江省,,
阜阳市颍州区颍河西路黄金海岸东20米小牛电动（老南洋大酒店正对面）,阜阳市,颍州区,32.89844,115.828914,阜阳颍州区颍河西路二店,安徽省,,
湖南省岳阳市岳阳楼区琵琶王路289号王力电动车店,岳阳市,岳阳楼区,29.361865,113.138898,湖南省岳阳市岳阳楼区巴陵中路店,湖南省,,
紫荆东路11号,衢州市,柯城区,28.969152,118.879643,浙江省衢州市柯城区紫荆东路店,浙江省,,
滁州市南谯区南谯中路与湖心西路交叉口银花医院楼下,滁州市,南谯区,32.286248,118.32636,滁州南谯区南谯中路店,安徽省,,
江苏省南京市雨花区西善桥交通商住楼102号,南京市,雨花台区,31.95951,118.719476,南京雨花台区西善桥店,江苏省,,
南京市江宁区秣陵正方东路宏健公寓05幢商铺  ,南京市,江宁区,31.839566,118.838787,南京江宁区秣陵店,江苏省,,
江西省宜春市袁州区朝阳路二区B4-B5,宜春市,袁州区,27.792488,114.378261,宜春袁州区朝阳路店,江西省,,
南京市铁心桥街道凤翔山庄1区4幢,南京市,雨花台区,31.963355,118.759266,南京雨花区铁心桥店,江苏省,,
江宁区殷巷诚信大道星光名座广场3栋104,南京市,江宁区,31.909282,118.838714,南京江宁区殷巷店,江苏省,,
南京市溧水区永阳街道大东门商业步行街11号,南京市,溧水区,31.649786,119.030559,南京溧水区大东门街店,江苏省,,
南京市溧水区天生桥大道366号大润发一楼,南京市,溧水区,31.637476,119.039976,南京溧水区天生桥大道大润发店,江苏省,,
江苏省南京市建邺区集庆门大街186-5号,南京市,建邺区,32.028263,118.744498,南京建邺区河西店,江苏省,,
蚌埠市蚌山区东海大道光彩大市场综合楼5栋115号,蚌埠市,蚌山区,32.918863,117.356171,蚌埠蚌山区光彩大市场店,安徽省,,
南京市浦口区顶山街道浦珠中路237—9号,南京市,浦口区,32.10496,118.6833,南京浦口区浦珠中路店,江苏省,,
南京市鼓楼区凤凰西街182-5	,南京市,建邺区,32.040962,118.747012,南京鼓楼区凤凰西街店,江苏省,,
南京市鼓楼区清凉门大街179号,南京市,鼓楼区,32.046367,118.74237,南京鼓楼区清凉门大街店,江苏省,,
南京市江宁区岔路口金盛路69号,南京市,江宁区,31.967673,118.818058,南京江宁区金盛路店,江苏省,,
江苏省南京市秦淮区双塘街道集庆路69号,南京市,秦淮区,32.018438,118.776761,南京秦淮区集庆路店,江苏省,,
南京市建邺区水西门大街55号-1,南京市,建邺区,32.030334,118.767403,南京建邺区水西门大街店,江苏省,,
南京市鼓楼区虎踞路45-2号,南京市,鼓楼区,32.045319,118.762082,南京鼓楼区虎踞路店,江苏省,,
南京市秦淮区莫愁路329号,南京市,建邺区,32.035988,118.774156,南京秦淮区莫愁路店,江苏省,,
安徽省亳州市利辛县青年路698号旁速派奇电动车,亳州市,利辛县,33.142675,116.19904,安徽省亳州市利辛县青年路店,安徽省,,
江苏省南京市江宁区上元大街622号,南京市,江宁区,31.955215,118.850341,南京江宁区上元大街店,江苏省,,
南京市秦淮区应天大街109号,南京市,秦淮区,32.00596,118.806442,南京秦淮区应天大街店,江苏省,,
江苏省南京市秦淮区龙蟠中路588号,南京市,秦淮区,32.014932,118.798184,南京秦淮区龙蟠中路店,江苏省,,
江苏省南京市鼓楼区热河南路34-4号,南京市,鼓楼区,32.082375,118.741629,南京鼓楼区热河南路店,江苏省,,
江苏省南京市鼓楼区古平岗1号5幢,南京市,鼓楼区,32.070711,118.75495,南京鼓楼区古平岗店,江苏省,,
南京市秦淮区户部街32号,南京市,秦淮区,32.035359,118.790266,南京秦淮区户部街店,江苏省,,
江宁区义乌小商品城B区12栋一层4号,南京市,江宁区,31.937338,118.877996,南京江宁区义乌商品城店,江苏省,,
蚌埠市龙子湖区淮河路67号,蚌埠市,蚌山区,32.942785,117.390244,蚌埠龙子湖区淮河路店,安徽省,,
南京市鼓楼区中山北路204号—10,南京市,鼓楼区,32.076379,118.764211,南京鼓楼区中山北路店,江苏省,,
江苏省南京市秦淮区光华路2号（石林家居广场旁）,南京市,秦淮区,32.017469,118.820551,南京秦淮区光华路店（原中和桥路店）,江苏省,,
南京市秦淮区瑞金路1-58号,南京市,秦淮区,32.032396,118.809461,南京秦淮区瑞金路店,江苏省,,
南京市江北高新区丽岛路中浦家园1幢101室,南京市,浦口区,32.12868,118.725272,南京江北高新区丽岛路店,江苏省,,
江苏省南京市玄武区珠江路605-2号,南京市,玄武区,32.04731,118.803237,南京玄武区珠江路店,江苏省,,
浦口区桥北路24号南京机器马车辆商场,南京市,浦口区,32.130647,118.730333,南京浦口区桥北路店,江苏省,,
南京市秦淮区后标营50号,南京市,秦淮区,32.030943,118.82514,南京秦淮区后标营路店,江苏省,,
南京市鼓楼区建宁路57-1号,南京市,鼓楼区,32.092091,118.771421,南京鼓楼区建宁路店,江苏省,,
南京市鼓楼区中山北路249号桃源村隔壁,南京市,鼓楼区,32.079901,118.783738,南京中山路服务中心,江苏省,,
江苏省南京市下关区金燕路95-3号,南京市,鼓楼区,32.105522,118.762225,南京下关区金燕路店,江苏省,,
南京市鼓楼区中央路300号,南京市,鼓楼区,32.086818,118.784301,南京鼓楼区中央门店,江苏省,,
江苏省南京市浦口区柳州东路京新333号,南京市,浦口区,32.140146,118.745762,南京浦口区柳州东路店,江苏省,,
南京市玄武区板仓街9号,南京市,玄武区,32.067526,118.818281,南京玄武区板仓街店,江苏省,,
江苏省南京市栖霞区和燕路260号,南京市,鼓楼区,32.098105,118.802638,南京栖霞区和燕路店,江苏省,,
江苏省南京市栖霞区和燕路260号,南京市,鼓楼区,32.097883,118.802827,南京栖霞区和燕路二店,江苏省,,
福建省武夷山市环岛西路6号,南平市,武夷山市,27.75043,118.03344,南平武夷山市环岛西路店,福建省,,
福建省南平市兴夷路17号,南平市,武夷山市,27.748328,118.031,福建省南平市武夷山市兴夷路店,福建省,,
江苏省南京市玄武区营苑北路8号,南京市,玄武区,32.10406,118.828251,南京玄武区营苑北路店,江苏省,,
南京市栖霞区马群街道马群街29号,南京市,栖霞区,32.049089,118.890249,南京栖霞区马群街店,江苏省,,
南京市六合区大厂旭东路488号,南京市,六合区,32.223703,118.758856,南京六合区大厂旭东路店,江苏省,,
江苏省南京市江宁区麒麟街道开城路63号,南京市,江宁区,32.050926,118.926396,南京江宁区麒麟门开城路店,江苏省,,
南京市六合区葛关路947号,南京市,六合区,32.245154,118.744773,南京六合区葛关路店,江苏省,,
东城人民东路阜康阳光大酒店南侧100米路东,阜阳市,界首市,33.250762,115.398533,安徽省阜阳市界首市东城人民东路店,安徽省,,
兰溪市丹溪大道44-1号,金华市,兰溪市,29.212581,119.463517,浙江省金华市兰溪市丹溪大道店,浙江省,,
湖州市安吉县浦源大道363号,湖州市,安吉县,30.634875,119.68749,湖州安吉县浦源大道店,浙江省,,
杭州市临安区钱王街800号 ,杭州市,临安区,30.227522,119.719933,杭州临安区钱王大街店,浙江省,,
江苏省镇江市镇江市句容市东大街祥龙电动车专卖店,镇江市,句容市,31.943717,119.177651,江苏省镇江市句容市镇江市句容市东大街店,江苏省,,
江苏省常州市溧阳市平陵中路319号,常州市,溧阳市,31.428653,119.493308,常州溧阳市平陵中路店,江苏省,,
南京市六合区雄州街道泰山路106号,南京市,六合区,32.341373,118.846403,南京六合区泰山路店,江苏省,,
丽水市遂昌县水阁路370号,丽水市,遂昌县,28.61321,119.270362,丽水遂昌县水阁路店,浙江省,,
金陵西路268号绿源电动车,萍乡市,安源区,27.64273,113.86024,江西省萍乡市安源区金陵西路店,江西省,,
吉安市吉州区永叔路滨江一期D栋门店	,吉安市,吉州区,27.106344,114.991028,吉安吉州区永叔路店,江西省,,
河南省驻马店驿城区雪松路贸易广场8栋21-23号,驻马店市,驿城区,32.991901,114.054418,驻马店驿城区贸易广场店,河南省,,
河南省驻马店市驻马店市乐山路北段金桂园临街门面,驻马店市,驿城区,32.993045,114.030139,河南省驻马店市驿城区乐山路店,河南省,,
浙江省金华市李渔路769号,金华市,婺城区,29.081548,119.652791,金华婺城区李渔路店,浙江省,,
河南省驻马店市河南省驻马店市驿城区交通路与自由街交叉口向北500米路西台铃电动车,驻马店市,驿城区,32.986887,114.007794,河南省驻马店市驿城区自由街店,河南省,,
湖南省长沙市长沙县远大二路1511-1515号小牛电动,长沙市,芙蓉区,28.210073,113.108476,长沙长沙县远大二路店,湖南省,,
湖南省长沙市长沙县星沙四区凉塘路与兴隆路交叉口小牛电动,长沙市,长沙县,28.241845,113.079557,长沙长沙县兴隆路星沙店,湖南省,,
荆州市沙市区北京中路电摩托车大市场内20号,荆州市,沙市区,30.309655,112.269156,荆州沙市区北京中路店,湖北省,,
浙江省杭州市余杭区凤新路195室1楼,杭州市,余杭区,30.265548,119.951578,杭州余杭区凤新路店,浙江省,,
浙江省杭州市富阳区桂花西路58-8号,杭州市,富阳区,30.0481,119.949186,杭州富阳区桂花西路店,浙江省,,
浙江省杭州市富阳区桂花西路58-8号,杭州市,富阳区,30.0481,119.949186,浙江省杭州市富阳区桂花西路店,浙江省,,
江苏省扬州市人民街75号,扬州市,仪征市,32.268793,119.180769,扬州仪征市人民街店,江苏省,,
仪征人民街75号,扬州市,仪征市,32.268748,119.180756,江苏省扬州市仪征市仪征人民街店,江苏省,,
湖州市德清县武康镇千秋街410号,湖州市,德清县,30.541522,119.964601,湖州德清县武康镇千秋街店,浙江省,,
江西省吉安市江西省吉安县庐陵大道气象局一楼,吉安市,吉安县,27.039155,114.918913,江西省吉安县庐陵大道店,江西省,,
江苏省常州市金坛区东环一路88-10号,常州市,金坛区,31.744345,119.582401,常州金坛区东环一路店,江苏省,,
长沙市芙蓉区嘉雨路427号旭日东升A栋104号（小牛电动）,长沙市,芙蓉区,28.192415,113.035049,长沙芙蓉区嘉雨路店,湖南省,,
湖南省长沙市芙蓉区马王堆电动车市场狮龙专卖店,长沙市,芙蓉区,28.191898,113.035782,湖南省长沙市芙蓉区马王堆店,湖南省,,
湖州长兴县仓前二街259号,湖州市,长兴县,31.002613,119.914152,湖州长兴县仓前二街店,浙江省,,
杭州市余杭区闲林东路7号,杭州市,余杭区,30.22973,120.004951,杭州余杭区闲林东路店,浙江省,,
湖南省长沙市雨花区朝晖路高桥火焰大市场六区十三栋六号,长沙市,雨花区,28.176444,113.022767,长沙雨花区朝晖路店,湖南省,,
湖南省长沙市开福区芙蓉中路一段296号,长沙市,开福区,28.21508,112.986644,长沙开福区芙蓉中路店,湖南省,,
开福区芙蓉中路盛大金禧国际金融中心旁GREENCITY融成狮龙,长沙市,开福区,28.215604,112.986258,湖南省长沙市开福区芙蓉中路店,湖南省,,
湖南省长沙市芙蓉区解放东路126号,长沙市,雨花区,28.190804,113.00667,长沙芙蓉区解放东路店,湖南省,,
湖南省长沙市雨花区车站南路696号-700号,长沙市,雨花区,28.175724,113.010217,长沙雨花区车站南路店,湖南省,,
江苏省无锡市宜兴宜城街道太滆东路43号,无锡市,宜兴市,31.368022,119.822278,无锡宜兴市太滆东路店,江苏省,,
湖南省长沙市雨花区韶山中路216号东塘工人文化宫北楼,长沙市,雨花区,28.165559,112.993461,长沙雨花区韶山中路东塘店,湖南省,,
湖南省长沙市岳麓区枫林一路601号,长沙市,岳麓区,28.20225,112.935247,湖南省长沙市岳麓区枫林一路店,湖南省,,
湖南省长沙市岳麓区枫林二路436号	,长沙市,岳麓区,28.210431,112.918804,长沙岳麓区枫林二路店,湖南省,,
杭州市双龙街与弘德路交叉口西溪银泰城南2号,杭州市,西湖区,30.292404,120.07359,杭州西湖区西溪银泰城店,浙江省,,
杭州市西湖区三墩路468号,杭州市,西湖区,30.322978,120.093385,杭州西湖区三墩路店,浙江省,,
杭州市西湖区古墩路429号,杭州市,西湖区,30.287001,120.098312,杭州西湖区古墩路店,浙江省,,
湖北省荆门市东宝区象山大道112号,荆门市,东宝区,31.024102,112.199413,荆门东宝区象山大道店,湖北省,,
浙江省杭州市杭州市文三西路321号,杭州市,西湖区,30.275608,120.098722,浙江省杭州市西湖区文三西路店,浙江省,,
杭州市西湖区文三西路317号,杭州市,西湖区,30.281694,120.105456,杭州西湖区文三西路店,浙江省,,
浙江省杭州市西湖区丰潭路329号一楼商铺,杭州市,西湖区,30.299821,120.105287,杭州西湖区丰潭路店,浙江省,,
江苏省镇江市润州区庄泉路与北府路交汇处(英伦酒店旁),镇江市,润州区,32.19297,119.434726,镇江润州区朱方路万达店,江苏省,,
丹阳市中山路文昌苑110-11-12,镇江市,丹阳市,31.996027,119.580177,镇江丹阳市中山路店,江苏省,,
江苏省镇江市朱方路68号,镇江市,润州区,32.206056,119.424823,江苏省镇江市润州区朱方路店,江苏省,,
浙江省杭州市拱墅区北软路172号,杭州市,拱墅区,30.332447,120.123918,杭州拱墅区北软路万达店,浙江省,,
浙江省杭州市西湖区文二路311号,杭州市,西湖区,30.282491,120.127283,杭州西湖区文二路叁壹壹店,浙江省,,
杭州西湖区文二路323号,杭州市,西湖区,30.282549,120.127215,杭州西湖区文二路叁贰叁店,浙江省,,
湖南省株洲市石峰区田红路39号（小牛电动）	,株洲市,石峰区,27.887301,113.131649,株洲石峰区田红路店,湖南省,,
江苏省镇江市京口区梦溪路50号,镇江市,京口区,32.207603,119.46392,镇江京口区梦溪路店,江苏省,,
安徽省宿州市埇桥区环城南路,宿州市,埇桥区,33.63639,116.979095,宿州埇桥区环城南路店,安徽省,,
浙江省杭州市拱墅区文一路42号-1,杭州市,西湖区,30.289865,120.146642,杭州拱墅区文一路店,浙江省,,
武阳东路119号,金华市,武义县,28.903797,119.825208,武义县武阳宏运摩托车配件经营部,浙江省,,
杭州拱墅绍兴路747号,杭州市,拱墅区,30.313138,120.149647,杭州拱墅区绍兴路店,浙江省,,
浙江省杭州市杭州市拱墅区大关路232号,杭州市,拱墅区,30.309217,120.15172,浙江省杭州市拱墅区大观路店,浙江省,,
浙江省湖州市南街376号,湖州市,吴兴区,30.860604,120.099388,湖州吴兴区南街店,浙江省,,
镇江市京口区丁卯街道纬五路沃德花园29-4	,镇江市,京口区,32.182016,119.498404,镇江京口区纬五路店,江苏省,,
浙江省杭州市滨江区滨盛路4126号,杭州市,滨江区,30.18821,120.160131,杭州滨江区滨盛路店,浙江省,,
湖南省株洲市芦淞区建设中路647号（文化园正门对面）,株洲市,天元区,27.850363,113.136692,株洲芦淞区建设中路店,湖南省,,
浙江省杭州市下城区德胜路143号,杭州市,拱墅区,30.299114,120.170275,杭州下城区德胜路店,浙江省,,
杭州市上城区复兴路143号,杭州市,上城区,30.213216,120.169622,杭州上城区复兴路店,浙江省,,
浙江省杭州市下城区德胜路143号,杭州市,拱墅区,30.299114,120.170275,浙江省杭州市下城区德胜路店,浙江省,,
浙江省杭州市下城区体育场路177号、179号,杭州市,下城区,30.2695,120.173409,杭州下城区体育场路店,浙江省,,
杭州市下城区东新路717号,杭州市,下城区,30.318636,120.17304,杭州下城区东新路店,浙江省,,
杭州市上城区建国南路6号,杭州市,上城区,30.237706,120.175125,杭州上城区望江路店,浙江省,,
浙江省杭州市下城区庆春路22号,杭州市,上城区,30.258189,120.186049,浙江省杭州市下城区庆春路店,浙江省,,
杭州市下城区永祥街160号,杭州市,下城区,30.343746,120.187118,杭州下城区永祥街店,浙江省,,
浙江省杭州市下城区永祥街6-8号,杭州市,下城区,30.343738,120.19012,浙江省杭州市下城区永祥街店,浙江省,,
浙江省杭州市杭州市上城区近江路1号,杭州市,上城区,30.240079,120.191907,浙江省杭州市上城区近江路店,浙江省,,
杭州市江干区池塘庙路26号,杭州市,江干区,30.296557,120.192867,杭州江干区池塘庙路店,浙江省,,
杭州市下城区庆春路22号,杭州市,下城区,30.263844,120.192695,杭州下城区庆春路店,浙江省,,
杭州市江干区池塘庙路26号,杭州市,江干区,30.296538,120.192888,浙江省杭州市江干区池塘庙路店,浙江省,,
杭州市上城区钱江路532号,杭州市,上城区,30.235373,120.197065,杭州上城区钱江路店,浙江省,,
浙江省杭州市凤起东路292号,杭州市,江干区,30.263462,120.205566,杭州江干区凤起东路店,浙江省,,
浙江省杭州滨江区江陵路1531号,杭州市,滨江区,30.203958,120.216823,杭州滨江区江陵路店,浙江省,,
江苏省扬州邗江区文昌西路205号,扬州市,邗江区,32.392046,119.401849,扬州邗江区文昌西路店,江苏省,,
杭州市江干区维萨新筑3幢底商12号,杭州市,江干区,30.292114,120.224575,杭州江干区明月桥路店,浙江省,,
浙江省杭州丁桥勤丰路308号,杭州市,江干区,30.356602,120.235841,杭州江干区丁桥勤丰路店,浙江省,,
浙江省金华市义乌市义东路65-8号（五岔路口）,金华市,义乌市,29.310561,120.081092,金华义乌市五岔路口店,浙江省,,
扬州市广陵区汶河南路11号,扬州市,邗江区,32.386194,119.433136,扬州广陵区汶河南路二店,江苏省,,
扬州市广陵区汶河南路32号小牛电动,扬州市,邗江区,32.387389,119.432883,扬州广陵区汶河南路店,江苏省,,
常州市钟楼区邹区镇乐棋大厦2号,常州市,钟楼区,31.794617,119.849186,常州钟楼区乐其大厦店,江苏省,,
义乌市世贸中心新光汇1002号商铺,金华市,义乌市,29.325314,120.107899,金华义乌福田路新光汇店,浙江省,,
扬州市广陵区文昌中路203号	,扬州市,广陵区,32.395217,119.450296,扬州广陵区文昌中路店,江苏省,,
江苏省常州市武进湖塘武宜中路33号,常州市,武进区,31.6821362312,119.942102785,常州武进区湖塘镇鸣凰店,江苏省,,
浙江省杭州市萧山区萧绍路1060号,杭州市,萧山区,30.16544,120.276221,杭州萧山区萧绍路店,浙江省,,
杭州市江干区金禾街180号,杭州市,江干区,30.308793,120.278213,杭州江干区九堡店,浙江省,,
河南省周口市川汇区交通路与芙蓉街交叉口东100米路北,周口市,川汇区,33.611567,114.637087,周口川汇区交通路店,河南省,,
绍兴市诸暨市暨阳街道艮塔路145号－13、14,绍兴市,诸暨市,29.723433,120.234485,绍兴诸暨市艮塔路店,浙江省,,
江苏省常州市钟楼区青枫颐景花园2-11,常州市,钟楼区,31.8048,119.894258,常州钟楼区星港路店,江苏省,,
杭州市余杭区乔司南街146号,杭州市,余杭区,30.347735,120.288275,杭州余杭区乔司南街店,浙江省,,
浙江省杭州市萧山区商城西路211-213号,杭州市,萧山区,30.168293,120.289103,杭州萧山区商城西路店,浙江省,,
江苏省常州市钟楼区怀德中路288-1号,常州市,钟楼区,31.780043,119.918304,常州钟楼区怀德中路店,江苏省,,
镇江大港新区赵声路金港花园17-3,镇江市,京口区,32.179165,119.67016,镇江大港新区赵声路店,江苏省,,
杭州市余杭区府前路32号,杭州市,余杭区,30.41755,120.300861,杭州临平府前路店,浙江省,,
杭州市余杭区临平南苑街道府前路32号,杭州市,余杭区,30.417511,120.300781,浙江省杭州市余杭区余杭区临平街道邱山大街店,浙江省,,
浙江省杭州市余杭区迎宾路314号,杭州市,余杭区,30.40854,120.303014,杭州余杭区临平迎宾路店,浙江省,,
  江苏省常州市武进区湖塘人民中路346号,常州市,武进区,31.727281,119.962973,常州湖塘镇人民中路店,江苏省,,
江苏省常州市天宁区兰陵北路532号，530-1号,常州市,天宁区,31.761926,119.947621,常州天宁区兰陵北路店,江苏省,,
浙江省湖州市织里镇公园路12号,湖州市,吴兴区,30.874522,120.260804,湖州织里镇公园路店,浙江省,,
江苏省常州市延陵西路135号,常州市,钟楼区,31.779294,119.953496,常州钟楼区南大街苏宁专区,江苏省,,
安徽省亳州市希夷大道北辰饭店北20米,亳州市,谯城区,33.865249,115.777862,亳州谯城区希夷大道店,安徽省,,
湖南省湘潭市岳塘区东方红步步高生活广场北门14-15号,湘潭市,岳塘区,27.830925,112.939783,湘潭岳塘区生活广场店,湖南省,,
湖南省湘潭市岳塘区霞光西路225号7号楼7号门面,湘潭市,岳塘区,27.835173,112.926022,湘潭岳塘区霞光西路店,湖南省,,
江苏省常州市天宁区博爱路177-1号,常州市,钟楼区,31.789779,119.964048,常州天宁区博爱路店,江苏省,,
浙江省杭州下沙白杨街道2号大街1139号,杭州市,江干区,30.309591,120.343892,杭州江干区下沙白杨街道店,浙江省,,
浙江省丽水市庆元县菇源路14号,丽水市,庆元县,27.622521,119.05791,浙江丽水市庆元县菇源路店,浙江省,,
      江苏省常州市天宁区飞龙东路红菱南村61-16号,常州市,天宁区,31.796697,119.970191,常州天宁区飞龙东路店,江苏省,,
湖南省长沙市宁乡县摩托车大市场铃木乖乖兔专卖店,长沙市,宁乡市,28.253137,112.545576,湖南省长沙市宁乡县玉潭摩配市场店,湖南省,,
江苏省常州市通江中路266号,常州市,新北区,31.822662,119.972772,常州新北苏宁专区,江苏省,,
体育场路87号,丽水市,云和县,28.108967,119.562931,浙江省丽水市云和县体育场路店,浙江省,,
江苏省常州市新北区丰臣凯林花园1-105,常州市,新北区,31.827613,119.977403,常州新北区丰臣国际广场店,江苏省,,
江苏省扬州市江都区长江路136号,扬州市,江都区,32.422598,119.580204,扬州江都区长江路店,江苏省,,
江苏省扬州市江都区长江路136号,扬州市,江都区,32.423145,119.580129,江苏省扬州市江都区长江路店,江苏省,,
江苏省宿迁市泗洪县青阳南路c10-71,宿迁市,泗洪县,33.45455,118.221093,宿迁泗洪县青阳南路店,江苏省,,
浙江省金华市东阳市江滨北街32号,金华市,东阳市,29.290483,120.236306,金华东阳江滨北街店,浙江省,,
江滨北街32号,金华市,东阳市,29.290483,120.236306,浙江省金华市东阳市江滨北街店,浙江省,,
河南省永城市新城区电动车大世界,商丘市,永城市,33.929093,116.435358,商丘永城市新城店,河南省,,
无锡市江阴市临港新城璜土镇澄路3532-3号小牛电动,无锡市,江阴市,31.856363,120.005035,江阴市璜土徐明车行,江苏省,,
江西省赣州市宁都县中山北路52号台铃电动车专卖店,赣州市,宁都县,26.478453,116.02142,江西省赣州市宁都县中山北路店,江西省,,
江苏省镇江市江苏省扬中市三茅镇新扬北路117号,镇江市,扬中市,32.23754,119.8042,江苏省镇江市扬中市三茅镇新扬北路店,江苏省,,
桐乡市崇福镇崇德东路29号,嘉兴市,桐乡市,30.527959,120.443318,嘉兴桐乡市崇福镇崇德东路店,浙江省,,
浙江省丽水市人民路173号 ,丽水市,莲都区,28.460278,119.911912,丽水人民路店,浙江省,,
河南省漯河市人民路解放路交叉口往东200米路北,漯河市,源汇区,33.568963,114.047669,漯河召陵区人民路店,河南省,,
浙江省丽水市解放街303-305号,丽水市,莲都区,28.447161,119.925189,丽水解放街店,浙江省,,
浙江省绍兴市柯桥区育才路277号,绍兴市,柯桥区,30.07416,120.477416,绍兴柯桥区育才路店,浙江省,,
安徽省淮北市相山区相山路桓谭小区2号	,淮北市,相山区,33.963281,116.799837,淮北相山北路桓谭小区店,安徽省,,
淮北市恒谭小区2号小牛电动车,淮北市,相山区,33.964501,116.799737,安徽省淮北市相山区恒谭小区店,安徽省,,
无锡市惠山区盛岸西路百乐和园二期商铺38-1,无锡市,惠山区,31.609287,120.240116,无锡惠山区盛岸西路店,江苏省,,
浙江省丽水市景宁县胜利路30号店面,丽水市,景宁畲族自治县,27.982262,119.634283,丽水景宁县胜利路店,浙江省,,
无锡市滨湖区信成道一期信成花园36-1,无锡市,滨湖区,31.494609,120.297983,无锡滨湖区信成大道店,江苏省,,
无锡市滨湖区梁清路123号,无锡市,滨湖区,31.559512,120.272288,无锡滨湖区梁清路店,江苏省,,
江苏省扬州市高邮市通湖路111-5号 雅马哈专卖店,扬州市,高邮市,32.787732,119.438123,江苏省扬州市高邮市通湖路店,江苏省,,
襄阳市襄城区檀溪路新吉阳酒店对面邮政银行旁,襄阳市,襄城区,32.009857,112.131082,襄阳襄城区檀溪路店,湖北省,,
湖北省襄阳市樊城区三元路电动车卖场,襄阳市,樊城区,32.071096,112.166568,襄阳樊城区三元路店,湖北省,,
襄阳市樊城区前进路中国烟草对面（老三元路摩托城）,襄阳市,樊城区,32.064378,112.158045,襄阳樊城区前进路店,湖北省,,
无锡市梁溪区中山路665号,无锡市,梁溪区,31.585069,120.295258,无锡梁溪区中山路店,江苏省,,
浙江省嘉兴市桐乡庆丰北路26号,嘉兴市,桐乡市,30.637087,120.551403,嘉兴桐乡市庆丰北路店,浙江省,,
江苏省无锡市梁溪区学前东路208号,无锡市,梁溪区,31.572858,120.318399,无锡梁溪区学前东路店,江苏省,,
无锡市新吴区太湖大道767号,无锡市,新吴区,31.569606,120.332441,无锡新吴区长江北路欧尚店,江苏省,,
浙江省绍兴市越城区环城西路295号,绍兴市,越城区,29.994688,120.572081,绍兴越城区环城西路店,浙江省,,
泰兴市大庆西路19号106号,泰州市,泰兴市,32.172428,120.015773,泰兴市小牛电动车专卖店,江苏省,,
泰兴市大庆西路17号,泰州市,泰兴市,32.172632,120.016349,泰州泰兴市大庆西路店,江苏省,,
泰兴市荷花池商住楼A幢101室,泰州市,泰兴市,32.172069,120.016659,泰州泰兴市大庆西路二店,江苏省,,
无锡市惠山区吴韵路326号	,无锡市,惠山区,31.675099,120.300815,无锡惠山区吴韵路店,江苏省,,
绍兴市越城区中兴南路560号蓝盾公寓10-14幢12A营业房,绍兴市,越城区,29.985589,120.593382,绍兴越城区中兴南路店,浙江省,,
桐乡市濮院镇凯旋路726号,嘉兴市,桐乡市,30.674772,120.623434,嘉兴桐乡市濮院镇凯旋路店,浙江省,,
江苏省江阴市人民西路186号,无锡市,江阴市,31.900305,120.246259,无锡江阴市人民路店,江苏省,,
苏州市吴中区木渎镇木渎商城14幢底层,苏州市,吴中区,31.25811,120.5192,苏州吴中区木渎商城店,江苏省,,
江苏省无锡市江阴市徐霞客峭岐中山路247号,无锡市,江阴市,31.813859,120.30804,无锡江阴市峭岐中山路店,江苏省,,
江西省赣州市兴国县潋江镇普惠路323号小刀电动车专卖店,赣州市,兴国县,26.327337,115.34791,江西省赣州市兴国县普惠路店,江西省,,
江苏省无锡市江阴市环城东路72号,无锡市,江阴市,31.903611,120.278055,无锡江阴市环城东路店,江苏省,,
江苏省无锡市江阴市高巷路577号,无锡市,江阴市,31.909618,120.276874,无锡江阴市高巷路店,江苏省,,
浙江省嘉兴市海宁市联合路130号,嘉兴市,海宁市,30.520614,120.682708,嘉兴海宁市联合路店,浙江省,,
泰州市海陵区青年北路58-3号,泰州市,海陵区,32.490537,119.913106,泰州海陵区青年北路店,江苏省,,
苏州市高新区何山路129号,苏州市,虎丘区,31.30606,120.55204,苏州高新区津西新天地店,江苏省,,
苏州市吴中经济技术开发区越溪街道越溪街403号,苏州市,吴中区,31.21008,120.58828,苏州吴中区越溪店,江苏省,,
江苏省苏州市吴江区盛泽东方中路515号,苏州市,吴江区,30.906683,120.66119,苏州吴江区盛泽东方中路店,江苏省,,
江苏省靖江市靖城街道新建街143-3,泰州市,靖江市,32.021275,120.266028,泰州靖江市新建街店,江苏省,,
靖江市新建街140号,泰州市,靖江市,32.021093,120.266184,江苏省泰州市靖江市新建街店,江苏省,,
江苏省徐州市睢宁县元府西路177号,徐州市,睢宁县,33.899943,117.937824,徐州睢宁县元府西路店,江苏省,,
苏州市姑苏区解放西路128号,苏州市,姑苏区,31.277578,120.595061,苏州姑苏区解放西路店,江苏省,,
嵊州市石璜镇会稽路69号,绍兴市,嵊州市,29.533804,120.65216,浙江省绍兴市嵊州市石璜镇会稽路店,浙江省,,
江苏省苏州市吴江区仲英大道137-139号,苏州市,吴江区,31.156228,120.632022,苏州吴江区仲英大道店,江苏省,,
湖南省常德市武陵区新河路681号（小牛电动）,常德市,武陵区,29.065545,111.683573,常德武陵区新河路店,湖南省,,
	湖南省常德市武陵区沅安路885号（小牛电动）,常德市,鼎城区,29.02711,111.694059,常德武陵区沅安路店,湖南省,,
苏州姑苏区胥江路175号,苏州市,姑苏区,31.28926,120.607122,苏州姑苏区胥江路店,江苏省,,
苏州市姑苏区阊胥路575号 （阊胥路与爱河桥红绿灯路口）,苏州市,姑苏区,31.308508,120.603882,苏州姑苏区阊胥路店,江苏省,,
湖北省宜昌市宜都市园林大道名都花园商业街秀水苑6号楼112号,宜昌市,宜都市,30.379011,111.447439,湖北省宜昌市宜都市台铃电动车,湖北省,,
江苏省苏州市吴江区松陵镇体育路35号,苏州市,吴江区,31.146105,120.654839,苏州吴江大发市场店,江苏省,,
江苏省苏州市吴中区石湖西路51号,苏州市,吴中区,31.252664,120.628252,苏州吴中区石湖西路店,江苏省,,
苏州市吴中区东吴北路78-3号,苏州市,吴中区,31.26778,120.62887,苏州吴中区东吴北路店,江苏省,,
苏州市姑苏区人民路1740号,苏州市,姑苏区,31.319056,120.620233,苏州姑苏区人民路店,江苏省,,
苏州市姑苏区人民北路3333号,苏州市,姑苏区,31.34431,120.61381,苏州姑苏区平江万达店,江苏省,,
江苏省苏州市姑苏区景德路182-1号,苏州市,姑苏区,31.316861,120.622695,苏州姑苏区景德路店,江苏省,,
江苏省无锡市江阴市周庄镇光辉路322号,无锡市,江阴市,31.856566,120.409016,无锡江阴市周庄镇光辉路店,江苏省,,
嘉兴市禾兴南路246号,嘉兴市,南湖区,30.755594,120.7491,嘉兴南湖区禾兴南路店,浙江省,,
苏州市姑苏区南园路36号 （汇邻广场对面）,苏州市,姑苏区,31.281571,120.638044,苏州姑苏区南园路店,江苏省,,
嘉兴市禾兴北路95号,嘉兴市,南湖区,30.77553,120.74672,浙江省嘉兴市秀洲区禾兴北路店,浙江省,,
苏州姑苏区干将东路666号,苏州市,姑苏区,31.30885,120.63187,苏州姑苏区和基广场店,江苏省,,
苏州市姑苏区竹辉路88号,苏州市,姑苏区,31.294047,120.64172,苏州姑苏区竹辉路店,江苏省,,
苏州市姑苏区干将东路13号102室,苏州市,姑苏区,31.31181,120.64882,苏州姑苏区干将东路店,江苏省,,
江苏省苏州市工业园区东环路1518号新苏大厦,苏州市,姑苏区,31.321313,120.647754,苏州工业园区东环路店,江苏省,,
江苏省徐州市铜山新区上海路交通银行北50米,徐州市,铜山区,34.186083,117.184796,徐州铜山新区上海路店,江苏省,,
江苏省徐州市铜山新区南京路3号小牛电动,徐州市,铜山区,34.186218,117.184638,徐州铜山新区南京路店,江苏省,,
宝应县安宜东路72-2,扬州市,宝应县,33.2361252,119.330882,扬州宝应县安宜东路店,江苏省,,
宝应安宜东路72-2,扬州市,宝应县,33.236152,119.330882,江苏省扬州市宝应县安宜东路,江苏省,,
苏州市吴中区郭巷游湖路翡丽湾北区3幢120号,苏州市,吴中区,31.252524,120.70104,苏州吴中区尹山湖阳光天地店,江苏省,,
江苏省徐州市铜山新区文沃市场文苑南路（贝贝幼儿园对面）,徐州市,铜山区,34.208222,117.195602,徐州铜山新区文沃店,江苏省,,
苏州市工业园区跨塘苏杭时代小牛专卖店,苏州市,苏州工业园区,31.34822,120.693771,苏州工业园区跨塘店,江苏省,,
江苏省徐州市泉山区金山东路公安局西300米,徐州市,泉山区,34.222649,117.187725,徐州泉山区金山东路矿大店,江苏省,,
徐州市泉山区金山东路10-6号小牛电动（泰山汇景花园对过）,徐州市,泉山区,34.222675,117.187611,徐州市泉山区矿大方圆店,江苏省,,
苏州工业园区西沈浒路588号新未来花园32幢109号,苏州市,苏州工业园区,31.33042,120.70932,苏州工业园区玲珑湾店,江苏省,,
南阳市卧龙区梅溪路中段路西54号梅溪商城小牛电动,南阳市,卧龙区,32.993162,112.531243,南阳卧龙区梅溪路店,河南省,,
河南省南阳市卧龙区新华西路20号,南阳市,卧龙区,33.003542,112.53701,南阳卧龙区新华西路店,河南省,,
河南省南阳市卧龙区新华西路与梅溪路交叉口牛丁锂电,南阳市,卧龙区,32.997476,112.530514,河南省南阳市卧龙区新华西路牛丁锂电,河南省,,
江苏省苏州大道东456号新光天地4F,苏州市,苏州工业园区,31.330206,120.71787,苏州工业园区新光天地店,江苏省,,
江苏省徐州市泉山区淮塔东路奎园北门对面（奎园农贸市场）,徐州市,泉山区,34.236295,117.202315,徐州泉山区淮塔东路店,江苏省,,
河南省南阳市卧龙区新华路五交化楼下184号（新华城市广场东50米路北）,南阳市,卧龙区,33.00602,112.52826,南阳卧龙区新华路店,河南省,,
江苏省徐州市云龙区兵马俑路大润发一楼	,徐州市,泉山区,34.242049,117.224636,徐州云龙区大润发店,江苏省,,
徐州市云龙区德政路6号爱客来超市南隔壁,徐州市,云龙区,34.2419362063,117.23867476,徐州云龙区德政路民富园店,江苏省,,
浙江省温州市泰顺县罗阳镇泰庆南路89号,温州市,泰顺县,27.555815,119.710098,温州泰顺县泰庆南路店,浙江省,,
浙江省温州市泰顺县罗阳镇文化路55号,温州市,泰顺县,27.554979,119.709997,浙江省温州市泰顺县文化路店,浙江省,,
江苏省徐州市泉山区西关大润发一楼东门,徐州市,泉山区,34.257837172,117.1668988466,徐州泉山区西关大润发店,江苏省,,
江苏省徐州市泉山区段庄广场金港大酒店隔壁,徐州市,泉山区,34.261202,117.157669,徐州泉山区段庄广场店,江苏省,,
徐州市泉山区建国西路31号,徐州市,泉山区,34.25865,117.184559,徐州泉山区建国西路店二店,江苏省,,
江苏省徐州市泉山区建国西路35号,徐州市,泉山区,34.258761,117.183416,徐州泉山区建国西路店,江苏省,,
江苏省泰州市姜堰区罗塘街道人民中路288号,泰州市,姜堰区,32.498568,120.150691,泰州姜堰区人民中路店,江苏省,,
江苏省徐州市泉山区王陵街道立德路徐州中立售后部,徐州市,泉山区,34.258549,117.18476,徐州建国西路服务体验中心,江苏省,,
苏州工业园区东沙湖路139号107室,苏州市,苏州工业园区,31.33182,120.74933,苏州工业园区九龙仓店,江苏省,,
浙江省绍兴市嵊州市嵊州大道41号（花鸟市场对面）,绍兴市,嵊州市,29.593856,120.827546,浙江省绍兴市嵊州市嵊州大道花鸟市场店,浙江省,,
湖北省宜昌市伍家岗区夷陵大道276号杨岔路汽渡雅派青年公寓,宜昌市,点军区,30.670923,111.320931,宜昌伍家岗区夷陵大道店,湖北省,,
江苏省徐州市青年东路69号楼7-13，H-Q轴,徐州市,云龙区,34.26239,117.200768,徐州云龙区青年路店,江苏省,,
江苏省徐州市云龙区铜山路1号1-102、2-201,徐州市,云龙区,34.261208,117.212394,徐州云龙区铜山路店,江苏省,,
徐州市云龙区万达广场五号门对面 ,徐州市,云龙区,34.2541792408,117.2454822063,徐州云龙区万达店,江苏省,,
江苏省张家港市暨阳中路175号,苏州市,张家港市,31.868173,120.546537,苏州张家港暨阳中路店,江苏省,,
江苏省徐州市泉山区黄河南路124号,徐州市,泉山区,34.273921,117.151671,徐州泉山区西苑店,江苏省,,
徐州市鼓楼区环城路8号（和信广场北侧）,徐州市,鼓楼区,34.271017,117.202459,徐州鼓楼区环城路和信广场店,江苏省,,
苏州工业园区北榭雨街110号,苏州市,苏州工业园区,31.33336,120.76428,苏州工业园区太阳城店,江苏省,,
徐州市鼓楼区中山北路立交桥上路东小牛电动服务中心,徐州市,泉山区,34.276177,117.185713,徐州中山北路服务体验中心,江苏省,,
江苏省徐州市鼓楼区中山北路与环城路交口处中山立交桥东头红绿灯处路北,徐州市,泉山区,34.276793,117.185675,徐州鼓楼区环城路店,江苏省,,
江苏省徐州市鼓楼区汉城西路第三十八中学隔壁,徐州市,泉山区,34.290951,117.134495,徐州鼓楼区汉城西路九里店,江苏省,,
江苏省宿迁市宿城区富康路393号（富康路派出所对面）,宿迁市,宿城区,33.953287,118.289687,宿迁宿城区富康路店,江苏省,,
江苏省宿城区西湖路 (中央商场肯德基对面）,宿迁市,宿城区,33.951179,118.301488,宿迁宿城区西湖路店,江苏省,,
徐州市鼓楼区下淀路15号综合楼109-108号,徐州市,鼓楼区,34.284735,117.2197,徐州鼓楼区下淀路二店,江苏省,,
江苏省徐州市鼓楼区中山北路睿商财富广场北邻(马场村站台后面）,徐州市,鼓楼区,34.290862,117.1898,徐州鼓楼区马场湖店,江苏省,,
江苏省淮安市清河区清河嘉园9幢199-13室,淮安市,清江浦区,33.586371,119.008482,江苏省淮安市清河区清河嘉园店,江苏省,,
湖北省宜昌市东山大道21号二十二中往葛洲坝方向 前行200米,宜昌市,西陵区,30.718946,111.293915,宜昌西陵区东山大道店,湖北省,,
江苏省徐州市鼓楼区君盛广场二楼卜蜂莲花超市内,徐州市,鼓楼区,34.295548,117.191948,徐州鼓楼区君盛广场卜蜂莲花店,江苏省,,
徐州市鼓楼区煤港路中段中国银行南隔壁,徐州市,鼓楼区,34.293692,117.207873,徐州鼓楼区煤港路店,江苏省,,
江苏省泰州市兴化市花园路67号,泰州市,兴化市,32.928636,119.842459,泰州兴化市花园路店,江苏省,,
江苏省淮安市清江浦区淮海路168号,淮安市,清江浦区,33.595397,119.012939,淮安清江浦区淮海路店,江苏省,,
徐州市金山桥经济开发区万豪绿城南门西20米,徐州市,鼓楼区,34.2848433008,117.2787040472,徐州经济开发区万豪绿城店,江苏省,,
淮安市楚州大道淮隆大厦（小牛电动）,淮安市,淮安区,33.504605,119.156287,淮安楚州区楚州大道店,江苏省,,
江苏省淮安市解放东路浦东花园南大门向西500米（小牛电动）,淮安市,清江浦区,33.58043,119.045192,淮安清浦区解放路店,江苏省,,
江苏省泰州兴化市建设东路10幢105室-106室（兴化一实小对面）,泰州市,兴化市,32.936707,119.841807,泰州兴化市建设路店,江苏省,,
苏州工业园区唯亭街道夷亭路3号,苏州市,苏州工业园区,31.3574,120.7929,苏州工业园区唯亭店,江苏省,,
浙江省嘉兴市嘉善县解放西路346号,嘉兴市,嘉善县,30.844952,120.915385,嘉兴嘉善县解放西路店,浙江省,,
浙江省嘉兴市海盐县新桥北路167-8号,嘉兴市,海盐县,30.522247,120.949695,嘉兴海盐县新桥北路店,浙江省,,
苏州市常熟市元和路324号小牛电动车,苏州市,常熟市,31.62547,120.72591,苏州常熟市元和路店,江苏省,,
河南省商丘市梁园区文化路凯旋路北100米路东,商丘市,睢阳区,34.425243,115.639862,商丘梁园区凯旋路店,河南省,,
新昌县城关镇南明路103号,绍兴市,新昌县,29.500028,120.909988,新昌县南明街道晓瑜电瓶车商行,浙江省,,
江苏省苏州市常熟市珠江路246号,苏州市,常熟市,31.664482,120.746466,苏州常熟市珠江路店,江苏省,,
河南省平顶山市卫东区建设路与开元路交叉口向东50米路北,平顶山市,新华区,33.736587,113.309857,平顶山卫东区开元路店,河南省,,
江苏省常熟市琴湖一区14幢富威车行,苏州市,常熟市,31.643794,120.76344,江苏省苏州市常熟市琴湖一区店,江苏省,,
浙江省台州市仙居县城区城北西路164号,台州市,仙居县,28.852069,120.719739,台州仙居城北西路店,浙江省,,
江苏省苏州市常熟市琴湖路168号,苏州市,常熟市,31.643229,120.765614,苏州常熟市琴湖路大润发专区,江苏省,,
浙江省台州市仙居城北西路164号小牛电动（杨梅精品酒店隔壁）,台州市,仙居县,28.856984,120.732573,浙江省台州市仙居县安洲街道城北西路店,浙江省,,
台州仙居县城北西路90-94,台州市,仙居县,28.857624,120.733665,台州仙居县城北西路二店,浙江省,,
浙江省嘉兴市平湖市当湖东路43号,嘉兴市,平湖市,30.686015,121.011983,嘉兴平湖市当湖东路店,浙江省,,
河南省许昌市魏都区西大街与劳动南路交叉口西北角,许昌市,魏都区,34.02838,113.82068,许昌魏都区劳动南路店,河南省,,
江西省赣州市于都县摩托车摩托车大卖场狮龙专卖店,赣州市,于都县,25.959688,115.40878,江西省赣州市于都摩托车市场店,江西省,,
昆山市萧林中路699号-18,苏州市,昆山市,31.403858,120.955032,苏州昆山市九方城店,江苏省,,
苏州市昆山市萧林路699-18号,苏州市,昆山市,31.40382,120.955339,昆山市九方城授权专卖店,江苏省,,
江苏省苏州市昆山市震川中路368号,苏州市,昆山市,31.378324,120.97716,苏州昆山市震川路金鹰店,江苏省,,
江西省瑞金市象湖镇绵水路立马电动车专卖店,赣州市,瑞金市,25.878435,116.035024,江西省赣州市瑞金市绵水路店,江西省,,
常熟市梅李镇江夏路37号,苏州市,常熟市,31.710643,120.875957,苏州常熟市梅李镇江夏路店,江苏省,,
宁波市余姚市舜水南路,宁波市,余姚市,30.04336,121.150472,宁波余姚市舜水南路店,浙江省,,
湖南省娄底市娄星区625号,娄底市,娄星区,27.727484,112.0002,湖南省娄底市娄星区金香电动车市场店,湖南省,,
海安市人民西路39号明道小学西200米,南通市,海安市,32.54158,120.45252,南通海安县人民西路店,江苏省,,
江苏省徐州市邳州建设路与民主路交叉口,徐州市,邳州市,34.312642,117.960063,徐州邳州市民主西路二店,江苏省,,
江苏省如皋市海阳路120号小牛电动授权体验店,南通市,如皋市,32.383813,120.569301,江苏省南通市如皋市海阳北路店,江苏省,,
江苏省南通市如皋市海阳路120号,南通市,如皋市,32.389831,120.575835,南通如皋市海阳路店,江苏省,,
福建省三明市永安市燕南五四路豪门御景141号,三明市,永安市,25.965164,117.362155,福建省三明市永安市豪门御景店,福建省,,
常熟市碧溪镇碧东路,苏州市,常熟市,31.72409,120.938402,常熟碧溪镇碧东路店,江苏省,,
上海市青浦区盈港路店255号,上海市,青浦区,31.158662,121.119542,上海青浦区盈港路店,上海市,,
福建宁德福安市广场北路45号,宁德市,福安市,27.08656,119.650499,宁德福安市阳头广场北路店,福建省,,
广场北路45号,宁德市,福安市,27.080194,119.643913,福安小牛电动专卖店,福建省,,
南通市港闸区越江路汇达广场5幢103号,南通市,港闸区,32.02776,120.826111,南通港闸区越江路店,江苏省,,
南通市崇川区任港路万豪华府20幢113号,南通市,崇川区,32.01088,120.850662,南通崇川区任港路店,江苏省,,
浙江慈溪市三北西大街75号,宁波市,慈溪市,30.174207,121.248224,宁波慈溪市三北西大街店,浙江省,,
福建省三明市尤溪县城关镇七五路85号1层5-9号店,三明市,尤溪县,26.166783,118.179523,福建省三明市尤溪县城关镇店,福建省,,
南通市崇川区红星路春晖花园20幢0109室,南通市,崇川区,31.9895200641,120.8718291092,南通崇川区红星路店,江苏省,,
南通市港闸区怡园北村39幢105室,南通市,港闸区,32.049332,120.850451,南通港闸区怡园店,江苏省,,
江苏省盐城市东台市江浙市场一楼南侧,盐城市,东台市,32.848023,120.331791,盐城东台市范公南路江浙市场店,江苏省,,
温州市瓯海区巨溪郭西村溪源路861号,温州市,瓯海区,27.995838,120.526691,温州瓯海区瞿溪店,浙江省,,
南通市崇川区工农路8号（华雅楼下）,南通市,崇川区,31.999827,120.883909,南通崇川区工农南路圆融广场店店,江苏省,,
河南省长葛市人民路152号,许昌市,长葛市,34.230972,113.782231,许昌长葛市人民路店,河南省,,
南通市崇川区桃园路七星花园7-112,南通市,崇川区,31.969615,120.900591,南通崇川区桃园路店,江苏省,,
太仓市人民南路145-4号,苏州市,太仓市,31.454879,121.103153,江苏省太仓市人民南路店,江苏省,,
南通市崇川区新港花苑49幢101,南通市,崇川区,31.9580962787,120.9107116798,南通崇川区新港花苑店,江苏省,,
南通市崇川区工农路472号,南通市,崇川区,32.029507,120.880563,南通崇川区工农路店,江苏省,,
江苏省南通市工农路472号小牛电动车授权体验店,南通市,崇川区,32.029507,120.880563,江苏省南通市工农路店,江苏省,,
江苏省苏州市太仓市城厢镇人民南路149-3号,苏州市,太仓市,31.4577444,121.1098421,苏州太仓市城厢镇人民南路店,江苏省,,
上海松江区乐都路418号（近西林路）,上海市,松江区,31.013196,121.221919,上海松江区乐都路店,上海市,,
南通市港闸区永达路和盛林荫水岸南门,南通市,港闸区,32.06014,120.883525,南通港闸区秦灶永达路店,江苏省,,
江西省赣州市章贡区环城路小牛电动17-9号,赣州市,章贡区,25.8517,114.936501,赣州章贡区环城路店,江西省,,
江苏省徐州市丰县青年路3号（刘邦广场南）,徐州市,丰县,34.697578,116.5928,徐州丰县青年路店,江苏省,,
上海松江区乐都路418号,上海市,松江区,31.013117,121.245048,上海松江区环城路店,上海市,,
江苏省徐州市丰县解放西路雅迪隔壁,徐州市,丰县,34.698715,116.598528,徐州丰县解放路店,江苏省,,
江西省赣州市章贡区东阳山路60号,赣州市,章贡区,25.842771,114.934923,赣州章贡区东阳山路店,江西省,,
河南省许昌市禹州市府东路232号,许昌市,禹州市,34.151506,113.493732,许昌禹州市府东路店,河南省,,
河南省许昌市禹州市画圣路420号,许昌市,禹州市,34.1466227327,113.4769409895,许昌禹州市画圣路大禹像店,河南省,,
沭阳县沭城人民西路49号(沭河中学初中部对面）小牛电动,宿迁市,沭阳县,34.129511,118.769599,宿迁沭阳县人民西路店,江苏省,,
江苏省宿迁市沭阳县北京北路47号小牛电动,宿迁市,沭阳县,34.129479,118.769628,宿迁沭阳县北京北路店,江苏省,,
沭阳县人民西路49号,宿迁市,沭阳县,34.129481,118.769574,江苏省宿迁市沭阳县人民西路店,江苏省,,
湖南省衡阳市珠晖区东风路139号,衡阳市,珠晖区,26.893778,112.625672,衡阳珠晖区东风路店,湖南省,,
衡阳市珠晖区东风北路131号,衡阳市,雁峰区,26.896045,112.623579,湖南省衡阳市珠晖区东风北路店,湖南省,,
江苏省沭阳县迎宾大道七号惠乐玛超市一楼,宿迁市,沭阳县,34.12453,118.787206,宿迁沭阳县惠乐玛超市店,江苏省,,
温州市鹿城区5050购物中心西门,温州市,鹿城区,28.017256,120.617952,温州鹿城区滨江购物中心店,浙江省,,
衡阳市石鼓区船山路飞达大厦一楼,衡阳市,蒸湘区,26.903133,112.606216,衡阳石鼓区船山路二店,湖南省,,
湖南省衡阳市石鼓区船山路221号,衡阳市,蒸湘区,26.903253,112.605543,衡阳石鼓区船山路店,湖南省,,
瓯北镇双塔路1489-1491号,温州市,永嘉县,28.040262,120.635874,浙江省温州市瓯北镇双塔路店,浙江省,,
宁波市奉化溪口镇中兴东路565-2,宁波市,奉化区,29.692825,121.29052,宁波奉化区溪口镇中兴东路店,浙江省,,
浙江省宁波市宁波奉化市溪口镇中兴东路565——2,宁波市,奉化区,29.692684,121.290618,浙江省宁波市奉化市溪口镇中兴东路店,浙江省,,
浙江省温州市瓯北双塔路1489-1491号,温州市,永嘉县,28.040237,120.645654,温州永嘉县瓯北双塔路店,浙江省,,
温州市瓯海区景屿路德信大悦湾10幢103-104店铺,温州市,瓯海区,27.96195,120.606247,温州瓯海区景屿路银泰城店,浙江省,,
温州市瓯海区国鼎路9号-5-6,温州市,瓯海区,27.980039,120.618714,温州瓯海区国鼎路店,浙江省,,
温州市永嘉县瓯北街道罗浮大街15号,温州市,永嘉县,28.042836,120.661879,温州永嘉县瓯北罗浮大街店,浙江省,,
湖南省衡阳市蒸湘区解放西路82号,衡阳市,蒸湘区,26.892549,112.585313,衡阳蒸湘区解放大道店,湖南省,,
温州市鹿城区鹿城路196号	,温州市,瓯海区,28.011426,120.642848,温州鹿城区鹿城路店,浙江省,,
山东省枣庄市台儿庄区银座商城,枣庄市,台儿庄区,34.560834,117.725687,山东省枣庄市台儿庄区华兴路店,山东省,,
温州市鹿城区人民西路18-20号,温州市,鹿城区,28.008702,120.657482,温州鹿城区人民路店,浙江省,,
浙江省温州市江滨西路569号,温州市,鹿城区,28.025849,120.671377,温州鹿城区江滨西路店,浙江省,,
温州市鹿城区六虹桥路金汇昌家园3幢111号,温州市,瓯海区,27.98528,120.644836,温州鹿城区六虹桥路店,浙江省,,
温州市鹿城区锦绣路南汇锦园7幢105室门店（小牛电动）,温州市,鹿城区,28.004485,120.66396,温州市小牛服务体验中心,浙江省,,
浙江省温州市黎明西路288号,温州市,鹿城区,28.011938,120.672835,温州鹿城区黎明路店,浙江省,,
温州市鹿城区锦绣路876号,温州市,鹿城区,27.999425,120.671616,温州鹿城区锦绣路店,浙江省,,
江苏省新沂市新安路小牛电动（老苏果超市路北）,徐州市,新沂市,34.376904,118.351249,徐州新沂市新安路店,江苏省,,
江苏省徐州市沛县汉城北路泗水大厦北150米,徐州市,沛县,34.737923,116.935913,江苏省徐州市沛县汉城北路店,江苏省,,
温州市龙方路137-139号二十一中学对面,温州市,鹿城区,27.989406,120.669117,温州鹿城区龙方路紫金华府店,浙江省,,
温州市鹿城区车站大道464号,温州市,鹿城区,28.008612,120.682663,温州鹿城区车站大道店,浙江省,,
嘉定区嘉罗公路465号,上海市,嘉定区,31.371951,121.255539,上海嘉定区嘉罗公路店,上海市,,
浙江省温州市鹿城区南汇街道划龙桥路25号(宏鼎大厦),温州市,鹿城区,27.99099,120.684487,温州鹿城区划龙桥店,浙江省,,
浙江省台州市椒江区东海大道1185号,温州市,鹿城区,27.99099,120.684487,台州椒江区东海大道店,浙江省,,
浙江省温州市瓯海梧田龙霞路86号,温州市,瓯海区,27.96706,120.674127,温州瓯海区梧田龙霞路店,浙江省,,
温州市鹿城区锦绣路57号,温州市,鹿城区,27.999018,120.69961,温州鹿城区伯爵山庄店,浙江省,,
温州市鹿城区前网新村2幢115-116号,温州市,瓯海区,27.982077,120.689953,温州鹿城区开源路前网新村店,浙江省,,
浙江省温州市学院东路345号大自然华城公寓1-12幢11幢101-3号,温州市,鹿城区,28.004937,120.715042,温州鹿城区学院东路店,浙江省,,
上海市嘉定区南翔镇德华路665号,上海市,嘉定区,31.292071,121.307251,上海嘉定区南翔德华路店,上海市,,
浙江省台州市临海市柏叶西路309号,台州市,临海市,28.854586,121.153333,台州临海市柏叶西路店,浙江省,,
上海市闵行区七宝镇沪松公路199号,上海市,闵行区,31.152349,121.344737,上海闵行区沪松公路店,上海市,,
温州市鹿城区汤家桥雁荡西路217号,温州市,瓯海区,27.98708,120.715162,温州鹿城区雁荡西路店,浙江省,,
上海市闵行区七宝吴中路2628号,上海市,闵行区,31.164166,121.350932,上海闵行区吴中路店,上海市,,
江苏省海门市三星镇星海路1697号	,南通市,海门市,31.965559,121.093749,南通海门市三星镇星海路店,江苏省,,
上海市闵行区莘北路103号,上海市,闵行区,31.113997,121.373385,上海闵行区莘北路店,上海市,,
上海市嘉定区江桥镇曹安公路2053号,上海市,嘉定区,31.258132,121.34822,上海嘉定区江桥镇曹安公路店,上海市,,
上海市闵行区东川路2673号,上海市,闵行区,31.00874,121.401398,上海闵行区东川路店,上海市,,
上海市长宁区淞虹路666-673号,上海市,长宁区,31.213104,121.361075,上海长宁区淞虹路店,上海市,,
河南郑州新郑市新建路365号,郑州市,新郑市,34.398246,113.733492,郑州新郑市新建路店,河南省,,
上海市普陀区红棉路299号,上海市,普陀区,31.282504,121.350705,上海普陀区红棉路店,上海市,,
宁德市福鼎市桐城街道太姥大道219-221号	,宁德市,福鼎市,27.313798,120.217443,宁德福鼎市太姥大道店,福建省,,
温州市瓯海区茶山睦祥锦园71号,温州市,瓯海区,27.913194,120.698456,温州瓯海区茶山店,浙江省,,
上海市闵行区龙茗路1502号,上海市,闵行区,31.147403,121.384049,上海闵行区龙茗路店,上海市,,
浙江省宁波市奉化区庆登桥路40号	,宁波市,奉化区,29.654096,121.413637,宁波奉化区庆登桥路店,浙江省,,
南通市通州区银河路中国银行对面,南通市,通州区,32.072594,121.074826,南通通州区银河路店,江苏省,,
上海市闵行区虹中路436弄25号,上海市,闵行区,31.184313,121.381794,上海闵行区虹中路店,上海市,,
上海市嘉定区祁连山南路1561号	,上海市,普陀区,31.247056,121.370474,上海普陀区祁连山南路丰庄店,上海市,,
南通市通州区交通北路滨河人家76号商铺,南通市,通州区,32.088442,121.069644,南通通州区交通北路店,江苏省,,
温州市苍南县灵溪镇望鹤路356-358号,温州市,苍南县,27.509145,120.40617,温州苍南县灵溪镇望鹤路店,浙江省,,
江苏省盐城市亭湖区长坝路卧龙服务工厂,盐城市,亭湖区,33.372927,120.122904,江苏省盐城市亭湖区长坝路店,江苏省,,
山东省枣庄市薛城区万洲浙商城建材区37栋11号荣事达卫浴,枣庄市,薛城区,34.769078,117.257329,山东省枣庄市薛城区南环路店,山东省,,
盐城市大庆中路156号鼎盛时代1楼112,盐城市,盐都区,33.369167,120.132543,盐城亭湖区大庆中路二店,江苏省,,
江苏省盐城市大庆中路158号鼎盛时代广场2号楼101,盐城市,盐都区,33.368963,120.131966,盐城亭湖区大庆中路店,江苏省,,
江苏省海门市东洲路35号,南通市,海门市,31.89189,121.175044,南通海门市东洲路店,江苏省,,
上海市普陀区梅川路1033号,上海市,普陀区,31.240088,121.390085,上海普陀区梅川路店,上海市,,
盐城市人民南路12号瑞尔花园31幢1029号（欧风花街南侧）,盐城市,盐都区,33.341659,120.17333,盐城亭湖区人民南路店,江苏省,,
上海市长宁区古北路83号,上海市,长宁区,31.216364,121.399347,上海长宁区古北路店,上海市,,
上海市徐汇区罗秀路1233号虹梅南路680弄小区,上海市,闵行区,31.128789,121.421065,上海徐汇区罗秀路店,上海市,,
福建省宁德市东湖路禾丰商业城120号,宁德市,蕉城区,26.66139,119.53373,宁德蕉城区东湖路店,福建省,,
宁德市蕉城区东湖路禾丰商业城130号,宁德市,蕉城区,26.661602,119.534082,福建省宁德市蕉城区东湖路店,福建省,,
上海宝山区锦秋路1216号（近祁连山路）,上海市,宝山区,31.32102,121.381851,上海宝山区锦秋路店,上海市,,
上海市徐汇区桂林路115号,上海市,徐汇区,31.165333,121.419164,上海徐汇区桂林路店,上海市,,
江苏省南通市海门市长江路841号,南通市,海门市,31.892532,121.191743,南通海门市长江路店,江苏省,,
上海市长宁区长宁路1590号（近遵义路）,上海市,长宁区,31.217335,121.407712,上海长宁区长宁路店,上海市,,
浙江省温州市瑞安隆山东路63号,温州市,瑞安市,27.773811,120.647051,温州瑞安隆山东路店,浙江省,,
浙江温州平阳县昆阳镇白石街62号,温州市,平阳县,27.66351,120.564841,温州平阳县昆阳镇白石街店,浙江省,,
上海普陀区真如兰溪路232号（近武宁路）,上海市,普陀区,31.244501,121.402328,上海普陀区兰溪路店,上海市,,
上海奉贤区南桥镇南奉公路9266号	,上海市,奉贤区,30.913024,121.46713,上海奉贤区南桥镇南奉公路店,上海市,,
上海市普陀区李村路18号,上海市,普陀区,31.236044,121.409465,上海普陀区李村路店,上海市,,
浙江省瑞安市罗阳大道542-544号	,温州市,瑞安市,27.78194,120.661032,温州瑞安市罗阳大道店,浙江省,,
浙江省宁波市海曙区联丰中路1041号,宁波市,海曙区,29.869569,121.487175,宁波海曙区联丰中路店,浙江省,,
宁波市鄞州区联丰中路1041号,宁波市,海曙区,29.869393,121.487051,浙江省宁波市鄞州区联丰中路店,浙江省,,
上海市长宁区新华路679号,上海市,长宁区,31.205053,121.420028,上海长宁区新华路店,上海市,,
上海市宝山区大华新村华灵路1941号,上海市,普陀区,31.280591,121.402231,上海宝山区大华新村华灵路店,上海市,,
宁德市东桥经济开发区薛令之路8号东湖御景21幢104D,宁德市,蕉城区,26.657362,119.547509,宁德蕉城区万达店,福建省,,
上海市长宁区武夷路571号,上海市,长宁区,31.21294,121.419083,上海市长宁区武夷路店,上海市,,
浙江瑞安市塘下镇朝阳东路199-201号,温州市,瑞安市,27.822573,120.696578,温州瑞安塘下镇朝阳路店,浙江省,,
浙江省宁波市江北区长阳东路97号,宁波市,江北区,29.936651,121.501795,宁波江北区长阳东路店,浙江省,,
上海市徐汇区南丹路130号,上海市,徐汇区,31.190954,121.428758,上海徐汇区南丹路店,上海市,,
上海市普陀区铜川路318号,上海市,普陀区,31.253015,121.415199,上海普陀区铜川路店,上海市,,
  温州瑞安市莘塍镇府路237号,温州市,瑞安市,27.781253,120.674018,温州瑞安市莘塍镇府路店,浙江省,,
上海市宝山区环镇北路147号,上海市,宝山区,31.307973,121.407684,上海宝山区环镇北路店,上海市,,
上海市宝山区新沪路852号,上海市,普陀区,31.271008,121.419453,上海宝山区新沪路大华店,上海市,,
上海普陀区中山北路2399号,上海市,普陀区,31.245036,121.424997,上海普陀区中山北路店,上海市,,
上海市徐汇区龙漕路98号,上海市,徐汇区,31.169957,121.445118,上海徐汇区龙漕路店,上海市,,
上海徐汇区龙吴路1131号,上海市,徐汇区,31.145335,121.450344,上海徐汇区龙吴路店,上海市,,
枣庄市薛城区海河路四季菁华小区沿街门市路南西首,枣庄市,薛城区,34.800857,117.328732,枣庄薛城区海河路四季菁华店,山东省,,
浙江省温州市瑞安市民莘东路151-153号,温州市,瑞安市,27.776219,120.688123,温州瑞安市民莘东路店,浙江省,,
温州市乐清市白象镇象南西路49-51号,温州市,乐清市,28.033713,120.860699,温州乐清市白象镇象南西路店,浙江省,,
宁波海曙区通达路560号,宁波市,海曙区,29.854803,121.513913,宁波海曙区通达路店,浙江省,,
宁波市海曙区丽园北路1510号,宁波市,海曙区,29.897957,121.520094,宁波海曙区青林湾店,浙江省,,
上海市静安区安远路285号1层GL1小牛电动专卖店,上海市,静安区,31.2401,121.44354,上海静安区安远路店,上海市,,
上海市静安区江场西路1088号,上海市,宝山区,31.297044,121.430842,上海静安区江场西路店,上海市,,
上海市静安区武定路609号,上海市,静安区,31.23271,121.449172,上海静安区武定路店,上海市,,
上海市静安区襄阳北路8号,上海市,徐汇区,31.220036,121.454468,上海静安区襄阳北路店,上海市,,
上海市静安区延长中路766号,上海市,普陀区,31.26689,121.446611,上海静安区延长中路店,上海市,,
上海徐汇区斜土路1360号,上海市,徐汇区,31.19837,121.462713,上海徐家汇斜土路店,上海市,,
浙江省宁波市海曙区翠柏路239号,宁波市,海曙区,29.883813,121.53463,宁波海曙区翠柏路店,浙江省,,
江西省赣州南康区金赣大道22号,赣州市,南康区,25.655317,114.756411,赣州南康区金赣大道店,江西省,,
上海黄浦区威海路165号,上海市,黄浦区,31.227493,121.468047,上海黄浦区威海路店,上海市,,
上海市静安区中山北路746号,上海市,静安区,31.260089,121.459929,上海静安区中山北路店,上海市,,
上海市静安区共和新路4437号（近保德路）,上海市,静安区,31.31404,121.448735,上海静安区共和新路店,上海市,,
浙江省温州乐清柳市镇育英北路131-133号,温州市,乐清市,28.053384,120.904397,温州乐清柳市育英北路店,浙江省,,
宁波宁海县人民路155号,宁波市,宁海县,29.293329,121.438306,宁波宁海县人民路店,浙江省,,
宁波市鄞州区宁南北路1288号（联盛广场C区）小牛电动,宁波市,鄞州区,29.824451,121.538783,宁波鄞州区宁南北路联盛广场店,浙江省,,
浙江宁波宁海跃龙街道人民大道278号,宁波市,宁海县,29.293047,121.437716,浙江省宁波市宁海县跃龙街道人民大道店,浙江省,,
宁波市海曙区镇明路332号 ,宁波市,海曙区,29.86634,121.544949,宁波海曙区镇明路月湖公园店,浙江省,,
温州市龙湾区罗东街345号,温州市,龙湾区,27.923649,120.829101,温州龙湾区罗东街店,浙江省,,
上海市虹口区广中路598号,上海市,静安区,31.279861,121.466053,上海虹口区广中路店,上海市,,
温州市龙湾区永强大道2912号,温州市,龙湾区,27.884952,120.807729,温州龙湾区永强大道店,浙江省,,
宁波市江北区清湖路187号,宁波市,江北区,29.893128,121.554892,宁波江北区清湖路北岸琴森店,浙江省,,
上海市静安区东宝兴路1006号,上海市,静安区,31.265245,121.472004,上海静安区东宝兴路店,上海市,,
上海市宝山区庙行街道虎林路167号,上海市,宝山区,31.331054,121.46018,上海宝山区虎林路店,上海市,,
上海市浦东区杨思路905号,上海市,浦东新区,31.16338,121.500563,上海浦东区杨思路店,上海市,,
上海市黄浦区中山南路1718号,上海市,黄浦区,31.204437,121.493203,上海黄浦区中山南路店,上海市,,
上海虹口区奎照路677号,上海市,虹口区,31.30041,121.47252,上海虹口区奎照路店,上海市,,
宁波市鄞州区永达西路105一107号,宁波市,鄞州区,29.84813,121.56022,宁波鄞州区永达西路店,浙江省,,
上海市黄浦区四川中路580号,上海市,黄浦区,31.241665,121.486564,上海黄浦区四川中路店,上海市,,
宁波市鄞州区百丈路140号,宁波市,鄞州区,29.864949,121.565182,宁波鄞州区百丈路店,浙江省,,
浙江省温州市乐清市双雁路125号,温州市,乐清市,28.111848,120.970025,温州乐清市双雁路店,浙江省,,
上海市虹口区大连西路530,上海市,虹口区,31.276062,121.4852,上海虹口区大连西路店,上海市,,
上海市黄浦区中华路316-2号,上海市,黄浦区,31.220163,121.498967,上海黄浦区中华路店,上海市,,
大名路253号一楼,上海市,黄浦区,31.24639,121.493928,上海市虹口区大名路店,上海市,,
上海市虹口区万安路455号,上海市,虹口区,31.301631,121.481906,上海虹口区万安路店,上海市,,
宁波市鄞州区钱湖北路908号,宁波市,鄞州区,29.82288,121.567676,宁波鄞州区钱湖北路店,浙江省,,
上海浦东新区三林镇永泰路1468号（靠近杨高南路）,上海市,浦东新区,31.141204,121.520566,上海浦东新区永泰路店,上海市,,
上海市虹口区物华路100号,上海市,虹口区,31.260944,121.494026,上海市虹口区乐悠悠自行车商店,上海市,,
上海市虹口区物华路100号,上海市,虹口区,31.260541,121.495124,上海虹口区物华路店,上海市,,
江苏省盐城市大丰区黄海路七天优品酒店隔壁,盐城市,大丰区,33.195074,120.45978,盐城大丰区黄海路店,江苏省,,
浙江省台州市黄岩区世纪大道7-8号,台州市,黄岩区,28.649935,121.253444,台州黄岩区世纪大道店,浙江省,,
浙江省宁波市鄞州区兴宁路220号	,宁波市,鄞州区,29.852165,121.577631,宁波鄞州区兴宁路店,浙江省,,
上海市杨浦区政立路815弄,上海市,杨浦区,31.30821,121.495209,上海杨浦区政立路店,上海市,,
上海市浦东区浦东南路店1798号,上海市,浦东新区,31.216977,121.518457,上海浦东新区浦东南路店,上海市,,
宁波市鄞州区惊驾路439号,宁波市,鄞州区,29.87223,121.587708,宁波江东区惊驾路店,浙江省,,
湖南省衡阳市耒阳市神龙路596-598号,衡阳市,耒阳市,26.412274,112.854693,湖南省衡阳市耒阳市神龙路店,湖南省,,
上海市杨浦区辽源西路180号,上海市,虹口区,31.268636,121.510272,上海杨浦区辽源西路店,上海市,,
上海浦东新区北艾路876号,上海市,浦东新区,31.183786,121.537118,上海浦东新区北艾路店,上海市,,
宁波市鄞州区明新路166号,宁波市,鄞州区,29.884247,121.601856,宁波鄞州区沧海北路港隆广场店,浙江省,,
上海杨浦区抚顺路222号,上海市,杨浦区,31.28073,121.516048,上海杨浦区抚顺路店,上海市,,
福建省宁德市霞浦县府前路东吾华庭1号楼2号店面,宁德市,霞浦县,26.887806,120.010321,宁德霞浦县府前路店,福建省,,
翁垟镇西北路166号,温州市,乐清市,28.028706,120.969908,绿佳电动车,浙江省,,
中牟县建设路与北环路交叉口向南20米路东小牛电动,郑州市,中牟县,34.669355,114.00899,郑州中牟县建设路店,河南省,,
上海市浦东区张杨路1685号,上海市,浦东新区,31.236569,121.544626,上海浦东区张杨路店,上海市,,
宁德市霞浦县福宁大道百丽花园11幢109D店面,宁德市,霞浦县,26.891831,120.019248,宁德霞浦县太康路百丽花园店,福建省,,
上海市浦东新区高科西路2885号义兵车行小牛电动车,上海市,浦东新区,31.189413,121.558191,上海浦东新区高科西路店,上海市,,
山东省枣庄市市中区文化中路32号,枣庄市,市中区,34.852453,117.570482,枣庄市中区文化中路店,山东省,,
上海杨浦区翔殷路479号,上海市,杨浦区,31.306454,121.537808,上海杨浦区翔殷路店,上海市,,
上海杨浦区长阳路店3041号	,上海市,杨浦区,31.277891,121.547994,上海杨浦区长阳路店,上海市,,
江苏省南通市如东县青园南路9-4号,南通市,如东县,32.299977,121.178559,南通如东县青园南路店,江苏省,,
河南省开封市鼓楼区大梁路与西环路交叉口向西200米,开封市,龙亭区,34.801315,114.328218,开封龙亭区大梁路万宝店,河南省,,
上海市浦东新区大同路670号,上海市,浦东新区,31.339815,121.576259,上海浦东区高桥镇大同路店,上海市,,
上海市浦东新区东陆路1158号,上海市,浦东新区,31.272233,121.595846,上海浦东新区金桥镇东陆路店,上海市,,
大西门路397号,宁波市,镇海区,29.953513,121.699866,浙江省宁波市镇海区大西门路店,浙江省,,
连云港东海县菜市街57_32号,连云港市,东海县,34.520528,118.766336,连云港东海县菜市街店,江苏省,,
浙江省台州市路桥区里王路191-195号,台州市,路桥区,28.576457,121.374012,台州路桥区里王路店,浙江省,,
椒江东环大道93-95号,台州市,椒江区,28.65823,121.434745,台州椒江东环大道星星广场店,浙江省,,
郑州市中州大道与航母城交叉口东南角美林河畔电动车市场47号小牛电动,郑州市,管城回族区,34.719407,113.715355,郑州管城区美林河畔店,河南省,,
上海市浦东新区惠南镇城南路206号,上海市,浦东新区,31.040084,121.750999,上海浦东区惠南镇城南路店,上海市,,
航海路与豫英路交叉口向南5米,郑州市,管城回族区,34.718556,113.695882,河南省郑州市管城区航母城店,河南省,,
滨海县人民北路26号本铃电动车,盐城市,滨海县,34.00799,119.836809,江苏省盐城市滨海县人民北路店,江苏省,,
郑州市航海路与育英路交叉口向南30米路西小牛电动,郑州市,管城回族区,34.720174,113.696805,郑州管城区航母城二店,河南省,,
河南省郑州市管城回族区航海东路225号康万家A09号,郑州市,管城回族区,34.720633,113.694873,郑州管城回族区航海东路店,河南省,,
江西省赣州市信丰县阳明北路万里车行,赣州市,信丰县,25.393945,114.931057,江西省赣州市信丰县阳明北路店,江西省,,
郑州市郑东新区商都路与黄河南路交叉口西北角,郑州市,管城回族区,34.748618,113.745958,郑州郑东新区商都路店,河南省,,
山东省枣庄市滕州市善国中路66号,枣庄市,滕州市,35.08352,117.166143,枣庄滕州市善国中路店,山东省,,
郑州市二七区嵩山路与长江路交叉口南300米路东万客来电动车市场中心大街五号门面小牛电动,郑州市,二七区,34.707144,113.629272,郑州二七区万客来店,河南省,,
赣州市信丰县嘉定镇南山西路金都水晶灯饰西行50米,赣州市,信丰县,25.376243,114.931872,赣州信丰县南山西路店,江西省,,
温岭市锦屏路372号,台州市,温岭市,28.382041,121.37996,台州温岭锦屏路店,浙江省,,
浙江省台州市温岭市太平街道人民中路92-94号,台州市,温岭市,28.367297,121.373656,台州温岭市人民中路店,浙江省,,
宁波市北仑区庐山东路273号,宁波市,北仑区,29.890544,121.818826,宁波北仑区庐山东路店,浙江省,,
郑州市二七区航海西路工人路东200米路南小牛电动,郑州市,中原区,34.720315,113.623714,郑州二七区航海西路店,河南省,,
郑州市郑东新区庙张街盛和街向北200米路东,郑州市,金水区,34.776522,113.773393,郑州郑东新区祭城镇庙张街店,河南省,,
河南省郑州市二七区京广路陇海路交叉口京广路电动车精品城,郑州市,二七区,34.734906,113.657981,郑州二七区京广路店,河南省,,
郑州市二七区京广路永安街交叉口向北30米路东小牛电动,郑州市,二七区,34.734723,113.657486,郑州二七区京广路二店,河南省,,
郑东新区中兴路与畅和街交叉口向西50米路南小牛电动东区售后体验店,郑州市,金水区,34.779291,113.775731,河南省郑州市郑东新区畅和街店,河南省,,
郑州市二七区大学路陇海路南200米路西小牛电动,郑州市,二七区,34.733879,113.643772,郑州二七区大学路店,河南省,,
郑州市二七区陇海路与大学路交叉口向西100米路南小牛电动,郑州市,二七区,34.736212,113.64243,郑州二七区陇海路店,河南省,,
郑州市管城区二七广场人民路北200米路东小牛电动,郑州市,二七区,34.75368,113.669021,郑州管城区人民路店,河南省,,
福建省福州市鼓楼区福飞南路榕信二区213号07,福州市,鼓楼区,26.118334,119.299028,福州鼓楼区福飞南路店,福建省,,
河南省郑州市金水区金水路紫荆山路向东200米路南	,郑州市,金水区,34.763338,113.684749,郑州金水区紫荆山公园店,河南省,,
郑州市中原区汝河路与秦岭路交叉口向北200米路西小牛电动,郑州市,中原区,34.73416,113.603278,郑州中原区秦岭南路店,河南省,,
福建省福州市鼓楼区北二环西路388号,福州市,鼓楼区,26.102696,119.285233,福州鼓楼区北二环西路铜盘店,福建省,,
郑州市郑东新区地德街与地坤街交叉口东南角 小牛电动	,郑州市,金水区,34.783141,113.718488,郑州郑东新区熙地港店,河南省,,
河南省郑州市中原区中原路万达广场金街步行街,郑州市,中原区,34.7456,113.602808,郑州中原区中原路万达店,河南省,,
航海东路豫英路交叉口东南角电动车航母城内，7区68号小牛售后,郑州市,中原区,34.751818,113.613375,郑州二七区淮河路店,河南省,,
郑州市金水区黄河路与经七路交叉口西北角 ,郑州市,金水区,34.774734,113.671983,郑州金水区黄河路店,河南省,,
河南省郑州市中原区桐柏路192-4号,郑州市,中原区,34.751802,113.613146,河南省郑州市中原区桐柏路服务中心,河南省,,
河南省郑州市金水区黄河路与经八路交叉口向东200米路南,郑州市,金水区,34.774591,113.670469,郑州金水区黄河路建文店,河南省,,
福建省福州市晋安区北环中路96-14号,福州市,晋安区,26.10644,119.323015,福州晋安区北环中路店,福建省,,
福建省福州市鼓楼区杨桥中路152号小牛电动,福州市,鼓楼区,26.083261,119.284543,福州鼓楼区杨桥中路店,福建省,,
福州市鼓楼区卫前街154号,福州市,鼓楼区,26.087641,119.299448,福州鼓楼区东街店,福建省,,
郑州市中原区棉纺路秦岭路交叉口向南200米路东电动车大卖场内小牛电动,郑州市,中原区,34.761748,113.603614,郑州中原区秦岭北路店,河南省,,
福建省福州市仓山区洪湾北路融信宽域55号楼店面,福州市,仓山区,26.054548,119.2473,福州仓山区洪湾北路店,福建省,,
福建福州市鼓楼区西二环中路330号,福州市,鼓楼区,26.075153,119.283857,福州鼓楼区西二环中路店,福建省,,
浙江省温州市洞头区北岙街道双朴路32弄31号,温州市,洞头区,27.836341,121.135323,温州市洞头北岙小牛电动车店,浙江省,,
福州市鼓楼区东大路160-5号	,福州市,鼓楼区,26.08795,119.31617,福州鼓楼区东大路店,福建省,,
河南省郑州市金水区渠东路圣菲城商业街6-37号,郑州市,金水区,34.801802,113.67323,郑州金水区渠东路店,河南省,,
福州市仓山区闽江大道150号闽江春晓,福州市,仓山区,26.0536,119.26972,福州仓山区闽江大道店,福建省,,
郑州市金水区南阳路群办路向南200米路西,郑州市,金水区,34.790259,113.638754,郑州金水区南阳路国美店,河南省,,
福建省福州市台江区上海街道白马中路125号书香大第2#楼,福州市,台江区,26.064787,119.294716,福州台江区宝龙店,福建省,,
江苏省南通市启东市建新路新华书店往东50米,南通市,启东市,31.806851,121.664082,南通启东市建新路店,江苏省,,
福州市晋安区福新中路115号	,福州市,晋安区,26.081069,119.329213,福州晋安区福新中路晋安区委店,福建省,,
福建省福州市台江区广达路店191号,福州市,台江区,26.067278,119.307751,福州台江区广达路店,福建省,,
河南省郑州市金水区丰庆路博颂路向南200米路西,郑州市,金水区,34.806727,113.647764,郑州金水区丰庆路店,河南省,,
福建省福州市台江区白马南路168号,福州市,台江区,26.053933,119.299122,福州台江区白马路店,福建省,,
福建省福州市台江区六一中路249号（六一路与国货路交汇处）,福州市,台江区,26.06466,119.320293,福州台江区六一中路店,福建省,,
福建省福州市台江区白马南路河下街交叉口,福州市,仓山区,26.052109,119.299946,福建省福州市台江区白马路店,福建省,,
福州市晋安区国货东路174号,福州市,台江区,26.06573,119.32953,福州晋安区王庄店,福建省,,
福州市晋安区鼓山镇福马路前屿安置新村2号楼457-9店面,福州市,晋安区,26.072493,119.349836,福州晋安区福马路店,福建省,,
福建省福州市仓山区后巷路33-42号,福州市,仓山区,26.026519,119.275976,福州仓山区百花洲路店,福建省,,
山东省菏泽市丹阳路佳合花园D5号,菏泽市,牡丹区,35.239415,115.4926,菏泽牡丹区丹阳路佳合花园店,山东省,,
菏泽市牡丹区利民街香格里拉12－04,菏泽市,牡丹区,35.240413,115.463131,菏泽牡丹区香格里拉北一街店,山东省,,
郑州市高新区瑞达路与梧桐街向西600米路南 小牛电动,郑州市,中原区,34.793941,113.565112,郑州高新区梧桐街店,河南省,,
河南省郑州市金水区三全路园田路交叉口西南角,郑州市,金水区,34.829566,113.652403,郑州金水区三全路店,河南省,,
福建省仓山区六一南路169号小牛电动,福州市,仓山区,26.041974,119.322062,福州仓山区六一南路汇达广场店,福建省,,
福州市仓山区六一南路169号小牛电动汇达店,福州市,仓山区,26.035619,119.318856,福州仓山区汇达广场店,福建省,,
菏泽市牡丹区青年路与八一路交叉口东30米路北,菏泽市,牡丹区,35.249054,115.462734,菏泽牡丹区八一街店,山东省,,
江苏省连云港市海州区宝利商业街电动车一条街101-103号,连云港市,海州区,34.582609,119.144397,连云港海州区宝利商业街店,江苏省,,
郑州市雪松路42号朗悦公园茂(3号馆家庭茂)A1039-1040号,郑州市,中原区,34.820972,113.55568,郑州高新区公园茂店,河南省,,
江苏省连云港市新浦区青年西路51-9号,连云港市,海州区,34.598039,119.179315,连云港新浦区青年西路店,江苏省,,
江苏省连云港青年西路53-15号,连云港市,海州区,34.604309,119.183495,连云港新浦区青年西路二店,江苏省,,
江苏省连云港市新浦区解放东路81-7号,连云港市,海州区,34.608416,119.186951,连云港新浦区解放东路店,江苏省,,
茅箭区车城南路43号1幢2楼2-3,十堰市,茅箭区,32.609257,110.768639,湖北省十堰市茅箭区车城南路店,湖北省,,
新乡市原阳县师寨路口向西4米路南,新乡市,原阳县,35.0524,113.960044,河南省新乡市原阳县师寨路店,河南省,,
郑州市上街区汝南路与济源路交叉口（雕像）向北300米路西,郑州市,上街区,34.811455,113.29416,郑州上街区汝南路店,河南省,,
银雀山路与通达路交汇西20米路北,临沂市,兰山区,35.060208,118.32902,临沂兰山区银雀山路店,山东省,,
福建省龙岩市新罗区西安南路龙御天下五羊本田专卖店,龙岩市,新罗区,25.093441,117.031258,福建省龙岩市新罗区龙御天下店,福建省,,
济宁市任城区运河路46号,济宁市,任城区,35.402109,116.589524,济宁任城区运河路二店,山东省,,
山东省临沂市解放路与八一路交汇处西60米路南,临沂市,兰山区,35.065497,118.340175,临沂兰山区解放路店,山东省,,
郴州市国庆南路振兴桥头北侧小牛电动,郴州市,北湖区,25.78462,113.032665,郴州北湖区国庆南路店,湖南省,,
浙江省舟山市定海区横河路40-11,舟山市,定海区,30.008179,122.114656,浙江省舟山市定海区环城西路店,浙江省,,
舟山市定海区横河路40-11,舟山市,定海区,30.009053,122.116271,舟山定海区环城南路店,浙江省,,
舟山市定海区临城翁山路93号,舟山市,定海区,29.99454,122.192886,舟山定海区翁山路店,浙江省,,
江西省赣州市寻乌县城北轻骑摩托（工商分局对面）,赣州市,寻乌县,24.961999,115.646781,赣州寻乌县城北店,江西省,,
岱山县沿海西路99号,舟山市,岱山县,30.183714,122.206257,浙江省舟山市岱山县沿海西路店,浙江省,,
江苏省连云港市赣榆区丽景街86号,连云港市,赣榆区,34.843627,119.121605,连云港赣榆区丽景街店,江苏省,,
连云港赣榆区青口镇文化路54-1号,连云港市,赣榆区,34.844403,119.129753,连云港赣榆区文化路店,江苏省,,
江苏省连云港市连云区墟沟滨海中路10-9号（中华东路广东花园门面房）,连云港市,连云区,34.741203,119.378586,连云港连云区滨海中路店,江苏省,,
福州市福清市康达路5-27号,福州市,福清市,25.715827,119.348202,福州福清市康达路万达店,福建省,,
福州市福清市小桥街2-6号,福州市,福清市,25.716335,119.382136,福州福清市小桥街店,福建省,,
福清市江滨路3号五羊本田店,福州市,福清市,25.715999,119.382283,福建省福州市福清市江滨路店,福建省,,
洛阳市洛龙区宝龙城市广场迪卡侬东100米,洛阳市,洛龙区,34.617801,112.46693,洛阳洛龙新区宝龙广场店,河南省,,
漳州市华安县大同路217号（华丰村委会往下20米）,漳州市,华安县,25.00009,117.541625,福建省漳州华安县大同路店,福建省,,
舟山市普陀区东港海莲路158号,舟山市,普陀区,29.954911,122.313718,舟山普陀区东港海莲路店,浙江省,,
舟山市普陀区东港街道海莲路158号,舟山市,普陀区,29.954911,122.313718,浙江省舟山市普陀区东港街道海莲路店,浙江省,,
莆田市仙游县柳安街155号,莆田市,仙游县,25.353589,118.702777,莆田仙游县柳安路店,福建省,,
莆田市荔城区荔涵中大道198号,莆田市,荔城区,25.495153,119.052265,莆田荔城区西天尾德信广场店,福建省,,
新乡市红旗区劳动中街与西大街交叉口西北50米小牛专卖,新乡市,红旗区,35.303227,113.878153,新乡红旗区西大街店,河南省,,
劳动路西大街交叉口向西20米小牛电动体验店,新乡市,卫滨区,35.303547,113.876119,河南省新乡市红旗区劳动路店,河南省,,
河南省洛阳市西工区金谷园路107号（老四院对面）,洛阳市,西工区,34.677673,112.441983,洛阳西工区金谷园路店,河南省,,
河南省洛阳市涧西区建设路50号七里河,洛阳市,涧西区,34.662511,112.413501,洛阳涧西区建设路店,河南省,,
莆田市荔城区梅园东路691号,莆田市,城厢区,25.433513,119.02059,莆田荔城区梅园东路店,福建省,,
莆田市涵江区工业路路口（区政府旁）红日大厦一层,莆田市,涵江区,25.456931,119.116098,莆田涵江区涵梧路店,福建省,,
安溪县凤城镇新安路356号	,泉州市,安溪县,25.069663,118.200641,泉州安溪县新安路店,福建省,,
福建省泉州市凤城镇新华路126-146号,泉州市,安溪县,25.056339,118.18333,福建省泉州市安溪县凤城镇店,福建省,,
嵊泗县菜园镇云龙路121号,舟山市,嵊泗县,30.72661,122.458575,浙江省舟山市嵊泗县菜园镇云龙路店,浙江省,,
陕西省商洛市陕西省商洛市商南县长新西路817号质检局东斜对过小刀电动车,商洛市,商南县,33.530764,110.873505,陕西省商洛市商南县长新西路店,陕西省,,
河南省焦作市解放区建设路与民主路交叉口铜马汽车站东50米路北,焦作市,解放区,35.232993,113.2351,焦作解放区建设路店,河南省,,
河南省焦作市解放区和平街中段,焦作市,解放区,35.239076,113.229397,焦作解放区和平街店,河南省,,
福建省莆田市秀屿区笏石镇兴港北大道486号,莆田市,秀屿区,25.317796,119.092873,秀屿立马电动车维修店,福建省,,
福建省泉州市南安市洪濑镇东溪开发区金荣花苑1号楼101-102,泉州市,南安市,25.052127,118.518827,福建省泉州市南安市洪濑镇店,福建省,,
湖南省永州市零陵区南津南路41号小牛电动,永州市,零陵区,26.213965,111.630941,湖南省永州市零陵区芝山北路店,湖南省,,
濮阳市华龙区黄河中路海斯顿公园沿街11号商铺,濮阳市,华龙区,35.772448,115.038986,濮阳华龙区黄河中路店,河南省,,
湖南省永州市零陵区南津南路41号小牛电动,永州市,零陵区,26.206154,111.629239,永州零陵区南津南路店,湖南省,,
福建省泉州市南安市溪美街462-466号,泉州市,南安市,24.964062,118.382723,泉州南安市溪美街店,福建省,,
济源市天坛路与周园街交叉口大张盛德美对面小牛电动,,济源市,35.087495,112.57362,济源大张盛德美店,河南省,,
福建省泉州市惠安县建设北路霞张花园（公交公司对面）,泉州市,惠安县,25.035438,118.803413,泉州惠安县建设北路店,福建省,,
湖北省恩施市小渡船街道航空花园53号,恩施土家族苗族自治州,恩施市,30.2913,109.482071,恩施小渡船街道航空花园店,湖北省,,
福建省泉州市鲤城区浮桥街469号瑞舍酒店一楼,泉州市,鲤城区,24.921341,118.558075,泉州鲤城区浮桥街店,福建省,,
福建省福州市平潭县红山东路5号,福州市,平潭县,25.507739,119.793012,福州平潭县红山东路店,福建省,,
福建省泉州市丰泽区湖滨西路宝龙花园72号,泉州市,鲤城区,24.923764,118.579717,福建省泉州市丰泽区宝龙花园店,福建省,,
鹤壁市淇滨区107与淇河路交叉口北100米路东小牛电动,鹤壁市,淇滨区,35.75472,114.281845,鹤壁淇滨区淇河路店,河南省,,
"福建省泉州市鲤城区城西路496-1,496-2",泉州市,鲤城区,24.919075,118.582949,泉州鲤城区城西路店,福建省,,
福建省泉州市鲤城区中山南路480号,泉州市,鲤城区,24.90863,118.594196,泉州鲤城区中山南路二店,福建省,,
福建省泉州市鲤城区中山南路288号,泉州市,鲤城区,24.89879,118.588277,泉州鲤城区中山南路店,福建省,,
福建省泉州市丰泽区田安北路31号,泉州市,丰泽区,24.902666,118.609109,泉州丰泽区田安北路店,福建省,,
泉州市晋江市池店镇泉州大桥南片区百捷中央名门2栋105店面,泉州市,晋江市,24.886579,118.581232,泉州晋江市池店镇大华路店,福建省,,
重庆市奉节县永安街道竹枝路162号,重庆市,奉节县,31.021343,109.460165,奉节县小牛电动车经营部,重庆市,,
福建省厦门市同安区环城北路565号,厦门市,同安区,24.736766,118.154772,厦门同安区环城北路店,福建省,,
福建省漳州市长泰县武安镇建设南路327号,漳州市,长泰县,24.624505,117.770077,漳州长泰县武安镇建设南路二店,福建省,,
泉州市惠安县东岭镇东兴街275号,泉州市,惠安县,24.986256,118.905442,泉州惠安县东岭镇东兴街店,福建省,,
东岭镇朝阳西路绿佳电动车,泉州市,惠安县,24.984387,118.903026,东岭镇绿佳电动车,福建省,,
福建省泉州市丰泽区东海东滨路1569号,泉州市,丰泽区,24.869058,118.666566,泉州丰泽区东海东滨路店,福建省,,
福建省泉州市晋江市陈埭鞋都路1401号润安科技园,泉州市,晋江市,24.838018,118.601883,泉州晋江市陈埭鞋都路店,福建省,,
福建省晋江市青阳青华泉安中路锦峰小区47号店面,泉州市,晋江市,24.81764,118.584441,泉州晋江市泉安中路店,福建省,,
泉州市晋江市陈埭镇趋时鞋业大厦1楼,泉州市,晋江市,24.823155,118.603476,晋江小牛电动陈埭店,福建省,,
福建省泉州市晋江市陈埭镇四境社区求聪路239号趋时鞋业大厦1楼,泉州市,晋江市,24.822799,118.602904,泉州晋江市求聪路店,福建省,,
山东省泰安市新泰市电视塔北十字路口东南角,泰安市,新泰市,35.9055153726,117.7639585733,泰安新泰市电视塔店,山东省,,
福建省泉州市晋江市洪宅垵泉安南路830号,泉州市,晋江市,24.791865,118.569312,泉州晋江市泉安南路店,福建省,,
厦门市翔安区马巷镇桐梓路口里1号之2,厦门市,翔安区,24.678471,118.250558,厦门翔安区马巷镇桐梓路店,福建省,,
福建省漳州市芗城区丹霞路与胜利东路交叉口瑞芳苑9栋16-18号店面,漳州市,龙文区,24.514403,117.672487,漳州芗城区丹霞路店,福建省,,
福建省漳州市丹霞路与胜利东路交叉处瑞芳苑小区9幢16-18号店面,漳州市,龙文区,24.514522,117.672281,福建省漳州市芗城区丹霞路店,福建省,,
福建省漳州市芗城区马灶路新元城市花园2幢5号店面,漳州市,芗城区,24.509013,117.667023,漳州芗城区水仙大街店,福建省,,
福建省泉州市南安市水头镇鑫顺街212号,泉州市,南安市,24.709991,118.429092,泉州南安市水头鑫顺街店,福建省,,
福建省泉州市南安市水头镇鑫顺街212号,泉州市,南安市,24.708733,118.429567,水头小牛电动服务店,福建省,,
福建省泉州市晋江市安海镇鸿江中路45号,泉州市,晋江市,24.715916,118.47995,泉州晋江市安海镇鸿江中路店,福建省,,
梅州市梅江区梅州三路11号,梅州市,梅江区,24.315209,116.11068,梅州梅江区梅州大道店,广东省,,
福建省泉州市晋江市英墩天福车行,泉州市,晋江市,24.730891,118.558416,福建省泉州市晋江市英墩镇店,福建省,,
龙海市九湖镇林下村,漳州市,龙海市,24.464326,117.595782,福建省漳州市龙海市九湖镇店,福建省,,
福建省厦门市集美区同集南路4-6号,厦门市,集美区,24.584738,118.101769,福建省厦门市集美区同集南路店,福建省,,
厦门市集美区杏林西路39-106,厦门市,集美区,24.564837,118.032675,厦门集美区杏林西路店,福建省,,
厦门市集美区同集南路2-103号,厦门市,集美区,24.583959,118.101149,厦门集美区同集南路店,福建省,,
石狮市蚶江镇锦亭工业区68号,泉州市,石狮市,24.768486,118.673475,福建省泉州市石狮市蚶江镇店,福建省,,
福建省厦门市集美区杏西路39-106 小牛电动 ,厦门市,集美区,24.564766,118.032704,福建省厦门市集美区杏林店,福建省,,
广东省梅州市梅州大道8号之1,梅州市,梅江区,24.305676,116.110805,广东省梅州市梅江区梅州大道店,广东省,,
山东省日照市东港区东关北路45号,日照市,东港区,35.425817,119.464523,日照东港区东关北路店,山东省,,
厦门市翔安区新店镇新兴街149号,厦门市,翔安区,24.615493,118.252782,厦门翔安区新店镇新兴街店,福建省,,
福建省泉州市石狮市九二东路986-988号,泉州市,石狮市,24.736138,118.643823,泉州石狮市九二东路店,福建省,,
福建省泉州市石狮市八七路1466-1468号小牛电动,泉州市,石狮市,24.728281,118.632293,泉州石狮市八七路店,福建省,,
福建省泉州市石狮市八七路1466-1468号小牛电动,泉州市,石狮市,24.728281,118.632293,福建省泉州市石狮市祥芝镇店,福建省,,
福建省厦门市翔安区马巷镇桐梓路口里14-104号	,厦门市,翔安区,24.596822,118.24738,厦门市翔安区新兴街店,福建省,,
漳州市平和县北环路119至119-1店,漳州市,平和县,24.375734,117.323452,漳州平和县北环路店,福建省,,
山西省晋城市新市西街1457号（人民广场西50米工行对面）,晋城市,城区,35.499502,112.838515,晋城新市西街店,山西省,,
山东省临沂市沂水县莲旺街北入口南200米路西（汉庭酒店北200米路西）,临沂市,沂水县,35.78025,118.621235,临沂沂水县莲旺街店,山东省,,
福建省泉州晋江市东石镇秀经大厦一楼,泉州市,晋江市,24.658963,118.476245,泉州晋江市东石镇仁和东路店,福建省,,
漳州平和县北环路121号（玉溪小学对面）,漳州市,平和县,24.370164,117.316261,福建省漳州市平和县北环路店,福建省,,
漳州市平和县北环路119至119-1店,漳州市,平和县,24.368437,117.319105,平和小牛电动服务店,福建省,,
福建省漳州市龙海市石码镇人民西路55号,漳州市,龙海市,24.447595,117.79935,漳州龙海市石码镇人民西路店,福建省,,
福建省厦门市海沧区海裕路190号,厦门市,海沧区,24.491722,118.040074,厦门海沧区海裕路店,福建省,,
福建省厦门市思明区仙岳路1395号,厦门市,思明区,24.50029,118.130297,厦门思明区仙岳路店,福建省,,
湖南省怀化市舞水路110号,怀化市,鹤城区,27.552379,109.960464,怀化鹤城区舞水路店,湖南省,,
厦门市思明区湖滨东路374号,厦门市,思明区,24.488085,118.113843,厦门思明区湖滨东路店,福建省,,
泰安光彩市场3区一栋7号,泰安市,岱岳区,36.180926,117.055568,泰安岱岳区光彩市场店,山东省,,
泰安市岱岳区光彩大市场3区二栋14号,泰安市,岱岳区,36.181315,117.055226,泰安岱岳区光彩大市场二店,山东省,,
山东省泰安市泰山区青年路1号,泰安市,泰山区,36.184012,117.129154,泰安泰山区青年路店,山东省,,
河南省安阳市龙安区中州路与文峰大道交叉口向北30米,安阳市,龙安区,36.099336,114.325787,安阳龙安区文峰大道店,河南省,,
广东省梅州市广东省兴宁市兴城镇官汕三路299号,梅州市,兴宁市,24.149808,115.733226,广东省兴宁市兴城镇官汕三路店,广东省,,
广东省兴宁市官汕三路297号,梅州市,兴宁市,24.149696,115.733383,广东省兴宁市兴城镇侨港街店 ,广东省,,
广东省梅州兴宁市侨港街23号-1,梅州市,兴宁市,24.147709,115.72449,梅州兴宁市侨港路店,广东省,,
济南市莱芜区汶河大道226号,济南市,莱芜区,36.197462,117.686666,济南莱芜区汶河大道店,山东省,,
山东省聊城市东昌府区利民东路6号,聊城市,东昌府区,36.450576,115.992556,聊城东昌府区利民东路店,山东省,,
福建省漳州市漳浦县金浦大道中111-1号小牛电动专卖店,漳州市,漳浦县,24.121566,117.611738,漳州漳浦县金浦大道店,福建省,,
山东省济南市长清区莲台山路银丰公馆商铺42-2-102,济南市,长清区,36.560261,116.761272,济南长清区莲台山路银丰公馆店,山东省,,
福建省漳州市云霄县莆美镇宝城路24号,漳州市,云霄县,23.949102,117.333466,漳州云霄县莆美镇宝城路店,福建省,,
福建省漳州市云霄县云东路82号,漳州市,云霄县,23.948615,117.343956,漳州云霄县云东路店,福建省,,
运城市芮城县东大街,运城市,芮城县,34.695942,110.700365,山西省运城市芮城县东大街店,山西省,,
福建省漳州市漳浦县杜浔镇杜昌路127号,漳州市,漳浦县,23.947527,117.616073,福建省漳州市漳浦县杜浔镇店,福建省,,
济南市市中区二环南路1701号,济南市,市中区,36.604206,117.018355,济南中区舜耕路圣玛丽亚医院店,山东省,,
禹都市场摩托街新大洲电动车,运城市,盐湖区,35.050213,111.025581,山西省运城市禹都市场摩托街店,山西省,,
山西省运城市禹都市场摩托街一区东楼28号,运城市,盐湖区,35.051243,111.024351,运城盐湖区禹都市场店,山西省,,
济南市市中区郎茂山路41号绿地海珀天沅1-102,济南市,市中区,36.62957,116.987141,济南市中区郎茂山路海珀天沅店,山东省,,
山东省济南市市中区英雄山路52号,济南市,市中区,36.629755,116.999137,济南市中区英雄山路店,山东省,,
山东省济南市市中区二七南路9号大润发东环道小牛电动车,济南市,市中区,36.630082,116.998985,山东省济南市市中区英雄山路店,山东省,,
济南市槐荫区南辛庄西路61号	,济南市,槐荫区,36.642508,116.966742,济南市中区王官庄店,山东省,,
山东省济南市经十路27999号院内西街西区1号2号,济南市,槐荫区,36.653033,116.920948,济南槐荫区经十路世购店,山东省,,
山东省济南市槐荫区槐村街23号,济南市,槐荫区,36.65531,116.963056,济南槐荫区槐村街店,山东省,,
济南市市中区英雄山路11号八一银座东门北行50米,济南市,市中区,36.65341,117.003144,济南市中区英雄山路八一店,山东省,,
济南市槐荫区经十路27999号院内西街B32-33,济南市,槐荫区,36.660156,116.927483,济南槐荫区经十西路世购二店,山东省,,
山东省济南市市中区春元里小区5号楼三单元104号,济南市,槐荫区,36.655771,116.990498,济南市中区经七路店,山东省,,
济南市历下区泺文路25号,济南市,历下区,36.658995,117.02491,济南历下区泉城广场泺文路店,山东省,,
山东省济南市市中区经二路万达广场92号,济南市,市中区,36.665962,117.001375,济南市中区经二路万达店,山东省,,
山东省济南市历下区和平路32-1号,济南市,历下区,36.660979,117.052191,济南历下区和平路诚基中心店,山东省,,
济南市历下区窑头路2-47号,济南市,历下区,36.660239,117.088643,济南历下区窑头路店,山东省,,
山东省济南市市中区经二路鸿景园A-13商铺,济南市,市中区,36.669152,116.999384,济南市经一路服务中心,山东省,,
山西省绛县振兴东街城关中学斜对面捷马之家,运城市,绛县,35.491962,111.58482,山西省运城市绛县振兴东街店,山西省,,
济南市天桥区济齐路20-18号,济南市,槐荫区,36.676833,116.958081,济南天桥区匡山小区店,山东省,,
济南市天桥区天成路32—1号,济南市,天桥区,36.675212,116.995289,济南天桥区天成路店,山东省,,
济南市天桥区无影山路59-3号,济南市,天桥区,36.67943,116.977729,济南天桥区无影山路店,山东省,,
济南市槐荫区槐村街23号小牛电动,济南市,天桥区,36.679631,116.977815,山东省济南市槐荫区槐村街店,山东省,,
济南市历下区闵子骞路27号北邻,济南市,历城区,36.673125,117.071324,济南历下区闵子骞路店,山东省,,
山东济南市历下区山大路63-4号,济南市,历下区,36.676016,117.055858,山东省济南市天桥区山大路店,山东省,,
济南市历下区东关大街9号海右商厦,济南市,历下区,36.678527,117.043789,济南历下区东关大街店,山东省,,
济南市历下区东关大街9号海右商厦小牛电动,济南市,历下区,36.678527,117.043789,山东省济南市市中区南辛庄店,山东省,,
山东省济南市历城区华龙路25-3三翔商务大厦,济南市,历下区,36.681577,117.094519,济南历城区华龙路店,山东省,,
济南市高新区奥体中路与工业南路交叉口向西70米路南小牛电动,济南市,历下区,36.679441,117.11425,济南高新区康虹路店,山东省,,
山东省济南市历城区七里堡东路84号,济南市,历城区,36.691048,117.07029,济南历城区七里堡店,山东省,,
济南市工业南路52号（奥体中路与工业南路路口往西70米路南）,济南市,历下区,36.685734,117.120616,济南历下区奥体中路店,山东省,,
河北省邯郸市丛台区稽山新天地7号楼14号,邯郸市,复兴区,36.606043,114.481953,邯郸丛台区稽山新天地店,河北省,,
山东省青岛市黄岛区商城街63号附近,青岛市,黄岛区,35.87495,119.997093,青岛黄岛区商业街店,山东省,,
济南市天桥区小清河北路与标山路交叉口东100米路北,济南市,天桥区,36.705152,116.999464,济南天桥区小清河北路店,山东省,,
济南市高新区康虹路新生活家园小牛电动 ,济南市,历下区,36.695605,117.126246,济南高新区康虹路二店,山东省,,
济南市历城区工业北路319-4号,济南市,历城区,36.70556,117.069253,济南历城区工业北路全福店,山东省,,
济南市天桥区二环北路摩托车市场,济南市,天桥区,36.716344,116.982606,济南天桥区北外环店,山东省,,
广东省潮州市广东省潮州市湘桥区新洋路洋滨园A幢38号门市,潮州市,湘桥区,23.664175,116.626526,广东省潮州市湘桥区新洋路店,广东省,,
福建省漳州市诏安县康华西路73号,漳州市,诏安县,23.713014,117.168847,漳州诏安康华西路店,福建省,,
广东省潮州市湘桥区城新西路福居楼13号小牛电动,潮州市,湘桥区,23.654748,116.632314,潮州湘桥区城新西路店,广东省,,
广东省潮州市饶平县黄冈镇沿河北路金凤园15号,潮州市,饶平县,23.671879,116.997197,潮州饶平县黄冈镇沿河北路店,广东省,,
济南市章丘唐人中心B座-101,济南市,章丘区,36.7141443663,117.5367164612,济南章丘唐人中心店,山东省,,
漳州市东山县铜陵镇桂花街广发小区1号楼华寅车行,漳州市,东山县,23.734853,117.512443,福建省漳州市东山县铜陵镇店,福建省,,
广东省揭阳市揭东蓝城磐东镇阳美玉都丰德珠宝大厦,揭阳市,揭东区,23.560096,116.320633,揭阳揭东区阳美路店,广东省,,
广东省揭阳市榕城区马牙车站往揭东方向100米（欧蝶车行,揭阳市,榕城区,23.553143,116.360212,广东省揭阳市榕城区马牙车站店,广东省,,
陕西渭南市华阴市老城街城关中学对面立马电动车专卖店,渭南市,华阴市,34.563738,110.082724,陕西渭南市华阴市老城街店,陕西省,,
青岛市黄岛区富春江路44号,青岛市,黄岛区,35.964093,120.195343,青岛黄岛区富春江路店,山东省,,
广东省揭阳市榕城区同德路30号（摩托街中段）,揭阳市,榕城区,23.529985,116.369456,揭阳榕城区同德路店,广东省,,
重庆市万州区白岩路538号,重庆市,万州区,30.818922,108.356593,重庆市万州区白岩路店,重庆市,,
侯马市天河电子城,临汾市,侯马市,35.624931,111.382828,山西省临汾市侯马市天河电子城店,山西省,,
广东省潮州市广东省潮州市潮安区金石镇金石大道中段浩兴利车行,潮州市,潮安区,23.5247,116.62417,广东省潮州市潮安区金石镇金石大道店,广东省,,
安丘市商场路银座路口北100米路西,潍坊市,安丘市,36.429903,119.19888,潍坊安丘市银座商城路店,山东省,,
淄博市周村区站北路41-3号,淄博市,周村区,36.794927,117.854263,淄博周村区站北路店,山东省,,
广东省汕头市莲上镇永新邮政局对面,汕头市,澄海区,23.507532,116.784137,广东省汕头市澄海区莲上镇永新邮政局店,广东省,,
广东潮州潮安彩塘镇骊一河头商住区3号小牛电动,潮州市,潮安区,23.487772,116.662765,潮州潮安区彩塘店,广东省,,
山东省潍坊青州市云门山北路969号	,潍坊市,青州市,36.6995592643,118.4856370447,潍坊青州市云门山北路店,山东省,,
山东省淄博市共青团西路3号,淄博市,张店区,36.805125,118.058796,淄博张店区共青团西路店,山东省,,
淄博市共青团西路30号,淄博市,张店区,36.805928,118.056659,山东省淄博市张店区共青团西路店,山东省,,
广东省汕头市澄海区益民路益中园8幢一楼,汕头市,澄海区,23.464146,116.770251,汕头澄海区益民路店,广东省,,
广东省汕头市汕头市澄海区澄华街道下窖农场桥东侧北片,汕头市,龙湖区,23.46125,116.74316,广东省汕头市澄海区澄华街道下窖店,广东省,,
广东省汕头市广东省汕头市澄海区文祠东路东门头爱玛梦幻店,汕头市,澄海区,23.460691,116.775631,广东省汕头市澄海区文祠东路东门头店,广东省,,
广东省揭阳市揭西县河婆镇霖都大道52号小牛电动专卖店,揭阳市,揭西县,23.434,115.84683,广东省揭阳市揭西县河婆镇霖都大道店,广东省,,
广东省揭阳市揭西县河婆镇温泉大道A3A4栋小牛电动,揭阳市,揭西县,23.432546,115.839061,揭阳揭西县温泉大道店,广东省,,
广东省潮州市潮安区庵埠亭下路口华恒车行,潮州市,潮安区,23.442715,116.678967,广东省潮州市潮安区庵埠亭下路口店,广东省,,
广东省汕头市龙湖区珠池路69号,汕头市,龙湖区,23.395991,116.794796,广东省汕头市龙湖区珠池路店,广东省,,
山东省青岛市市北区大名路91号,青岛市,市北区,36.087554,120.355407,青岛市北区大名路店,山东省,,
广东省汕头市龙湖区长江路48号,汕头市,龙湖区,23.378852,116.729308,汕头龙湖区长江路店,广东省,,
潍坊市高密市凤凰大街中百超市西30米路北（海天酒店东临）,潍坊市,高密市,36.371943,119.773791,潍坊高密市凤凰大街店,山东省,,
金砂路39号华侨中学,汕头市,金平区,23.367087,116.695634,广东省汕头市金平区金砂路三店,广东省,,
金平区金砂路31号国瑞园10幢103号,汕头市,金平区,23.366634,116.691064,广东省汕头市金平区金砂路二店,广东省,,
广东省汕头市潮阳区谷饶镇谷贵路,汕头市,潮阳区,23.345404,116.415758,汕头潮阳区谷饶镇谷贵路店,广东省,,
广东省汕头市金平区金环南路12号铺面7号（苏宁广场肯德基对面）,汕头市,金平区,23.360219,116.715807,汕头金平区金环南路苏宁广场店,广东省,,
青岛胶州市苏州路与青州路交汇臻世家小区104号,青岛市,胶州市,36.289556,120.01369,青岛市胶州市臻世家小区店,山东省,,
青岛胶州市胶州东路向阳小区2号,青岛市,胶州市,36.297900768,120.0226282575,青岛胶州市胶州东路店,山东省,,
广东省揭阳市流沙镇兰花新村1幢东起1-2间即长春路与赤华北路交汇处红绿灯路口,揭阳市,普宁市,23.306979,116.161557,广东省揭阳市普宁市流沙镇兰花新村店,广东省,,
广东省汕头市贵屿镇华美村陈贵公路,汕头市,潮南区,23.303647,116.34353,广东省汕头市潮南区陈店广汕公路新兴路口店,广东省,,
汕头市潮南区陈店镇东凤三路尾强兴楼,汕头市,潮南区,23.279908,116.325833,汕头陈店镇东凤三路店,广东省,,
广东省汕头市潮南区陈店镇东风路,汕头市,潮南区,23.279836,116.325866,汕头市潮南区陈店镇东风路,广东省,,
青岛市李沧区九水路39-0号,青岛市,李沧区,36.157062,120.427929,青岛李沧区九水路店,山东省,,
潍坊市奎文区民生街潍柴宿舍路南37号,潍坊市,奎文区,36.701586,119.124399,潍坊奎文区民生街店,山东省,,
广东省汕头市潮南区司马浦镇溪美朱泽锋车行,汕头市,潮南区,23.268662,116.354005,广东省汕头市潮南区司马浦镇溪美店,广东省,,
广东省汕头市司马浦镇溪美朱广汕公路,汕头市,潮南区,23.2667,116.348191,广东省汕头市潮南区陈店广汕公路新兴路口店,广东省,,
河北省邢台市桥东区新华南路69号甜橙国际商住公寓3号楼118号门市,邢台市,桥东区,37.059702,114.499647,邢台桥东区新华南路甜橙国际店,河北省,,
潍坊市奎文区新华路35号佳乐家斜对面北50米	,潍坊市,奎文区,36.7114221919,119.148555665,潍坊奎文区新华路店,山东省,,
潍坊市奎文区鸢飞路福寿街交叉口万达广场西100米路北	,潍坊市,奎文区,36.719607,119.123586,潍坊奎文区鸢飞路店,山东省,,
广东省汕头市潮南区峡山镇广祥路526号,汕头市,潮南区,23.25754,116.421756,汕头潮南区峡山镇广祥路店,广东省,,
汕头市潮南区峡山广祥路南里路段526号（卡宾对面）,汕头市,潮南区,23.256703,116.419645,广东省汕头市潮南区广祥路店,广东省,,
广东省汕头市潮阳区棉城镇东山大道平东南住宅区第19-24栋东畔13号店,汕头市,潮阳区,23.259276,116.607586,汕头潮阳区棉城东山大道路店,广东省,,
广东省汕头市广东省汕头市潮阳区棉城锦华花园五栋9号,汕头市,潮阳区,23.252599,116.60393,广东省汕头市潮阳区城南锦华花园店,广东省,,
   临汾市广宣街五交化市场内二区小牛电动,临汾市,尧都区,36.090606,111.528441,临汾尧都区五交化市场店,山西省,,
广东省汕头市潮南区两英镇紫云东路18-22号,汕头市,潮南区,23.211048,116.368768,汕头市潮南区两英紫云东路,广东省,,
山东青岛市城阳区和阳路411号,青岛市,城阳区,36.302961,120.389655,青岛城阳区和阳路店,山东省,,
陕西省渭南市高新区东兴街与新区东路十字万达广场步行街8-108,渭南市,临渭区,34.506519,109.4533,西安渭南市高新区东兴街万达店,陕西省,,
广西贺州八步区建设中路151号,贺州市,八步区,24.41334,111.54184,贺州八步区建设中路店,广西壮族自治区,,
广西省桂林市叠彩区中山北路136号,桂林市,叠彩区,25.311437,110.302493,桂林叠彩区中山北路店,广西壮族自治区,,
桂林市七星区漓江路19号商住楼5号铺,桂林市,七星区,25.259509,110.308007,桂林七星区漓江路店,广西壮族自治区,,
广西省桂林市象山区中山南路5号,桂林市,象山区,25.252041,110.284102,桂林象山区中山南路店,广西壮族自治区,,
桂林市象山区中山南路3-8号,桂林市,象山区,25.250349,110.284127,桂林象山区中山南路南溪山公园店,广西壮族自治区,,
桂林市象山区崇信路66一1号,桂林市,象山区,25.243145,110.289087,广西省桂林市象山区崇信路店,广西壮族自治区,,
梁平县机场路958号,重庆市,梁平区,30.668361,107.7845,重庆市梁平县机场路店,重庆市,,
广西桂林市灵桂区金水路106号,桂林市,临桂区,25.24917,110.216128,桂林临桂区金水路店,广西壮族自治区,,
广东省广州市增城区荔城街开园中路20号102铺,广州市,增城区,23.303795,113.835624,广州增城区荔城街开园中路店,广东省,,
广州市增城区荔城街开园中路20号102铺,广州市,增城区,23.298311,113.828934,广州市增城区荔城街开园中路店,广东省,,
陕西省西安市长安区韦曲北长安街162号康吧小区东门向北50米,西安市,长安区,34.163146,108.945166,西安长安区北长安街电动车市场店,陕西省,,
西安市雁塔区经九南路西部家居城B区C1-7,西安市,雁塔区,34.231347,108.980018,西安雁塔区经九路店,陕西省,,
陕西省西安市雁塔区长安南路电视塔国美电器南门广场,西安市,雁塔区,34.190882,108.945886,西安雁塔区长安南路电视塔店,陕西省,,
陕西省西安市雁塔区长安南路电视塔国美电器北门,西安市,雁塔区,34.190966,108.945219,西安雁塔区长安南路电视塔二店,陕西省,,
陕西省西安市碑林区伞塔路电动车市场6号一层1西3号,西安市,碑林区,34.264297,108.994858,西安伞塔路电动车市场二店,陕西省,,
陕西省西安市碑林区伞塔路付9号,西安市,碑林区,34.264037,108.994458,西安碑林区伞塔路店,陕西省,,
陕西省西安市碑林区东窑坊路6号小牛电动服务体验中心,西安市,碑林区,34.26598,108.992825,西安市伞塔路小牛电动服务体验中心,陕西省,,
陕西省西安市长安区西长安街与府东一路交叉口东北角城南新天地广场7-10107,西安市,长安区,34.158097,108.91087,西安长安区大学城店,陕西省,,
广东省惠州市惠城区白马批发城一层3街-39号,惠州市,惠城区,23.12764,114.427759,惠州惠城区白马商城店,广东省,,
陕西省西安市太华路电动车市场里100米路西,西安市,新城区,34.294935,108.980031,西安新城区太华路店,陕西省,,
陕西省西安市北二环大明宫太华路与凤城一路十字向东500米万达公馆一楼,西安市,未央区,34.313899,108.974073,西安大明宫万达店,陕西省,,
陕西省西安市莲湖区北关正街2号电动车批发市场8号楼1层8.9号商铺,西安市,莲湖区,34.277901,108.946646,西安莲湖区北关正街店,陕西省,,
西安市高新区博文路甘家寨西一门,西安市,雁塔区,34.220617,108.901871,西安高新区甘家寨店,陕西省,,
陕西省西安市莲湖区西市南路118号大唐西市交通银行隔壁,西安市,雁塔区,34.244716,108.907767,西安莲湖区大唐西市店,陕西省,,
陕西省西安市莲湖区文景电动车市场一楼1B商铺,西安市,莲湖区,34.285982,108.938645,西安莲湖区文景路店,陕西省,,
陕西省西安市莲湖区文景南路文景电动车市场一楼小牛电动,西安市,莲湖区,34.285812,108.938653,陕西省咸阳市兴平市店张镇店,陕西省,,
西安市阎良区文化东路,西安市,阎良区,34.663479,109.231266,西安阎良区文化东路店,陕西省,,
山东青岛平度市郑州路11号	,青岛市,平度市,36.7822045941,119.9501125479,青岛平度市郑州路店,山东省,,
陕西省西安市莲湖区西二环南路48号土门电动车市场,西安市,莲湖区,34.268185,108.895772,西安莲湖区沣惠南路土门二店,陕西省,,
陕西省西安市西二环南路48号土门电动车市场,西安市,莲湖区,34.263144,108.889243,西安莲湖区土门店,陕西省,,
山东省滨州市黄河二路与渤海十路交叉口向东路北100米,滨州市,滨城区,37.36994,118.00435,山东省滨州市黄二渤十店,山东省,,
山东省滨州市黄河二路渤海七路交叉口西南角影院沿街楼,滨州市,滨城区,37.370685,118.020786,滨州滨城区黄河二路店,山东省,,
惠州市惠城区河南岸金湖路160号,惠州市,惠城区,23.047006,114.422624,惠州惠城区河南岸金湖路店,广东省,,
广东省广州市白云区太和北路67号,广州市,白云区,23.297531,113.353455,广州白云区太和北路店,广东省,,
广东省广州市黄埔区荔红路121号,广州市,黄埔区,23.175642,113.507994,广州黄埔区荔红路店,广东省,,
广东省广州市增城市新塘镇广深大道中172号,广州市,增城区,23.122011,113.609116,广东省广州市增城区新塘镇广深大道店,广东省,,
广东省广州市增城区新塘镇新塘大道中104号,广州市,增城区,23.116339,113.609325,广州增城区新塘镇新塘大道店,广东省,,
陕西省咸阳市西咸新区沣西新城陈杨寨转盘十字西南角北京裕兴电动车,咸阳市,秦都区,34.31241,108.706816,陕西省咸阳市秦都区陈杨寨店,陕西省,,
广东省汕尾市城区汕尾大道238号,汕尾市,城区,22.775441,115.363779,汕尾城区汕尾大道店,广东省,,
咸阳市渭城区乐育北路与民生西路交叉口,咸阳市,秦都区,34.340831,108.716394,咸阳渭城区乐育北路店,陕西省,,
广东省汕尾市文明中路31号（东升药店旁）,汕尾市,城区,22.77327,115.366019,广东省汕尾市城区文明中路店,广东省,,
河北省石家庄市高邑县凤中路西段路南（立马电动车）,石家庄市,高邑县,37.604389,114.603238,河北省石家庄市高邑县凤中路店,河北省,,
广州市白云区松洲增槎路76号福星摩配城广场区06号,广州市,白云区,23.157101,113.230672,广州白云区松洲店,广东省,,
衡水市人民西路与宝云街交叉口1581号,衡水市,桃城区,37.739904,115.650329,衡水开发区衡百国际店,河北省,,
广东省惠州市惠东县稔山镇亚婆角地段海头铺苑海逸湾5号楼3单元04号商铺,惠州市,惠阳区,22.791108,114.711913,惠州惠东县稔山镇十里银滩店,广东省,,
晋中市介休市新建西路（永安大厦4号门面）,晋中市,介休市,37.017288,111.9118,山西省晋中市介休市新建西路永安大厦店,山西省,,
南海区桂城街道平洲永安北路54号,佛山市,南海区,23.032576,113.212489,佛山南海区桂城永安北路店,广东省,,
佛山市禅城区市东下路39号之三首层1，2号铺,佛山市,禅城区,23.031334,113.125092,佛山禅城区市东下路店,广东省,,
广东省广州市番禺区大北路366号,广州市,番禺区,22.949124,113.368979,广州番禺区大北路店,广东省,,
佛山市禅城区石湾镇街道绿景路胜利村书舍街1巷4号商铺,佛山市,禅城区,23.007768,113.124576,佛山禅城区绿景路店,广东省,,
广东省东莞市长安镇横增路154号	,东莞市,,22.812911,113.790387,东莞长安镇横增路店,广东省,,
深圳市光明区马田街道合水口社区柏溪路2号楼101商铺,深圳市,光明区,22.779212,113.889717,深圳光明新区公明店,广东省,,
深圳市光明新区公明镇耀业大厦三楼,深圳市,光明区,22.778507,113.890421,广东省深圳市光明新区公明镇耀业店,广东省,,
广东省深圳市光明新区东区光明大街49号,深圳市,光明区,22.758201,113.950697,深圳光明新区光明大街店,广东省,,
广东省东莞市虎门镇太宝路15号,东莞市,,22.825946,113.67669,东莞虎门镇太宝路店,广东省,,
广东省佛山市顺德区陈村镇二宅基路2号,佛山市,顺德区,22.953847,113.227848,佛山顺德区陈村镇二宅基路店,广东省,,
广东省深圳市宝安松岗溪头社区天云路1号,深圳市,宝安区,22.773636,113.837854,深圳宝安区松岗天云路店,广东省,,
广东省深圳市龙华新区观澜大道516号,深圳市,龙华区,22.720703,114.063697,深圳龙华区观澜大道店,广东省,,
广东省深圳市宝安区松岗街道东方大道64-1号,深圳市,宝安区,22.75469,113.877738,深圳宝安区松岗街道东方大道店,广东省,,
广东省深圳市宝安区新桥街道上星社区上星新沙路84号东鸿苑新沙路84-6号,深圳市,宝安区,22.728718,113.83725,深圳宝安区沙井新沙路店,广东省,,
广州市南沙区南沙街道双山大道滨海隽城商业广场,广州市,南沙区,22.792448,113.536301,广州南沙区环市大道店,广东省,,
广东省深圳市宝安区石岩宝石东路544号	,深圳市,宝安区,22.680858,113.93477,深圳宝安区石岩宝石东路店,广东省,,
孝义市永安路汽车站南博物馆旁,吕梁市,孝义市,37.13976,111.79931,山西省吕梁市孝义市永安路汽车站店,山西省,,
广东深圳市宝安区福永镇塘尾村十三区一巷8号,深圳市,宝安区,22.701255,113.805484,深圳宝安区福永塘尾店,广东省,,
深圳龙华新区建设路187号锦绣花园小牛电动,深圳市,龙华区,22.64704,114.02309,深圳龙华新区锦绣花园店,广东省,,
广东省深圳市宝安区福永街道怀德社区芳华一区一号4号彬业大厦德丰路106号,深圳市,宝安区,22.669761,113.81798,深圳宝安区福永街道德丰路店,广东省,,
广东省深圳市宝安区航城街道鹤洲路34号一楼小牛专卖店,深圳市,宝安区,22.627081,113.862538,深圳宝安区航城街道鹤洲路店,广东省,,
佛山市顺德区容桂大道北168号宏业楼115号,佛山市,顺德区,22.775572,113.272249,佛山顺德区容桂大道店,广东省,,
太原市小店区真武路四十米街3号（和谐公园对面）,晋中市,祁县,37.44179,112.342585,太原小店区真武路店,山西省,,
石家庄市裕华区方村新村正西157米,石家庄市,裕华区,37.982221,114.553916,石家庄裕华区方村店,河北省,,
深圳市南山区西丽新光路20-4号,深圳市,南山区,22.582986,113.959889,深圳南山区西丽沙河西路店,广东省,,
广东省深圳市宝安区固戍一路76号鑫云天204,深圳市,宝安区,22.601832,113.857853,深圳宝安区固戍一路店,广东省,,
河北省石家庄市桥西区胜利大街与仓丰路交口南行100路东,石家庄市,桥西区,37.990874,114.494955,石家庄桥西区润德市场店,河北省,,
深圳市宝安区西乡宝田一路,深圳市,宝安区,22.594558,113.878657,广东省深圳市宝安区西乡宝田一路店,广东省,,
广东省深圳市宝安区上川路35区5栋161号,深圳市,宝安区,22.578003,113.899339,深圳宝安区上川路店,广东省,,
石家庄市红旗大街汇新路交口南行100米路东,石家庄市,桥西区,37.99887,114.460474,石家庄桥西区西美花街店,河北省,,
广东省深圳市宝安区西乡河东新村61号河东路76,深圳市,宝安区,22.573277,113.880261,深圳宝安区河东新村店,广东省,,
"广东省深圳市宝安区西乡河东新村6113.865305,22.6636651号河东路76",深圳市,宝安区,22.573277,113.880261,广东省深圳市宝安区西乡黄麻布工业街店,广东省,,
深圳市宝安区西乡街道绿海名苑A6商铺,深圳市,宝安区,22.576688,113.86664,广东省深圳市宝安区西乡街道绿海名苑店,广东省,,
深圳市宝安区西乡街道麻布社区南沙新村东四巷1号,深圳市,宝安区,22.574043,113.874171,广东省深圳市宝安区西乡街道麻布社区店,广东省,,
太原市小店区平阳路421号,吕梁市,文水县,37.481293,112.324307,太原小店区平阳路店,山西省,,
深圳市宝安区新湖路华侨新村西堤一巷32号32-1,深圳市,宝安区,22.567381,113.873012,深圳宝安区新湖路店,广东省,,
石家庄裕华区怀特电动车自行车城负一层B1-C区047号,石家庄市,裕华区,38.024351,114.528067,石家庄裕华区槐安路怀特二店,河北省,,
石家庄市裕华区石门小区11号楼北侧498号-1,石家庄市,裕华区,38.029011,114.551491,石家庄裕华区槐中路店,河北省,,
河北省石家庄市大经街槐安西路交口华夏电动车市场,石家庄市,桥西区,38.023289,114.495178,石家庄大经街华夏店,河北省,,
广东省深圳市宝安区新安街道11区新乐社区新乐一街小牛电动,深圳市,宝安区,22.555249,113.906853,深圳宝安区南头关店,广东省,,
槐安路西二环西行500米路北(君晓家园底商),石家庄市,桥西区,38.024666,114.432151,石家庄桥西区西二环店,河北省,,
河北省石家庄市中山东路与谈固西街交口东行50米路南,石家庄市,长安区,38.04359,114.559324,石家庄长安区中山路店,河北省,,
广东省深圳市南山区南新路1239号向南西海花园E栋一楼,深圳市,南山区,22.522379,113.918501,深圳南山区南新路店,广东省,,
石家庄市新华区和平西路车辆厂街交叉口,石家庄市,新华区,38.055123,114.491309,石家庄新华区和平西路二店,河北省,,
河北省石家庄市和平西路135号-13,石家庄市,新华区,38.056052,114.486783,石家庄新华区和平西路一店,河北省,,
河北省石家庄市河北省石家庄市和平西路135号-14,石家庄市,新华区,38.056168,114.486551,河北省石家庄市新华区和平路店,河北省,,
石家庄市长安区建华大街北二环南行50米路西鼎坚市场底商小牛电动,石家庄市,长安区,38.07333,114.544757,石家庄长安区建华大街鼎坚市场店,河北省,,
石家庄市桥西区开泰街广源路北行20米路东,石家庄市,桥西区,38.058512,114.432225,石家庄桥西区开泰街店,河北省,,
深圳市南山区蛇口东滨路17号,深圳市,南山区,22.504521,113.928767,深圳南山区蛇口东滨路店,广东省,,
山西省晋中市花园路84号 澳柯玛电动车专卖店,晋中市,榆次区,37.680972,112.746254,山西省晋中市榆次区花园路店,山西省,,
河北省石家庄市长安区胜利大街21中学北侧,石家庄市,长安区,38.078333,114.514709,石家庄长安区棉六店,河北省,,
中山市小榄镇基头路30号,中山市,,22.67321,113.242085,中山小榄镇基头路店,广东省,,
深圳市南山区蛇口街道蛇口新街229-3号,深圳市,南山区,22.488096,113.927198,深圳南山区蛇口新街店,广东省,,
梧州市万秀区文澜路12号,梧州市,万秀区,23.472059,111.304684,梧州万秀区文澜路二店,广西壮族自治区,,
广西梧州市文澜路6号,梧州市,万秀区,23.471026,111.304432,梧州万秀区文澜路店,广西壮族自治区,,
广西梧州市长洲区新兴二路119号-3号一层2号商场,梧州市,长洲区,23.482174,111.28019,梧州长洲区新兴二路店,广西壮族自治区,,
中山市火炬区东镇大道S22号,中山市,,22.540531,113.463997,中山火炬区东镇大道店,广东省,,
广东省中山市古镇六坊南兴路57号,中山市,,22.612376,113.175981,中山古镇六坊南兴路店,广东省,,
广东省中山市石歧区莲塘东路18号11卡,中山市,,22.527472,113.380907,中山石岐区莲塘东路大信广场店,广东省,,
吕梁市石楼县西门坡道易行专卖店,吕梁市,石楼县,37.000676,110.826859,山西省吕梁市石楼县西门坡店,山西省,,
重庆市綦江区万盛经开区塔山路319号,重庆市,綦江区,28.955301,106.914815,重庆市万盛区店,重庆市,,
广东省江门市蓬江区堤东路197号小牛电动,江门市,蓬江区,22.579024,113.095488,江门蓬江区堤东路店,广东省,,
中山市沙溪镇隆都路57号,中山市,,22.512865,113.316017,中山沙溪镇隆都路店,广东省,,
河北省沧州市新华区解放东路12-25号,沧州市,运河区,38.305813,116.863965,沧州新华区解放东路店,河北省,,
太原市小店区学府街12号,太原市,小店区,37.807193,112.590186,太原小店区学府街店,山西省,,
山西省太原市小店区体育路118号,太原市,小店区,37.831078,112.56944,太原小店区体育路店,山西省,,
山西省太原市万柏林区大王路万搏市场门口小牛电动,太原市,万柏林区,37.834599,112.526658,太原万柏林区万博店,山西省,,
太原市迎泽区青年路22号,太原市,迎泽区,37.855205,112.566543,太原迎泽区青年路店,山西省,,
山西省太原市杏花岭区敦化南路79号顶好电动车市场,太原市,杏花岭区,37.8852,112.59116,太原杏花岭区敦化南路店,山西省,,
山西省太原市杏花岭区解放路万达广场对面,太原市,杏花岭区,37.883321,112.560697,太原杏花岭区解放路店,山西省,,
陕西省汉中市汉台区虎桥路中段,汉中市,汉台区,33.080757,107.023887,汉中汉台区虎桥路店,陕西省,,
龙口市黄成东莱街道东莱街447号,烟台市,龙口市,37.643022,120.535471,烟台龙口市黄成西大街店,山东省,,
中山市坦洲镇金斗大街7号,中山市,,22.266149,113.476978,中山坦洲镇金斗大街店,广东省,,
重庆市江北区建新西路6号,重庆市,江北区,29.567831,106.522808,重庆江北区建新西路店,重庆市,,
柳州市柳北区北雀路102号1-3,柳州市,柳北区,24.362916,109.398825,柳州柳北区北雀路店,广西壮族自治区,,
河北省定州市兴华西路盛世豪庭1号楼东侧底商,保定市,定州市,38.526907,114.997455,保定定州市兴华西路店,河北省,,
贵州省遵义市河滨北路世纪广场对面,遵义市,桐梓县,28.140909,106.831183,贵州省遵义市桐梓县河滨北路世纪广场店,贵州省,,
重庆市江北区天竺路6号-8号,重庆市,江北区,29.584921,106.488528,重庆渝北区天竺路店,重庆市,,
重庆市巴南区重庆市巴南区  鱼洞鱼轻路41-8-9号,重庆市,巴南区,29.380202,106.514556,重庆市巴南区鱼洞鱼轻路店 ,重庆市,,
吕梁市离石区货源街95号,吕梁市,离石区,37.516681,111.14488,山西省吕梁市离石区货源街店,山西省,,
广西柳州市鱼峰区屏山大道恒正小苑199号,柳州市,鱼峰区,24.303933,109.422964,柳州鱼峰区屏山大道大润发店,广西壮族自治区,,
广西省柳州市鱼峰区屏山大道43-20丰华商厦,柳州市,柳南区,24.303065,109.414132,柳州鱼峰区屏山大道店,广西壮族自治区,,
广西贵港市平南县西山路126号,贵港市,平南县,23.549413,110.398307,广西省贵港市市平南县三十米街店,广西壮族自治区,,
重庆市九龙坡区石新路123号附21号,重庆市,九龙坡区,29.518569,106.457366,重庆九龙坡区石新路店,重庆市,,
重庆市九龙坡区重庆市九龙坡区石新路123号附21号,重庆市,九龙坡区,29.518504,106.456361,重庆市九龙坡区石新路店,重庆市,,
贵州省遵义市汇川区大连路吉弟门面3-4号,遵义市,红花岗区,27.705662,106.94619,遵义汇川区大连路店,贵州省,,
贵州省遵义市遵义市汇川区珠海路200号,遵义市,汇川区,27.721235,106.931032,贵州省遵义市汇川区珠海路店,贵州省,,
贵州省遵义市汇川区珠海路还房小区,遵义市,汇川区,27.721214,106.930373,遵义汇川区珠海路店,贵州省,,
重庆市北碚区卢作孚路378号,重庆市,北碚区,29.797539,106.401053,重庆北碚区卢作孚路店,重庆市,,
环城路7号,遵义市,红花岗区,27.670919,106.918957,贵州省遵义市红花岗区桃溪路口店,贵州省,,
广西柳州市柳江区拉堡镇柳堡路555号,柳州市,柳江区,24.260733,109.339104,柳州柳江区柳堡店,广西壮族自治区,,
河北省沧州市任丘市新华街道裕华中路X联盟,沧州市,任丘市,38.689959,116.096452,河北省沧州市任丘市世纪商贸城店,河北省,,
重庆市沙坪坝区重庆师范大学大学城校区北侧门外体育馆东区2号门面,重庆市,沙坪坝区,29.607202,106.309123,重庆沙坪坝区大学城店,重庆市,,
重庆市沙坪坝区重庆市沙坪坝区重庆师范大学大学城校区北侧门外体育馆东区2号门面,重庆市,沙坪坝区,29.612734,106.29989,重庆市沙坪坝区大学城店,重庆市,,
山东省烟台市芝罘区大海阳路付49号,烟台市,芝罘区,37.54339,121.37943,烟台芝罘区大海阳路店,山东省,,
山东省烟台市芝罘区芝罘屯路52号,烟台市,芝罘区,37.55778,121.359734,烟台芝罘区芝罘屯路店,山东省,,
都匀剑江南路1号店,黔南布依族苗族自治州,都匀市,26.264567,107.512395,都匀剑江南路店,贵州省,,
河北省保定市竞秀区七一路588号,保定市,满城区,38.769653,115.290007,保定竞秀区七一路店,河北省,,
陕西省宝鸡市金台区东风路22号三运司西侧		,宝鸡市,金台区,34.360847,107.177418,宝鸡金台区东风路店,陕西省,,
忻州市忻府区光明东街新能源电动车,忻州市,忻府区,38.404946,112.74811,忻州市忻府区光明东街店,山西省,,
河北省保定是莲池区西大街223号,保定市,莲池区,38.861471,115.493408,保定莲池区西大街店,河北省,,
广西省贵港市桂平市西山镇桂南路295号绿源电动车,贵港市,桂平市,23.371367,110.075198,广西省贵港市桂平市西山镇桂南路店,广西壮族自治区,,
陕西省榆林市陕西省榆林市绥德县金阳光商业街16号,榆林市,绥德县,37.49529,110.271149,陕西省榆林市绥德县金阳光商业街店,陕西省,,
宜州市庆远镇车江路18号,河池市,宜州区,24.495246,108.647411,广西省河池市宜州市车江路店,广西壮族自治区,,
重庆市永川区渝西大道中段394号,重庆市,永川区,29.353697,105.909229,重庆永川区渝西大道店,重庆市,,
廊坊市霸州市建设道886号,廊坊市,霸州市,39.111641,116.399101,廊坊霸州市建设大道店,河北省,,
天津市河西区黑牛城道芳竹花园底商7-8,天津市,河西区,39.0826362648,117.213911139,天津河西区黑牛城道店,天津市,,
广西来宾市兴宾区维欢路68号爱玛专卖店,来宾市,兴宾区,23.73473,109.230772,广西来宾市兴宾区维欢路68号爱玛专卖店,广西壮族自治区,,
天津市南开区长江道226号,天津市,南开区,39.130019,117.156423,天津南开区长江道店,天津市,,
天津市河北区榆关道447号小牛电动,天津市,红桥区,39.178424,117.183094,天津河北区榆关道店,天津市,,
广西河池市南新东路157号绿驹电动车门店,河池市,金城江区,24.688461,108.074061,广西河池市南新东路店,广西壮族自治区,,
四川省广元市利州区东坝文化路财政局旁	,广元市,利州区,32.43145,105.842033,广元利州区文化路店,四川省,,
贵州省贵阳市南明区沙冲南路28号浙商电动车城B-0003号小牛电动体验店,贵阳市,南明区,26.54716,106.70362,贵阳南明区沙冲南路店,贵州省,,
四川省泸州市四川省泸州市合江县商业街9-11号,泸州市,合江县,28.814296,105.831299,四川省泸州市合江县商业街店,四川省,,
贵州省贵阳市观山湖区北京西路417号小牛电动专卖店,贵阳市,云岩区,26.596347,106.634482,贵阳观山湖区北京西路店,贵州省,,
北流市城东一路0031号,玉林市,北流市,22.710254,110.355251,广西省北流市城东一路店,广西壮族自治区,,
广西北流市城东一路0032号	,玉林市,北流市,22.708214,110.35113,玉林北流市城东一路店,广西壮族自治区,,
天津市汉沽寨上汉华世家文化街150号	,天津市,滨海新区,39.2599969937,117.811885909,天津汉沽区文化街店,天津市,,
广西省贵港市中山路聚龙城底商,贵港市,港北区,23.093994,109.598813,贵港港北区中山路店,广西壮族自治区,,
广西省贵港市港北区中山路中段西侧（矿产公司）,贵港市,港北区,23.092879,109.599171,广西省贵港市港北区中山路店,广西壮族自治区,,
河北省廊坊市固安县新中街296号,廊坊市,固安县,39.438276,116.294996,廊坊固安县新中街店,河北省,,
天津市宁河芦台镇商业道沿河路增一号	,天津市,宁河区,39.3418795001,117.8384808855,天津宁河区沿河路店,天津市,,
广西玉林市玉州区美林商业街317号（北部湾银行旁）,玉林市,玉州区,22.655169,110.187297,玉林玉州区美林街二店,广西壮族自治区,,
广西玉林市一环东路48号,玉林市,玉州区,22.631243,110.168285,玉林一环东路花园街店,广西壮族自治区,,
广西省玉林市玉州区美林街296号,玉林市,玉州区,22.63444,110.15212,玉林玉州区美林街店,广西壮族自治区,,
广西玉林市民主中路425号良达电动车有限公司,玉林市,玉州区,22.61576,110.149444,广西省玉林市民主中路店,广西壮族自治区,,
河北省廊坊市安次区光明西道蓝天医院隔壁,廊坊市,安次区,39.512198,116.700239,廊坊安次区光明西道店,河北省,,
河北省廊坊市广阳区建国道二小西侧邦德电动车,廊坊市,安次区,39.517182,116.701338,河北省廊坊市广阳区建国道店,河北省,,
河北省廊坊市广阳区爱民东道军分区对面小牛电动,廊坊市,广阳区,39.526512,116.69924,廊坊广阳区银河北路店,河北省,,
河北省廊坊市广阳区爱民道军分区干休所40号甲11号门市,廊坊市,广阳区,39.526669,116.699421,廊坊市广阳区权程电动车经销部,河北省,,
北京市大兴区丽园路枣园东里13号楼7单元102,北京市,大兴区,39.750453,116.336217,北京市大兴区枣园东里店,北京市,,
北京市丰台区王佐镇南宫商业街192号,北京市,房山区,39.763796,116.222764,北京丰台区南宫商业街店,北京市,,
北京市通州区马驹桥镇莲水怡园底商226号,北京市,通州区,39.7628120204,116.5470564365,北京通州区马驹桥店,北京市,,
河北省唐山市路南区复兴路127号,唐山市,路南区,39.620045,118.210771,唐山路南区复兴路店,河北省,,
河北省廊坊市香河县淑阳大街17号,廊坊市,香河县,39.759612,117.003032,廊坊香河县淑阳大街店,河北省,,
朔州市朔城区开发南路（热力公司楼下）小刀电动车,朔州市,朔城区,39.324639,112.435763,山西省朔州市朔城区开发南路店,山西省,,
河北省唐山市路北区龙泽北路220号,唐山市,路北区,39.668728,118.193445,唐山路北区龙泽北路店,河北省,,
北京市丰台区银地家园A区8号楼底商小牛电动,北京市,丰台区,39.822067,116.335594,北京丰台区新发地店,北京市,,
陕西省榆林市西沙文化南路五羊电动车,榆林市,榆阳区,38.279687,109.732731,陕西省榆林市榆阳区西沙文化南路店,陕西省,,
北京市丰台区万年花城万芳园二区13-14号,北京市,丰台区,39.8447366979,116.3160431385,北京丰台区首经贸店,北京市,,
北京市丰台区正阳大街北里18号楼底商,北京市,丰台区,39.848632,116.287735,北京丰台区正阳大街店,北京市,,
北京市丰台区正阳大街65号,北京市,丰台区,39.84908,116.28925,北京市丰台区正阳大街店,北京市,,
北京市丰台区南顶路281号底商S16号,北京市,丰台区,39.8487207003,116.4160202096,北京丰台区南顶路店,北京市,,
北京市丰台区角门北路3号院1号楼底商,北京市,丰台区,39.850504,116.382254,北京丰台区角门北路店,北京市,,
北京市丰台区成寿寺中路福臻家园六号楼底商,北京市,丰台区,39.854378,116.434412,北京成寿寺中路方庄店,北京市,,
北京市丰台区木樨园桥东路北小牛电动,北京市,丰台区,39.857396,116.403601,北京丰台区木樨园店,北京市,,
北京市丰台区右安门街道开阳里八区九号楼一层底商小牛电动,北京市,丰台区,39.864231,116.373472,北京丰台区开阳里店,北京市,,
北京市朝阳区美景东方9号楼东二门,北京市,朝阳区,39.868956,116.472113,北京朝阳区松榆南路店,北京市,,
北京市东城区安乐林路10--27号,北京市,东城区,39.870824009,116.4202003251,北京东城区赵公口店,北京市,,
北京市西城区右安门内大街紫金印象28号院1号楼小牛电动,北京市,丰台区,39.873369,116.364771,北京西城区右安门内大街店,北京市,,
广西玉林市博白县人民北路057号（人民医院十字路口绿源电动车旁）,玉林市,博白县,22.271738,109.98397,玉林博白县人民北路店,广西壮族自治区,,
北京市西城区鸭子桥路1号院4号,北京市,丰台区,39.877188,116.346598,北京西城区白纸坊店,北京市,,
北京市丰台区华源一里5号,北京市,丰台区,39.88191,116.313462,北京丰台区太平桥西路店,北京市,,
北京市西城区南横东街5一16号,北京市,西城区,39.883786,116.381921,北京西城区南横东街店,北京市,,
北京市东城区广渠门内大街86-4号,北京市,东城区,39.893161,116.427126,北京东城区磁器口店,北京市,,
北京市朝阳区广渠门外大街15号楼1号,北京市,朝阳区,39.893963,116.453327,北京朝阳区广渠门外大街店,北京市,,
北京市朝阳区广渠门外大街15号楼小牛电动,北京市,朝阳区,39.893902,116.453195,北京市朝阳区双井店,北京市,,
北京市朝阳区百子湾东里324号楼一层324-02	,北京市,朝阳区,39.895761,116.50728,北京朝阳区百子湾东里店,北京市,,
北京市通州区玉带河西街1号楼1-3,北京市,通州区,39.9010287437,116.6549777985,北京通州区玉带河西街店,北京市,,
北京市朝阳区康惠园3号院8号楼底商,北京市,朝阳区,39.9043044703,116.5775692463,北京朝阳区双桥路店,北京市,,
北京市朝阳区双桥路金淤可乐B座,北京市,朝阳区,39.903842,116.576698,北京市朝阳区双桥路店,北京市,,
北京市石景山区古城西路113号1层104,北京市,石景山区,39.914999,116.178242,北京市石景山区古城西路店,北京市,,
北京市石景山区古城西路113号1层104,北京市,石景山区,39.9211077744,116.1845707614,北京石景山区古城西路店,北京市,,
广西南宁市横县横州镇环城西路（迎宣西路）116号,南宁市,横县,22.686489,109.266651,南宁横县横州镇环城西路店,广西壮族自治区,,
北京市海淀区田村中街公交站,北京市,海淀区,39.929435,116.246717,北京海淀区田村店,北京市,,
北京市西城区赵登禹路166号小牛电动,北京市,西城区,39.928454,116.367327,北京西城区赵登禹路店,北京市,,
朝阳区团结湖水碓子东路6号楼北侧,北京市,朝阳区,39.926613,116.473161,北京朝阳区水碓子东路店,北京市,,
北京市东城区朝阳门北小街6号楼6-7,北京市,东城区,39.927925,116.426361,北京东城区朝阳门北小街店,北京市,,
富顺县富世镇北湖南路154号（大转盘）,自贡市,富顺县,29.180403,104.98055,四川省自贡市富顺县富世镇北湖南路店,四川省,,
北京市朝阳区常营街道万象新天家园四区南1门416号楼底商,北京市,朝阳区,39.92589,116.593386,北京朝阳区常营天街店,北京市,,
北京市朝阳区平房青年路西里5号润枫水尚东区1号楼12号底商,北京市,朝阳区,39.92843,116.515912,北京朝阳区青年路大悦城店,北京市,,
北京市西城区地安门西大街6号,北京市,西城区,39.933159,116.395076,北京西城区地安门西大街店,北京市,,
北京市东城区交道口南大街74号,北京市,东城区,39.936752,116.408571,北京东城区交道口南大街店,北京市,,
广东省茂名市电白县电城镇北门头庄山大道,茂名市,电白区,21.51475,111.293826,茂名电城镇庄山大道店,广东省,,
北京市西城区高粱斜街（北京交通大学公交站北30米）,北京市,西城区,39.946697,116.34343,北京西城区高粱斜街店,北京市,,
北京市海淀区西三环北路12号,北京市,海淀区,39.952152,116.309987,北京海淀区万寿寺店,北京市,,
北京市东城区和平里北街安外花园东区7号楼底商,北京市,东城区,39.959077,116.412067,北京东城区和平里北街店,北京市,,
广东省茂名市油城四路经济和信息化局一楼,茂名市,茂南区,21.663985,110.913496,茂名油城四路店,广东省,,
河北省廊坊市三河燕郊经济开发区行宫西大街38号,廊坊市,三河市,39.948353,116.804936,廊坊三河市燕郊行宫大街店,河北省,,
北京市西城区新街口外大街6号院,北京市,海淀区,39.964146,116.3708,北京西城区北太平庄店,北京市,,
北京市朝阳区东坝南二街金驹家园一区底商,北京市,朝阳区,39.9610204693,116.5636968613,北京朝阳区东坝店,北京市,,
北京市朝阳区太阳宫金星园4号楼105,北京市,朝阳区,39.967686,116.454913,北京朝阳区太阳宫店,北京市,,
河北省廊坊三河市燕郊高新区燕顺路1026号（西城派出所南66米）,廊坊市,三河市,39.965212,116.778251,廊坊燕郊燕顺路店,河北省,,
河北省廊坊市三河市燕郊经济开发区燕顺路1026号（西城派出所南66米）,廊坊市,三河市,39.965212,116.778251,河北廊坊市燕郊开发区燕顺路店,河北省,,
北京市朝阳区酒仙桥芳园西路高家园五区2号楼底商,北京市,朝阳区,39.979178,116.486883,北京朝阳区芳园西路酒仙桥店,北京市,,
北京市海淀区北四环西路51-1号小牛电动车,北京市,海淀区,39.985906,116.316895,北京海淀区北四环西路中关村店,北京市,,
北京市海淀区北四环中路248-1号（北航北门东100米）,北京市,海淀区,39.98614,116.344845,北京海淀区北四环中路北航店,北京市,,
北京市朝阳区芍药居北里117号底商小牛电动,北京市,朝阳区,39.987194,116.434472,北京朝阳区芍药居店,北京市,,
北京市海淀区中关村北大街18号,北京市,海淀区,39.9909760965,116.3226718542,北京海淀区中关村北大街店,北京市,,
北京市朝阳区大屯路东逸园甲11号楼底商,北京市,朝阳区,40.0028321692,116.414308548,北京朝阳区大屯路店,北京市,,
河北省廊坊市鼎盛西大街116号,廊坊市,三河市,39.98114,117.069103,河北省廊坊市三河市鼎盛西大街店,河北省,,
北京市朝阳区广顺北大街六百本北区17-3,北京市,朝阳区,40.009009,116.466406,北京朝阳区望京东湖渠店,北京市,,
北京市海淀区天秀花园荷塘月舍1号楼1层008A,北京市,海淀区,40.020861,116.280173,北京海淀区肖家河店,北京市,,
北京市海淀区清河强佑新城2号楼底商103号,北京市,海淀区,40.02877,116.347992,北京海淀区清河强佑新城店,北京市,,
北京市朝阳区红军营东路与红军营南路交叉口西150米,北京市,朝阳区,40.032782,116.43581,北京朝阳区北苑店,北京市,,
四川省绵阳市涪城区成绵路6号,绵阳市,涪城区,31.466364,104.746076,绵阳涪城区成绵路店,四川省,,
广东茂名电白区水东镇人民路91号	,茂名市,电白区,21.513166,111.007042,茂名电白区人民路店,广东省,,
北京市昌平区回龙观东大街北回归线小区1号楼,北京市,昌平区,40.0803864278,116.3517433405,北京昌平区回龙观店,北京市,,
北京市昌平区北七家镇郑各庄村温都水城平西府西公交站对面，麦考利小牛电动授权体验店,北京市,昌平区,40.101015,116.373592,北京市昌平区温都水城店,北京市,,
北京市顺义区义宾北区甲2号楼1层103号,北京市,顺义区,40.132207,116.649469,北京顺义区义宾小区店,北京市,,
武鸣县万隆国际,南宁市,武鸣区,23.15213,108.283066,广西省南宁市武鸣县万隆国际店,广西壮族自治区,,
南宁市武鸣区标营路（万隆国际对面）	,南宁市,武鸣区,23.150073,108.282674,南宁武鸣区标营路店,广西壮族自治区,,
北京市平谷区新平东路62号,北京市,平谷区,40.1453510843,117.1304855666,北京平谷区新平东路店,北京市,,
北京市昌平区城角西路9号,北京市,昌平区,40.220608,116.2225,北京昌平区城角西路店,北京市,,
四川省宜宾市蜀南大道西段，宜达小区5——7号,宜宾市,叙州区,28.753515,104.635902,四川省宜宾市翠屏区蜀南大道店,四川省,,
南宁市青秀区仙葫大道西155号,南宁市,青秀区,22.80899,108.439007,南宁青秀区仙葫盘古路口店,广西壮族自治区,,
广西南宁青秀区仙葫大道西115号,南宁市,青秀区,22.808704,108.437679,南宁青秀区仙葫大道店,广西壮族自治区,,
四川省宜宾市翠屏区酒圣路71号,宜宾市,翠屏区,28.791411,104.609898,宜宾翠屏区酒圣路店,四川省,,
南宁市邕宁区蒲庙镇彩虹南路68号,南宁市,邕宁区,22.760739,108.485211,南宁邕宁区彩虹南路店,广西壮族自治区,,
广西壮族自治区南宁市兴宁区南梧路251号,南宁市,兴宁区,22.856528,108.358777,南宁兴宁区南梧路店,广西壮族自治区,,
四川省德阳市长江西路118号,德阳市,旌阳区,31.127124,104.387133,四川省德阳市长江西路店,四川省,,
德阳市长江西路二段80号,德阳市,旌阳区,31.12727,104.3867,德阳旌阳区长江西路店,四川省,,
广西南宁青秀区云景路9号东景花园21号商铺	,南宁市,青秀区,22.81668,108.38767,南宁青秀区云景路店,广西壮族自治区,,
河北省秦皇岛市海阳路132号	,秦皇岛市,海港区,39.934893,119.594705,秦皇岛海港区海阳路店,河北省,,
广西南宁市青秀区长湖路10号博石丰商厦一层,南宁市,青秀区,22.829315,108.360308,南宁青秀区长湖路店,广西壮族自治区,,
广西省南宁市南宁市兴宁区长兴路8号同和华彩美地B03号商铺,南宁市,兴宁区,22.833382,108.340478,广西省南宁市兴宁区长兴路店,广西壮族自治区,,
广西南宁市中华路4号	,南宁市,兴宁区,22.832837,108.329382,南宁兴宁区中华路店,广西壮族自治区,,
南宁市兴宁区公园路7号,南宁市,兴宁区,22.831601,108.328178,南宁兴宁区公园路店,广西壮族自治区,,
广西南宁市中华路铁唐巷134-136号,南宁市,兴宁区,22.831538,108.323735,南宁兴宁区铁唐巷总店,广西壮族自治区,,
广西省南宁市兴宁区铁唐巷74号,南宁市,兴宁区,22.83169,108.324269,南宁兴宁区铁唐巷二店,广西壮族自治区,,
南宁市中华路铁唐巷135号,南宁市,兴宁区,22.831025,108.322967,广西省南宁市西乡塘区铁唐巷店,广西壮族自治区,,
广西省南宁市中华路铁塘巷155号,南宁市,兴宁区,22.830339,108.32163,南宁兴宁区铁唐巷一店,广西壮族自治区,,
广西南宁市青秀区青山路10-1,南宁市,青秀区,22.797964,108.35785,南宁青秀区青山路店,广西壮族自治区,,
南宁市青秀区青山路10-1号,南宁市,青秀区,22.797872,108.357739,广西省南宁市青秀区青山路店,广西壮族自治区,,
广西南宁市星湖路28-1号,南宁市,青秀区,22.806917,108.342001,南宁青秀区星湖路店,广西壮族自治区,,
山西省大同市城区安益前街安琪儿专卖店,大同市,平城区,40.123975,113.307785,山西省大同市城区安益前街店,山西省,,
广西南宁市西乡塘明秀西路113号,南宁市,西乡塘区,22.832264,108.294783,南宁西乡塘区明秀西路店,广西壮族自治区,,
广西省南宁市西乡塘区中华路133-1号,南宁市,西乡塘区,22.819685,108.305357,南宁西乡塘区中华北大路店,广西壮族自治区,,
南宁市西乡塘区雅里中坡19号永和桥北11-13、15-16号,南宁市,西乡塘区,22.811532,108.297386,南宁西乡塘区永和路二店,广西壮族自治区,,
广西壮族自治区南宁市西乡塘区大学东路162-10号大润发对面,南宁市,西乡塘区,22.839438,108.261972,南宁西乡塘区大学东路动物园店,广西壮族自治区,,
广西南宁西乡塘区雅里中坡19号永和桥北永和停车场A区4栋412,南宁市,江南区,22.807658,108.296304,南宁西乡塘区永和桥店,广西壮族自治区,,
广西南宁市江南区五一路37-3号、37-4号,南宁市,江南区,22.794649,108.294838,南宁江南区南建路店,广西壮族自治区,,
广西省南宁市江南区五一路37号,南宁市,江南区,22.795998,108.293334,南宁江南区五一路店,广西壮族自治区,,
广西南宁市良庆区银海大道235号,南宁市,江南区,22.753851,108.318488,南宁良庆区银海大道大沙田店,广西壮族自治区,,
广东省湛江市赤坎区九二一路40号,湛江市,赤坎区,21.276348,110.359537,湛江赤坎区九二一路店,广东省,,
广西壮族自治区南宁市江南区富民路33号附近,南宁市,江南区,22.64451,108.21885,南宁江南区富民路店,广西壮族自治区,,
成都市锦江区经华南路16号,成都市,锦江区,30.642893,104.104482,成都锦江区经华南路店,四川省,,
四川省成都市锦江区二环路东5段-1号附16号,成都市,锦江区,30.625494,104.099269,成都锦江区二环路店,四川省,,
广东省湛江市霞山区解放东路10号,湛江市,霞山区,21.197591,110.415354,湛江霞山区解放东路海滨店,广东省,,
百色市田东县人民路与东鑫巷交叉口,百色市,田东县,23.600782,107.123378,百色田东县人民东路店,广西壮族自治区,,
百色市田东县东宁西路东鑫巷,百色市,田东县,23.601464,107.122541,广西省百色市田东县东宁西路店,广西壮族自治区,,
广东省湛江市解放西路金城大厦（金马大酒店对面）,湛江市,霞山区,21.191738,110.399351,湛江霞山区解放西路店,广东省,,
成都市高新区一环路南三段30号,成都市,武侯区,30.633057,104.05678,成都高新区一环路店,四川省,,
成都市金牛区营门口路283号-285号,成都市,金牛区,30.687808,104.0402,成都金牛区营门口路店,四川省,,
成都市武侯区二环路南四段73号附18号,成都市,武侯区,30.635099,104.031855,成都武侯区二环路红牌楼店,四川省,,
成都市青羊区清江东路356号附3号,成都市,青羊区,30.67002,104.0246,成都青羊区清江东路店,四川省,,
百色市右江区城北二路14号凤凰城6#A21号,百色市,右江区,23.898785,106.610658,百色右江区城北二路店,广西壮族自治区,,
广西北海市合浦县还珠大道21号,北海市,合浦县,21.662665,109.195828,北海合浦县还珠大道店,广西壮族自治区,,
一环西路280号,眉山市,东坡区,30.048116,103.842643,四川省眉山市东坡区一环西路店,四川省,,
四川省眉山市东坡区一环西路280号,眉山市,东坡区,30.049982,103.824104,眉山东坡区一环西路店,四川省,,
广西省钦州市钦南区子材西大街1号,钦州市,钦南区,21.967943,108.633354,钦州钦南区子材西大街店,广西壮族自治区,,
云南省昭通市凤仪路14号1-51-6门面,昭通市,绥江县,28.595374,103.966402,云南省昭通市绥江县凤仪路店,云南省,,
四川省成都市崇州市龙门南街159号,成都市,崇州市,30.62617,103.66437,四川省成都市崇州市崇州市龙门南街店,四川省,,
广西省北海市海城区北部湾中路2号,北海市,海城区,21.480107,109.129946,北海海城区北部湾中路店,广西壮族自治区,,
广西壮族自治区北海市海城区北部湾中路新思维培训中心西南门,北海市,海城区,21.48184,109.124272,广西省北海市海城区北部湾中路店,广西壮族自治区,,
内蒙古鄂尔多斯东胜区杭锦北路2号小区6号楼14号底商,鄂尔多斯市,东胜区,39.813446,110.000487,鄂尔多斯杭锦北路店,内蒙古自治区,,
广西省防城港市防城区防港路168号,防城港市,防城区,21.762222,108.364504,防城港防城区防港路店,广西壮族自治区,,
贵州省兴义市南环路嘉华豪庭正大门（农商银行旁）,黔西南布依族苗族自治州,兴义市,25.0802,104.898403,兴义南环路嘉华豪庭店,贵州省,,
辽宁省营口市鲅鱼圈区海东街道达泰小区2号楼6号门市,营口市,鲅鱼圈区,40.256933,122.152122,营口市鲅鱼圈区长江路森达小区店,辽宁省,,
葫芦岛市连山区新华大街24号楼爱玛电动车,葫芦岛市,连山区,40.749848,120.847246,葫芦岛市连山区新华大街店,辽宁省,,
广西东兴市东盟大道宝丽安绿源电动车,防城港市,东兴市,21.550459,107.96988,广西省防城港市东兴市北仓大道店,广西壮族自治区,,
海口市美兰区海甸岛人民大道50号罗牛山大厦1楼,海口市,美兰区,20.056741,110.33966,海口龙华区海甸岛人民中路店,海南省,,
海口市龙华区新华南路2号金鹿电动车城内,海口市,龙华区,20.037666,110.345835,海口龙华区东湖金鹿店,海南省,,
海口市龙华区东湖路1号,海口市,龙华区,20.036195,110.347252,海口龙华区东湖路二店,海南省,,
海南省海口市海南省海口市龙华区新华南路金鹿摩托电动车城三友台铃6S售后服务中心,海口市,龙华区,20.037712,110.345239,海南省海口市龙华区新华南店,海南省,,
海口市龙华区新华南路2号东湖公寓底商,海口市,龙华区,20.0365,110.344735,海口龙华区东湖路店,海南省,,
海口市美兰区龙昆北路23号吉林大厦一层,海口市,龙华区,20.028595,110.328596,海口龙华区龙昆北路店,海南省,,
海口琼山区琼州大道明珠大厦一层,海口市,琼山区,20.005665,110.358807,海口琼山区琼州大道店,海南省,,
海南省海口市琼山区高登东街83号,海口市,琼山区,19.998712,110.361559,海口琼山区高登东街一店,海南省,,
海口市琼山区高等东街173号,海口市,琼山区,19.998359,110.361408,海口琼山区高登东街三店,海南省,,
海口市秀英区秀英大道商业学院旁,海口市,秀英区,20.010512,110.281134,海口秀英区秀英大道店,海南省,,
海口市龙华区中沙路18号F栋144-145号,海口市,龙华区,19.98553,110.315069,海口龙华区金盘中沙路店,海南省,,
银川市兴庆区新华东街建发商业广场4-1-3,银川市,兴庆区,38.459622,106.291171,银川兴庆区建华家世界店,宁夏回族自治区,,
宁夏省银川市兴庆区凤凰北街149号（中山公园西门口向南200米）,银川市,兴庆区,38.474684,106.262972,银川兴庆区凤凰北街店,宁夏回族自治区,,
东港市迎宾大街芙蓉怡景苑西门,丹东市,东港市,39.882633,124.130506,东港市迎宾大街芙蓉怡景苑西门店,辽宁省,,
曲靖市罗平县西关街259号,曲靖市,罗平县,24.87348,104.307148,云南省曲靖市罗平县西关街店,云南省,,
兰州市城关区段家滩路20号摩托车汇展中心B区01-3,兰州市,城关区,36.045172,103.894717,兰州城关区段家滩汇展中心店,甘肃省,,
云南省曲靖市麒麟区南宁北路164号（农村信用社正对面）,曲靖市,麒麟区,25.503217,103.80516,曲靖麒麟区南宁北路店,云南省,,
盘锦市兴隆台区兴三街益天龙商厦爱玛电动车,盘锦市,兴隆台区,41.127272,122.071125,盘锦市兴隆台区兴三街益天龙商厦店,辽宁省,,
海南省琼海市嘉积镇富海路40号,,琼海市,19.249641,110.468804,琼海嘉积镇富海路店,海南省,,
海南省儋州市那大人民中路249号,儋州市,,19.51274,109.570473,儋州那大镇人民中路店,海南省,,
四川省凉山彝族自治州四川省西昌市长安中路爱玛专卖店,凉山彝族自治州,西昌市,27.888521,102.257264,四川省凉山彝族自治州西昌市长安中路店,四川省,,
云南省文山市开化中路57号,文山壮族苗族自治州,文山市,23.370454,104.240515,文山开化中路店,云南省,,
顺城东路726号,凉山彝族自治州,会理县,26.657458,102.249,四川省凉山彝族自治州会理县顺城东路店,四川省,,
昆明市五华区沣源路农大教工小区5-2号商铺,昆明市,盘龙区,25.124891,102.741687,昆明五华区农大店,云南省,,
昆明市盘龙区北京路1073号金星地铁C1口处,昆明市,盘龙区,25.082225,102.734572,昆明盘龙区北京路店,云南省,,
昆明市盘龙区人民东路522号	,昆明市,盘龙区,25.04938,102.749266,昆明盘龙区人民东路店,云南省,,
昆明市官渡区饵季路26号,昆明市,官渡区,24.981739,102.779867,昆明官渡区珥季路二店,云南省,,
云南省昆明市北京路延长线昌龙电动车超市旁,昆明市,盘龙区,25.076427,102.727592,云南省昆明市北京路店,云南省,,
昆明市盘龙区北京路1018号景秀花园,昆明市,盘龙区,25.076605,102.727547,昆明盘龙区北京路二店,云南省,,
昆明市官渡区饵季路228号,昆明市,官渡区,24.978849,102.776681,昆明官渡区珥季路一店,云南省,,
昆明市盘龙区穿金路146号（穿金路中段公交站台后）,昆明市,盘龙区,25.057044,102.72936,昆明盘龙区穿金路店,云南省,,
昆明呈贡区景明南路2276号,昆明市,呈贡区,24.838413,102.838896,昆明呈贡区大学城店,云南省,,
云南省昆明市佴家湾路455号台铃售后（环城南路与春城路红灯路口旁）,昆明市,官渡区,25.023937,102.726886,云南省昆明市佴家湾路店,云南省,,
昆明市五华区西昌路586号,昆明市,五华区,25.042936,102.704234,昆明五华区西昌路店,云南省,,
昆明市五华区西昌路538号附4号,昆明市,西山区,25.036174,102.698316,昆明五华区西昌路二店,云南省,,
昆明市五华区学府路690号,昆明市,五华区,25.065144,102.677646,昆明五华区学府路店,云南省,,
海南省陵水黎族自治县椰林镇建设路468号,,陵水黎族自治县,18.503453,110.029109,陵水黎族自治县椰林镇建设路店,海南省,,
云南省昆明市西山区环城西路374号,昆明市,西山区,25.02615,102.69751,昆明西山区环城西路店,云南省,,
环城西路374号商铺,昆明市,西山区,25.026573,102.697457,昆明市环城西路授权服务店,云南省,,
昆明市西山区万达广场前兴路672号,昆明市,西山区,25.001922,102.709427,昆明西山区前兴路店,云南省,,
陵水县椰林镇建设路468号,,陵水黎族自治县,18.503268,110.028746,海南省陵水黎族自治县椰林镇建设路店,海南省,,
辽宁省沈阳市沈河区南顺城路63甲3号,沈阳市,沈河区,41.792752,123.458645,沈阳沈河区南顺城路店,辽宁省,,
海南省东方市八所镇东海路40-1号,,东方市,19.103667,108.656337,东方东海路店,海南省,,
海南省东方市八所镇东海路40-1号,,东方市,19.103752,108.656298,东方市东海路店,海南省,,
三亚市海棠区南田路与223国道交叉口西北50米,三亚市,海棠区,18.408052,109.762091,三亚海棠区藤桥店,海南省,,
四川省攀枝花市仁和区攀枝花大道南段530号,攀枝花市,仁和区,26.52286,101.721703,攀枝花仁和区攀枝花大道店,四川省,,
云南省红河自治州蒙自市天马路浙江商贸城C区3栋29-32号商铺,红河哈尼族彝族自治州,蒙自市,23.368789,103.388153,红河自治州蒙自市浙江商贸城店,云南省,,
云南省红河自治州蒙自市兴盛路73号,红河哈尼族彝族自治州,蒙自市,23.360162,103.386726,红河自治州蒙自市兴盛路店,云南省,,
三亚市海棠区林旺路35-1号,三亚市,海棠区,18.314452,109.703668,三亚海棠区林旺店,海南省,,
海南省三亚市三亚市吉阳镇上新村87号,三亚市,吉阳区,18.284069,109.589746,海南省三亚市吉阳区上新村店,海南省,,
三亚市吉阳区亚龙湾路80号,三亚市,吉阳区,18.281341,109.591956,三亚吉阳区亚龙湾路店,海南省,,
海南省三亚市海南省三亚市吉阳区荔枝沟水厂C5商铺,三亚市,吉阳区,18.29763,109.530479,海南省三亚市吉阳区荔枝沟水厂店,海南省,,
海南省三亚市吉阳区荔枝沟路190-4号,三亚市,吉阳区,18.297195,109.529629,三亚吉阳区荔枝沟路店,海南省,,
玉溪市通海县秀山西路金穗万家11号商铺,玉溪市,通海县,24.115267,102.755566,云南省玉溪市通海县秀山西路店,云南省,,
海南省三亚市天涯区凤凰镇凤凰路241号,三亚市,天涯区,18.297375,109.456931,三亚天涯区凤凰镇凤凰路店,海南省,,
海南省三亚市解放路933号,三亚市,天涯区,18.26476,109.49798,三亚天涯区解放路店,海南省,,
云南省玉溪市红塔区珊瑚路16号-7-8,玉溪市,红塔区,24.363529,102.546153,玉溪红塔区珊瑚路店,云南省,,
三亚市崖州区崖城中心小学前50米,三亚市,吉阳区,18.242766,109.503917,三亚崖州区崖城店,海南省,,
海南省三亚市天涯区胜利路266号,三亚市,吉阳区,18.241431,109.504428,三亚天涯区胜利路店,海南省,,
三亚市天涯区马岭社区马岭街89号,三亚市,天涯区,18.3038,109.337421,三亚天涯区马岭街店,海南省,,
三亚市天涯区胜利路263号,三亚市,崖州区,18.370606,109.166957,三亚天涯区胜利路二店,海南省,,
海南省三亚市中心医院对面,三亚市,崖州区,18.364166,109.165856,海南省三亚市崖州区中心医院店,海南省,,
甘肃省武威市凉州区东部综合批发市场13号楼153,武威市,凉州区,37.90861,102.687727,武威凉州区东部批发市场店,甘肃省,,
青海省西宁市城东区七一路美佳花园169-3号,西宁市,城东区,36.617529,101.800752,西宁城东区七一路美佳花园店,青海省,,
云南省楚雄市鹿城镇鹿城东路137号,楚雄彝族自治州,楚雄市,25.037883,101.555913,楚雄鹿城镇鹿城东路店,云南省,,
丽江市古城区东界河中段立马专卖店,丽江市,古城区,26.873356,100.213794,云南省丽江市古城区东界河中段店,云南省,,
云南省大理白族自治州云南省大理州宾川县金牛镇佛都路117号,大理白族自治州,宾川县,25.827345,100.575521,宾川县建国摩托工贸有限公司,云南省,,
大理市下关区建设东路37号立马专卖店,大理白族自治州,大理市,25.585679,100.231701,云南省大理市下关建设东路店,云南省,,
张掖市甘州区南二环路69号鸿宇商贸广场146-148号	,张掖市,甘州区,38.919036,100.474035,张掖甘州区南二环店,甘肃省,,
长春市南关区大马路882号,长春市,南关区,43.89486,125.340352,长春南关区大马路店,吉林省,,
玉泉路与兰城路交叉口,保山市,隆阳区,25.117167,99.169987,保山市小牛体验店,云南省,,
云南省保山市交通路中段新日电动车,保山市,施甸县,24.731514,99.185941,云南省保山市施甸县交通路中段店,云南省,,
云南省芒市团结大街186号,德宏傣族景颇族自治州,芒市,24.424513,98.572191,芒市团结大街店,云南省,,
拉萨市城关区林廓西路广电厅商品房北21号小牛电动,拉萨市,城关区,29.656051,91.114167,拉萨城关区林廓西路店,西藏自治区,,
天山北路金苑小区10-7号门面新蕾电动车,哈密市,伊州区,42.841176,93.50254,新疆哈密地区哈密市天山北路店,新疆维吾尔自治区,,
新疆吐鲁番市高昌区柏孜克里克路3号地东五段104号-105号房,吐鲁番市,高昌区,42.943961,89.189031,吐鲁番高昌区柏孜克里克路店,新疆维吾尔自治区,,
高昌区柏孜克里克路3号地东五段104号/105号小牛电动专卖店,吐鲁番市,高昌区,42.943985,89.189027,新疆吐鲁番市高昌区柏孜克里克路店,新疆维吾尔自治区,,
乌鲁木齐市沙依巴克区河滩北路723号,乌鲁木齐市,沙依巴克区,43.823651,87.598292,乌鲁木齐沙依巴克区河滩北路店,新疆维吾尔自治区,,
乌鲁木齐新市区长春南路16号,乌鲁木齐市,新市区,43.867712,87.586881,乌鲁木齐新市区长春南路店,新疆维吾尔自治区,,
幸福路9一10号小牛电动专卖店,,石河子市,44.309969,86.026775,新疆石河子市幸福路店,新疆维吾尔自治区,,
新疆石河子市5小区幸福路9-10号,,石河子市,44.309908,86.02668,石河子幸福路店,新疆维吾尔自治区,,
