address,city,districd,lat,lon,name,province,street,town
山东省济南市历下区解放路121号,济南市,历下区,36.65655420178723,117.12639941261048,济南圣达辉电动车有限公司,山东省,,
山东省济南市长清区峰山路黄河商场东门北临爱玛专卖店,济南市,长清区,36.390716674180446,116.78037694777943,济南市长清区爱玛电动车销售部,山东省,,
山东省济南市济阳县城纬二路经四路路口东南角沿街楼,济南市,济阳区,37.032805727163876,117.1500211964464,济阳县百顺电动车商店,山东省,,
山东省济南市平阴市黄河路中段路东小羚羊专卖店,济南市,平阴县,36.29486132106647,116.46261667805571,平阴县顺利家电经营部,山东省,,
山东省济南市商河县商中路武装部队对过爱玛专卖店,济南市,商河县,37.31497071555638,117.16352979289881,商河县富士达自行车商行,山东省,,
山东省德州市经济开发区北方电动车批发市场/德城区解放中大道495号,德州市,德城区,37.45699328302057,116.30544896636886,德州市德城区富达车行,山东省,,
山东省德州市宁津县正阳路莲花超市对过新世纪车业有限公司,德州市,宁津县,37.658018745854946,116.80653761373941,宁津县新世纪摩托电动车超市,山东省,,
山东省德州市夏津县新工街爱玛电动车专卖店,德州市,夏津县,36.97075838672285,116.01248805157087,夏津县爱玛电动车商行,山东省,,
山东省德州市临邑县苍圣大街东首路南爱玛电动车,德州市,临邑县,37.19616936672706,116.87340370301902,临邑县万宝路电动车商场,山东省,,
山东省德州市庆云县城区中心街859号,德州市,庆云县,37.78158531885699,117.39145244824853,庆云县奥蕾电动自行车销售中心,山东省,,
山东省德州市齐河县齐鲁大街爱玛电动车专卖店,德州市,齐河县,36.797001816129914,116.7670625662395,齐河县振华车品配件商店,山东省,,
山东省德州市禹城县物资局对面,德州市,禹城市,36.94024200876569,116.64437110138118,禹城市爱玛电动自行车专卖店,山东省,,
山东省德州市乐陵市兴乐商厦（商业大厦）交通组,德州市,乐陵市,37.73592450080975,117.23840643173311,乐陵市张健电动车销售处,山东省,,
山东省胶州市胶州路与广州路十字路口东20米路北,青岛市,市南区,36.072227496663224,120.38945519114627,青岛金福吉祥商贸有限公司,山东省,,
山东省莱西市威海中路,青岛市,莱西市,36.86719075516456,120.52326523662371,莱西市小乔车行,山东省,,
山东省青岛市黄岛区富春江路32号,青岛市,市南区,36.072227496663224,120.38945519114627,青岛美越佳工贸有限公司,山东省,,
山东省青岛市李沧区九水路39-5,青岛市,李沧区,36.16271519996157,120.43450997349086,青岛市李沧区鑫银城摩托车销售中心,山东省,,
山东省青岛市即墨市烟春路651号凌云摩托车公司,青岛市,市南区,36.072227496663224,120.38945519114627,青岛颐祥摩托车销售有限公司,山东省,,
山东省青岛市城阳区泽惠贸易中心B座29号,青岛市,黄岛区,35.96417704092573,120.19593938582953,青岛泽惠爱玛电动车有限公司,山东省,,
山东省青岛市平度市济南路中段爱玛专卖店,青岛市,市南区,36.072227496663224,120.38945519114627,青岛市二郭摩托车销售有限公司,山东省,,
山东省青岛市胶南市辛河街11号爱玛专卖店,青岛市,市南区,36.072227496663224,120.38945519114627,青岛万达汽车销售有限公司,山东省,,
山东省日照市莒县青年中路11号,日照市,莒县,35.585872122989336,118.84353824240415,莒县全浩电动车经销中心,山东省,,
山东省日照市五莲县罗山路28号,日照市,五莲县,35.75569710410426,119.21558036258607,日照凌云工贸有限公司五莲家电摩托车商场,山东省,,
山东省日照市海曲中路23号大昌摩托城,日照市,东港区,35.42283899843767,119.53341540456555,日照新世纪工贸有限公司,山东省,,
山东省烟台市芝罘大海阳路49号,烟台市,莱山区,37.470038383730525,121.45441541730195,烟台港隆商贸有限公司,山东省,,
山东省烟台市福山区福海路与县府街路口西南泰宏车行,烟台市,福山区,37.50366822845149,121.27460474743894,福山区城区泰宏平衡车商行,山东省,,
山东省烟台市牟平区工商大街619号,烟台市,牟平区,37.392915451795815,121.60654911474143,山东牟平农业机械有限责任公司,山东省,,
山东省烟台市莱山区迎春大街宜丰商厦3区1号,烟台市,莱山区,37.51764858410898,121.4513806717976,莱山区腾达摩托车商场,山东省,,
山东省烟台市开发区鑫源大厦21号,烟台市,福山区,37.67629821660662,121.13128154061079,烟台开发区华信商行,山东省,,
山东省烟台市莱阳市旌旗路221号红星交电商场,烟台市,莱阳市,36.98466446772096,120.7163039204434,莱阳市红星交电商场,山东省,,
山东省烟台市招远市金城广场都市佳人电动车行,烟台市,招远市,37.36113714256612,120.44060165264568,招远豪诺商贸有限公司,山东省,,
山东省烟台市蓬莱市东关路127号,烟台市,蓬莱市,37.81643872596949,120.76556151494698,蓬莱市登州爱玛车行经销处,山东省,,
山东省烟台市龙口市黄城劳动局南200米路东,烟台市,龙口市,37.654766638762275,120.53598695571361,龙口市黄城德益电动车商店,山东省,,
莱州市府东街49号爱玛电动车专卖店,烟台市,莱州市,37.1865192555125,119.94982654066574,莱州市府东街顺达电动车商店,山东省,,
山东省威海市高技术产业开发区颐顺园10-6号,威海市,环翠区,37.414475538908746,121.94104646630326,威海高技术产业开发区小付电动车行,山东省,,
山东省威海市草庙子镇红绿灯南100米爱玛专卖店,威海市,环翠区,37.30588080786553,122.14698578472127,威海临港经济技术开发区草庙子镇修凤电动车超市,山东省,,
山东省威海市工业高区初村镇驻地,威海市,环翠区,37.415586354249555,121.94394270926747,威海高技术产业开发区汇源家电摩托车商场,山东省,,
山东省威海市文登市文山路58号长风摩托车销售有限公司,威海市,文登区,37.15412026978127,122.0107822332547,文登市长风摩托车销售有限公司,山东省,,
山东省威海市荣成南山北路72号三友实业有限公司,威海市,荣成市,37.171317939253235,122.49250463073764,荣成市三友实业有限责任公司,山东省,,
山东省威海市乳山市青山路海峰摩托车城,威海市,乳山市,36.92517735787775,121.54642858119733,乳山市德通贸易有限公司,山东省,,
山东省泰安市老汽车站对面春升大厦商贸有限公司,泰安市,泰山区,36.2058580448846,117.0944948347959,泰安市春升商贸有限公司,山东省,,
山东省泰安市新泰市新汶大街中段,泰安市,新泰市,35.88028092125472,117.69262104844026,新泰市双龙经贸有限公司,山东省,,
山东省临沂市兰山区工业大道与启,临沂市,兰山区,35.06578058514105,118.29466899444952,临沂博美车业有限公司,山东省,,
山东省临沂市苍山县南环路中段,临沂市,兰陵县,34.86361638543997,118.0774094949949,兰陵县成豪电动车经营部,山东省,,
山东省临沂市莒南县城新建路南段,临沂市,莒南县,35.18081163178793,118.84154077027218,山东省临沂市莒南县王维明,山东省,,
山东省临沂市临沭县常林东大街9号,临沂市,临沭县,34.92601859149122,118.65749450009906,山东省临沂市临沭县杨大建,山东省,,
山东省临沂市费县费城镇建设路中段,临沂市,费县,35.263382103005455,117.97828621873379,费县费城镇恒久摩托车经营部,山东省,,
山东省临沂市平邑县老公安局路东,临沂市,平邑县,35.51201963664022,117.64654058086437,平邑县鲁轻电动车经营部,山东省,,
山东省临沂市沂南县花山路商贸大厦一楼,临沂市,沂南县,35.55609766694983,118.47149154086414,沂南县爱玛电动车专卖店,山东省,,
山东省临沂市蒙阴县新城路东段,临沂市,蒙阴县,35.71634716623248,117.95141460145422,蒙阴县鸿源电动车销售中心,山东省,,
山东省临沂市沂水县深化街9-2号爱玛专卖店,临沂市,沂水县,35.79618058471814,118.63461726384591,沂水县大鑫电动车商店,山东省,,
山东省泰安市宁阳县富源巷北门,泰安市,宁阳县,35.76453909734402,116.81257853863292,宁阳县建军车行,山东省,,
山东省泰安市东平县东原公安局广场东爱玛专卖店,泰安市,东平县,35.94190801501926,116.47759421565412,东平县澳源车辆销售中心,山东省,,
山东省泰安市肥城市上海路农机公司沿街楼爱玛专卖店,泰安市,肥城市,36.18881122431525,116.77540081764421,肥城市顺通达摩托车行,山东省,,
山东省潍坊市奎文区民生东街17号爱玛电动车专卖店,潍坊市,奎文区,36.71265155126753,119.16837791142822,潍坊万恒车业销售有限公司,山东省,,
山东省潍坊市安丘市一马路北关派出所对面爱玛专卖店,潍坊市,安丘市,36.483842195596104,119.2256075181801,安丘市龙骏电动车销售中心,山东省,,
山东省潍坊市寿光市渤海路南纬摩托车商城,潍坊市,寿光市,36.86192174647094,118.7974153748082,寿光市仁爱电动车经营部,山东省,,
山东省潍坊市诸城市广场路32号百顺商场自行车部,潍坊市,诸城市,36.00200885807568,119.41640221866636,诸城市宏利自行车经营部,山东省,,
山东省潍坊市临朐县大转盘向东80米兴龙电动车,潍坊市,临朐县,36.519129501827656,118.54944999641151,临朐县隆德电动车商城,山东省,,
山东省潍坊市昌邑县新兴街301号爱玛电动车,潍坊市,昌邑市,36.85675711017273,119.42204445760842,昌邑市新兴街爱玛车行,山东省,,
山东省潍坊市高密市立新街1318号爱玛专卖店,潍坊市,高密市,36.388956706464846,119.76241099601636,高密市新宇电动车销售中心,山东省,,
山东省潍坊市昌乐县京昌路228号,潍坊市,昌乐县,36.71299619084501,118.83648798143965,昌乐金城摩托车有限公司,山东省,,
山东省潍坊市青州市红光路口60米路南,潍坊市,青州市,36.690416508705376,118.48653672086745,青州市骏财电动车经营部,山东省,,
山东省东营市东营区胶州路福前小区赵纪车行,东营市,东营区,37.45484732016579,118.58846268606544,东营区东城赵鹏翔车行,山东省,,
山东省东营市东营区西三路27号,东营市,东营区,37.45484732016579,118.58846268606544,东营区福满园电动车经营部,山东省,,
山东省东营市河口区中心路步行街爱玛电动车,东营市,河口区,37.891120201055706,118.53250516974624,河口区步行街雁龙电动车大世界,山东省,,
广饶县兵圣路166号,东营市,广饶县,37.059638498906146,118.41349864392043,广饶县鑫钰摩托城,山东省,,
山东省济宁市曲阜市静轩西路80号一层东首(城区,济宁市,曲阜市,35.60088950348962,117.00251131498234,曲阜市阳光车业,山东省,,
山东省济宁市邹城县铁山路199号,济宁市,邹城市,35.40752093244999,117.01440416129005,邹城市爱尚玛商贸有限公司,山东省,,
山东省济宁市鱼台县鱼新一路爱玛专卖,济宁市,鱼台县,35.00514688895108,116.65766772970935,鱼台县鹿超摩托车销售有限公司,山东省,,
山东省济宁市泗水县泗河办人民路中段,济宁市,泗水县,35.68419660483578,117.21551305023502,泗水县泗河办文博电动车行,山东省,,
山东省济宁市梁山县城青年路52号院内,济宁市,梁山县,35.80806388661061,116.10262029577927,梁山县梁冠商贸有限公司,山东省,,
山东省济宁市嘉祥县研兰中街100号,济宁市,微山县,34.815066378195084,117.1306045603638,济宁市毅润电动车有限公司,山东省,,
山东省济宁市琵琶山路37号爱玛专卖店/运河路秀水城向南500米路东,济宁市,任城区,35.420177394529645,116.59361234853988,济宁市天波商贸有限公司,山东省,,
"山东省济宁市兖州区中御桥路29号 
",济宁市,兖州区,35.557952373283435,116.7901151517282,济宁市兖州区恒大摩托车销售有限公司,山东省,,
山东省济宁市汶上县老百货大楼,济宁市,汶上县,35.73439092452653,116.4979427066255,汶上县启动爱玛电动车经营部,山东省,,
山东省枣庄市文化中路32号,枣庄市,市中区,34.86996272506961,117.56256581399447,枣庄市市中区爱玛电动车专卖店,山东省,,
滕州市平行路今孔府向南5-10号爱玛旗舰店,枣庄市,滕州市,35.038954866484566,117.08644808352918,滕州市荆河恒丰车行,山东省,,
山东省济宁市微山县城后路65号,济宁市,微山县,34.82159024497021,117.13916168300771,微山县夏镇汇欣电动车行,山东省,,
山东省枣庄市薛城区临山路357-5号,枣庄市,薛城区,34.801124568638926,117.2694576193132,薛城区富王摩配经营部,山东省,,
山东省枣庄市台儿庄区兴中路爱玛专卖店,枣庄市,台儿庄区,34.57562457174382,117.74202801767557,台儿庄区兴中路德峰电动车商行,山东省,,
山东省淄博市张店区东四路44号外贸仓库-杨京军,淄博市,张店区,36.81908568332188,118.06145253489896,淄博骑无忧车业有限公司,山东省,,
山东省淄博市博山区沿河东路22号光明摩托车有限公司,淄博市,博山区,36.500847855130566,117.86846875371543,博山城东鑫明摩托车销售部,山东省,,
山东省淄博市淄川吉祥路169号,淄博市,淄川区,36.649834806021666,117.9734118576298,淄川般阳金赢电动车经营部,山东省,,
山东省淄博市临淄区牛山路235号甲2,淄博市,临淄区,36.8322936351522,118.31539460934518,临淄区雪宫比德文电动车店,山东省,,
山东省淄博市高青县汽车站往北100米,淄博市,高青县,37.17188514626329,117.83969270450046,高青县中心路吸引力电动车超市,山东省,,
山东省淄博市沂源县居家城中心街南麻东和电动车,淄博市,沂源县,36.19091698584845,118.1774894423699,沂源县南麻东和电动车行,山东省,,
山东省淄博市桓台县商业街（百货大楼向东100米路南）,淄博市,桓台县,36.95499909552388,118.11635884961886,桓台县索镇超越电动车销售中心,山东省,,
山东省滨州市黄河2路爱玛电动车专卖店,滨州市,滨城区,37.436843207743635,118.026603850606,滨州市滨城区新世纪电动车销售中心,山东省,,
山东省滨州市无棣县棣新一路235号,滨州市,无棣县,37.777567312085814,117.63245748606224,无棣县益德电动车销售中心,山东省,,
山东省滨州市沾化县县城沿河路北首,滨州市,沾化区,37.707244596302814,117.97140387532335,沾化吉祥商贸有限公司,山东省,,
山东省滨州市邹平县东升商场爱玛电动车专卖店,滨州市,邹平市,36.8700322166973,117.74947848721935,邹平新世界摩托车销售中心,山东省,,
山东省滨州市惠民县城东门街林业局一楼,滨州市,惠民县,37.49448245213326,117.52500883650421,惠民县孙武镇爱玛电动车专卖店,山东省,,
山东省滨州市阳信县幸福1路821号,滨州市,阳信县,37.64733803495721,117.58443703790701,阳信县信城奥斯电动车专卖店,山东省,,
山东省莱芜市汶河大道秀水佳园爱玛电动车专卖店,济南市,莱芜区,36.23365413364694,117.68466691247161,莱芜市万国环宇商贸有限公司,山东省,,
山东省聊城市利民东路15号,聊城市,东昌府区,36.44037784073227,115.99458657175785,聊城市东昌府区军豪电动车商行,山东省,,
山东省聊城市莘县新华路北首,聊城市,莘县,36.23990712054613,115.67739687245674,莘县鲁轻电动车门市部,山东省,,
山东省聊城市高唐县恒冠物流园2号仓库,聊城市,高唐县,36.85159108409526,116.23560427567926,高唐县合力车行,山东省,,
山东省聊城市临清县永清路中段,聊城市,临清市,36.864276905378254,115.72394733347546,临清市永清路爱玛电动车专卖店,山东省,,
山东省聊城市茌平县汇鑫路王庄村,聊城市,茌平县,36.60007239814315,116.26858942519179,茌平县王建车行,山东省,,
山东省聊城市冠县清泉建设路120号,聊城市,冠县,36.49024322539373,115.44939579503601,冠县飞达电动车商行,山东省,,
山东省聊城市阳谷县狮子楼路100米路东,聊城市,阳谷县,36.12153774697087,115.78947696334276,阳谷县狮子楼路爱华电动车经销部,山东省,,
山东省菏泽市巨野县前进路中段新世纪车业,菏泽市,巨野县,35.40206238060898,116.10159901224499,巨野县新世纪精品车行,山东省,,
山东省菏泽市郓城县西门街十八中南80米路东,菏泽市,郓城县,35.6059023196872,115.95045057628886,郓城县新世纪爱玛电动车行,山东省,,
山东省菏泽市鄄城县鄄三路建行南,菏泽市,鄄城县,35.564817750041826,115.51950521635942,鄄城县爱玛电动车经营部,山东省,,
山东省菏泽市东明县五四路中段,菏泽市,东明县,35.296933270313346,115.10249956640152,东明县爱玛电动车商行,山东省,,
山东省菏泽市曹县李家林路口东爱玛专卖店,菏泽市,曹县,34.83180934841467,115.54845724362382,曹县磐石办事处明升电动车门市部,山东省,,
山东省菏泽市定陶县南大街范蠡商场向东100米,菏泽市,定陶区,35.07727517975711,115.57943737523806,菏泽市定陶区盛岚电动车行,山东省,,
山东省菏泽市成武县大医院东段路新大街爱玛专卖,菏泽市,成武县,34.95860565495999,115.8965190083863,成武县文涛电动车销售服务中心,山东省,,
山东省菏泽市单县西环胜利西路398号爱玛专卖,菏泽市,单县,34.78465843369218,116.11158367798839,单县爱玛电动车专卖店,山东省,,
