address,city,districd,lat,lon,name,province,street,town
浙江湖州织里镇公园路35号爱玛电动车,湖州市,吴兴区,30.846702847218356,120.27815998930977,湖州织里志良电瓶车商行,浙江省,,
浙江省湖州市双林镇虹凤南路12号,湖州市,南浔区,30.855242982242903,120.42460139422415,南浔爱忠电动车商行,浙江省,,
浙江省湖州市德清县新市镇西兴街61、63、65号,湖州市,德清县,30.62457643133347,120.27614328266019,德清县新市镇虎亮电动车商行,浙江省,,
浙江省湖州市安吉县浦源大道415号爱玛专卖店,湖州市,安吉县,30.644424794113846,119.68656337875633,安吉爱玛电动车商行,浙江省,,
浙江省湖州市德清县武康镇千秋街330-334号再铭电动车商行,湖州市,德清县,30.548628239138925,119.98346466845346,德清武康再铭电动车商行,浙江省,,
浙江省湖州市南街376、378号,湖州市,吴兴区,30.86295545498643,120.19160466020135,吴兴美满车行,浙江省,,
浙江省湖州市长兴县仓泉街88号爱玛专卖店,湖州市,长兴县,31.0325793268347,119.91749832197264,长兴雉城超凡车行,浙江省,,
浙江省嘉兴市禾兴南路251号,嘉兴市,南湖区,30.750974830920143,120.76355182586005,嘉兴市名洋汽车销售服务有限公司,浙江省,,
浙江省嘉兴市秀洲区王江泾镇木林森嘉兴国际商贸城A1-06号,嘉兴市,秀洲区,30.770207214173517,120.71543705562627,嘉兴市秀洲区王江泾光明摩配商店,浙江省,,
浙江省嘉兴市洪合镇民和口路498号,嘉兴市,秀洲区,30.770207214173517,120.71543705562627,嘉兴市秀洲区洪合永诚电动车修理部,浙江省,,
浙江省嘉兴市秀洲区新塍镇蓬莱路868号,嘉兴市,南湖区,30.750974830920143,120.76355182586005,嘉兴市新塍阿刚摩托车修理部,浙江省,,
浙江省嘉兴市嘉善县解放路276号,嘉兴市,嘉善县,30.853170509268434,120.92397490688451,嘉善县魏塘镇佳悦车行,浙江省,,
浙江省嘉兴市平湖市当湖东路97-103号当湖新捷达贸易商行,嘉兴市,平湖市,30.682240998057836,121.02257525525401,平湖市当湖新捷达贸易商行,浙江省,,
海宁县海州街道文苑路396号,嘉兴市,海宁市,30.51792376977565,120.68656506738283,海宁市新时代摩托车有限公司硖石分公司,浙江省,,
浙江省嘉兴市桐乡市学前路198号绿源电动车大卖场,嘉兴市,桐乡市,30.63631118771037,120.57154315530762,桐乡市心源电动车大卖场,浙江省,,
浙江省海盐县朝阳西路174-178号,嘉兴市,海盐县,30.531872894537752,120.95244526273444,海盐县武原宇胜车行,浙江省,,
浙江省杭州市拱墅区三墩路29号2.3.4.5幢,营口市,鲅鱼圈区,40.263301913070606,122.18719872192642,杭州路顺电动车有限公司,辽宁省,,
浙江省杭州市萧山区城街街道萧绕路946号,杭州市,萧山区,30.193424709850493,120.30958873469571,杭州萧山城厢豪玛电动车商行,浙江省,,
浙江省杭州市淳安县千岛湖镇新安北路72号,杭州市,淳安县,29.610411359075684,119.04015834788116,淳安县千岛湖镇为众电动车店,浙江省,,
浙江省杭州市淳安县汾口镇武强路,杭州市,淳安县,29.4383774586465,118.55453870121394,淳安县汾口百信摩托车行,浙江省,,
浙江省杭州市富阳市富春街道桂花西路183-5号,杭州市,富阳区,30.05472296730377,119.96655568417805,杭州富阳捷源车业有限公司,浙江省,,
浙江省杭州市临安市锦城街道临天路331号,杭州市,临安区,30.24122287915095,119.72191334177813,临安锦城刘云峰摩托车修理部,浙江省,,
浙江省杭州市桐庐县富春江镇七里垅大街327号,杭州市,桐庐县,29.79459711015528,119.71033728244572,桐庐县桐君街道连华电动车商行,浙江省,,
浙江省杭州市建德市新安江街道严州路山水华庭34号,杭州市,建德市,29.475022050867807,119.2758771550299,建德市新安江街道天彬摩托车修配店,浙江省,,
浙江省绍兴市柯桥区杨汛桥镇孙家桥居委会,绍兴市,柯桥区,30.079003604949623,120.45151103408105,绍兴市柯桥区杨汛桥恒兴机电经营部,浙江省,,
浙江省上绍兴市新昌县南明街道鼓山中路185号,绍兴市,新昌县,29.44691373783931,120.94819448018954,新昌县南明街道爱玛摩托车经营部,浙江省,,
"嵊州市三江街道一景路2号时代商务广场5,6,7号",绍兴市,嵊州市,29.567326991294273,120.83743725739004,嵊州市裘飞翔电动车商行,浙江省,,
浙江省绍兴市上虞市新建路111号,绍兴市,上虞区,29.978040053660578,120.88943232282809,上虞市百官街道新生代车行,浙江省,,
浙江省金华市永康市九铃东路3235号,金华市,永康市,28.899852238821673,120.04753521424236,永康市东城佳捷时电动车经营部,浙江省,,
浙江省金华市武义县温泉路锦绣街8-9号,金华市,武义县,28.898243786650067,119.82256555866991,武义县正日贸易有限公司,浙江省,,
浙江省浦江县黄宅镇望江路32号,金华市,浦江县,29.458692851854586,119.89843608269538,浦江县宜龙电瓶车车行,浙江省,,
浙江省金华市浦江县和平南路44号,金华市,浦江县,29.458692851854586,119.89843608269538,浦江县伟东车行,浙江省,,
浙江省金华市义乌市城中中路3号,金华市,义乌市,29.31114987541007,120.08158099305928,义乌市天鹰电动车有限公司,浙江省,,
浙江省金华市东阳市中山路5号,金华市,东阳市,29.295861065150863,120.2484219279141,东阳市甘树明电动车行,浙江省,,
浙江省衢州市龙游市人民路22号,衢州市,龙游县,29.034486553294915,119.17841825565665,龙游双马车行,浙江省,,
浙江省江山市清湖镇和睦村平塔山201号,衢州市,江山市,28.74286848011839,118.63358329792732,江山市东俊电动车商行,浙江省,,
衢州市柯城区衢化学院路378号,衢州市,柯城区,28.89942404010252,118.91372548553083,浙江省衢州市巨化镇傅小峰,浙江省,,
浙江省衢州市常山县文峰东路37号,衢州市,常山县,28.906997949113464,118.51755663117751,常山县铃峰摩托车有限公司,浙江省,,
浙江省宁波市江北区庄桥街道东邵村薛家桥庄老火车站大榭开发区绿源电动车销售有限公司,宁波市,鄞州区,29.866033045866054,121.62857249434141,宁波云尚电动科技有限公司,浙江省,,
浙江省宁波市宁海县跃龙街人民大道300号,宁波市,宁海县,29.294317441105566,121.43643177294247,宁海县阿龙电动自行车店,浙江省,,
浙江省宁波市慈溪市浒山街道车城46、47、52、53号,宁波市,慈溪市,30.19236446961796,121.25427079374565,慈溪市浒山幼萍助动自行车店,浙江省,,
浙江省宁波市余姚市阳明街道阳明西路630号,宁波市,余姚市,30.055848869850852,121.15559985832576,余姚市绿骐电动车店,浙江省,,
宁波市象山县石浦镇火炉头路218号,宁波市,象山县,29.21941409340668,121.94618484628003,象山石浦志能电瓶车经营部,浙江省,,
浙江省宁波奉化市南山路23号,宁波市,奉化区,29.661146412779814,121.41352776719268,宁波奉化丰舆车业有限公司,浙江省,,
浙江省宁波市象山县丹峰西路23-2号,宁波市,象山县,29.480014749807218,121.892555019216,象山丹城盛建电动车商行,浙江省,,
浙江省舟山市普陀区勾山街道勾山街72号,舟山市,定海区,29.99091168016034,122.21355631852045,舟山市新城朱洋车行,浙江省,,
浙江省舟山市普陀区沈家门街道东海中路56号,舟山市,普陀区,29.97683569653626,122.33154416585897,浙江省舟山市普陀区张财玲,浙江省,,
浙江省舟山市岱山县高亭镇沿港西路103号,舟山市,岱山县,30.269655894034567,122.23260481448817,浙江省舟山市岱山县王铭,浙江省,,
浙江省台州市黄岩区华东汽摩城爱玛专卖店,台州市,黄岩区,28.655333607550652,121.2685660511622,台州市黄岩久新电动车商行,浙江省,,
浙江省台州市椒江区云西路61号,台州市,椒江区,28.67925822490251,121.4494079756909,台州市椒江阿江电动车商行,浙江省,,
浙江台州市三门县新兴街35号,台州市,三门县,29.110355206288737,121.40255379759475,三门县海光电瓶车经营部,浙江省,,
浙江省台州市玉环县榴岛大道127-129号,台州市,玉环市,28.179738010608965,121.28442605522312,玉环县爱玛电动自行车商行,浙江省,,
浙江省台州市仙居县城北西路32号,台州市,仙居县,28.864038969356542,120.74119127796342,仙居县中意摩托车商店,浙江省,,
浙江省台州市天台县上清溪路202号,台州市,天台县,29.149514378149117,121.01355337629343,天台县卫强电动车商店,浙江省,,
台州市路桥区里王路131号,台州市,路桥区,28.586946666725996,121.37157806768772,台州市路桥银聚来助动车商行,浙江省,,
浙江省临海市柏叶西路19号,台州市,临海市,28.8640493290829,121.15158529413057,浙江省临海市李建,浙江省,,
浙江省台州市临海市杜桥镇环城南路291号,台州市,临海市,28.8640493290829,121.15158529413057,临海市许辉电动车商行,浙江省,,
浙江省温州市鹿城区锦绣路丰收新村4栋102号,温州市,鹿城区,28.020351607763462,120.6615864979342,温州市鹿城区小南绿驹电动自行车店,浙江省,,
浙江省温州市瓯海区104国道慈湖段150号,温州市,鹿城区,28.02551952990471,120.6106455687523,温州市鹿城区双屿阿文电动车店,浙江省,,
浙江省温州市平阳县昆阳镇平瑞路464-470号,温州市,平阳县,27.667724401092695,120.57251537444397,平阳县业鸿摩托车配件经营部,浙江省,,
浙江省温州市文成县大峃镇建设路200号,温州市,文成县,27.79321715229029,120.09748845651636,文成县鑫龙电动车有限公司,浙江省,,
浙江省温州市瑞安市玉海街道解放东路,温州市,瑞安市,27.783950736231652,120.66158218606775,瑞安市迅豪摩托车行,浙江省,,
浙江瑞安市湖岭镇湖松路28号,温州市,瑞安市,27.914266528710474,120.34429504228298,瑞安市湖岭镇苏立敬,浙江省,,
浙江省温州市永嘉县桥下镇西溪中路55号,温州市,永嘉县,28.116586300312456,120.58777243866119,永嘉县桥下镇朋光自行车修理店,浙江省,,
浙江省温州市永嘉县上塘镇换成西路59号,温州市,永嘉县,28.15645033220569,120.68852407508358,永嘉县城关宏达自行车店,浙江省,,
浙江省温州市龙湾区永兴街道永强大道4046号,温州市,龙湾区,27.938652244915872,120.81946755397436,温州市龙湾永兴琼洁电动自行车店,浙江省,,
浙江省温州市乐清市柳市镇育英北路118号,温州市,乐清市,28.051558929263155,120.90903265566439,乐清市柳市黎军二轮电瓶车商行,浙江省,,
浙江省温州市乐清市北白象镇交通东路197-199号,温州市,乐清市,28.04206498360182,120.86412519543825,乐清市北白象极速车行,浙江省,,
浙江省温州市泰顺县罗阳镇泰分路32号,温州市,泰顺县,27.562170559597206,119.72353725758818,泰顺县顺宏摩托车经营部,浙江省,,
浙江省温州高新技术产业开发区温州大道822号,温州市,鹿城区,28.00108540447221,120.70647689035565,温州高新技术产业开发区如意电瓶车行,浙江省,,
浙江省丽水市缙云县壶镇镇溪西大街122号101,丽水市,缙云县,28.85388408729133,120.30134718432281,缙云县壶镇镇玖玖电动车行,浙江省,,
浙江省丽水市水阁镇上桥浙南玻璃有限公司（遂松路280-4）,丽水市,莲都区,28.473278180563412,119.9295730584414,丽水市小高电动车店,浙江省,,
浙江省丽水市云和县元和街道新建南路150、152号,丽水市,云和县,28.121469507453906,119.57959736407496,云和县顺安电动车商行,浙江省,,
浙江省丽水市遂昌县妙高街道公园路168、170号,丽水市,遂昌县,28.598454676709746,119.28243538621696,遂昌姐妹电动车行,浙江省,,
浙江省丽水市缙云县五云街道电力路82号,丽水市,缙云县,28.665214747164,120.0974783056641,缙云县顺达电动车经营部,浙江省,,
浙江省龙泉市公园路158号,丽水市,龙泉市,28.080508725251303,119.14844476520678,龙泉市吴利兴电动车行,浙江省,,
浙江省丽水市松阳县车站路13号,丽水市,松阳县,28.45505640427278,119.48854377015539,浙江省丽水市松阳县周仙青,浙江省,,
浙江丽水市莲都区解放街528号,丽水市,莲都区,28.473278180563412,119.9295730584414,丽水市老谢电动车商行,浙江省,,
浙江省丽水市景宁县红星街道鹤溪中路41号,丽水市,景宁畲族自治县,27.979553966950995,119.64243033108566,景宁老叶车行,浙江省,,
新疆省库尔勒市团结路联通公司底商爱玛电动车专卖店,巴中市,巴州区,31.857685602645372,106.77551310771157,巴州文泽商贸有限公司,四川省,,
新疆省巴音郭楞蒙古自治州和硕县绿源电动车行,巴音郭楞蒙古自治州,和硕县,42.28806506242823,86.88368903725248,和硕县绿源电动车行,新疆维吾尔自治区,,
新疆阿克苏地区库车县步行街广场,阿克苏地区,库车县,41.723447514832976,82.96845878728406,库车县比德文电动车专卖店,新疆维吾尔自治区,,
新疆省阿克苏市沙雅县爱玛专卖店,阿克苏地区,沙雅县,41.227749329027176,82.78882373614826,沙雅爱玛电动车商行,新疆维吾尔自治区,,
新疆阿克苏市中原路4-10A号,阿克苏地区,阿克苏市,41.17385992695259,80.26992675733364,阿克苏市君杰电动车车行,新疆维吾尔自治区,,
新疆省哈密市广东路爱玛专卖店,哈密市,伊州区,42.8368591423151,93.51213269332447,哈密市广东路爱玛电动车经销部,新疆维吾尔自治区,,
新疆省哈密市三道岭矿区建安路爱玛专卖,哈密市,伊州区,42.34446710455244,93.52937301238876,哈密三道岭顺达车行,新疆维吾尔自治区,,
新疆省和田市北京东路11号爱玛专卖店,和田地区,和田市,37.11833554446567,79.92021246975499,和田市金信车行,新疆维吾尔自治区,,
新疆省博尔自治洲博乐市爱玛专卖店,博尔塔拉蒙古自治州,博乐市,44.86000978463866,82.05797225459081,博乐市爱玛电动车专卖店,新疆维吾尔自治区,,
新疆省喀什市远方市场爱玛专卖店,喀什地区,喀什市,39.47364953291228,76.00031273791514,喀什市北辰电动车销售中心,新疆维吾尔自治区,,
新疆省乌鲁木齐市长春路美居物流园L座户外运动市场爱玛专卖店,乌鲁木齐市,新市区,43.877672369809915,87.5840844586302,乌鲁木齐高新技术产业开发区爱玛车业,新疆维吾尔自治区,,
新疆维吾尔自治区伊犁哈萨克自治州奎屯市乌鲁木齐路28-3号赛特名品广场,伊犁哈萨克自治州,奎屯市,44.43205721000423,84.90944924168677,奎屯飞鹰自行车店,新疆维吾尔自治区,,
新疆省吐鲁番市广汇路南段,吐鲁番市,高昌区,42.94899770621382,89.1952306941822,吐鲁番市清馨爱玛电动车销售行,新疆维吾尔自治区,,
