address,city,districd,lat,lon,name,province,street,town
江西省南昌市西湖区洪城路105号 爱玛电动车专卖店,南昌市,东湖区,28.68945529506072,115.86458944231661,南昌经谱车业有限公司,江西省,,
江西省南昌市新建区长堎镇长征西路252号,南昌市,新建区,28.698748625155122,115.82145092530017,新建区老肖电动车店,江西省,,
江西省南昌市安义县沿河路蔚蓝嘉园A28号楼,南昌市,安义县,28.85079427375071,115.55544146387352,安义县袁桥车行,江西省,,
江西省南昌市进贤县进贤大道326号,南昌市,进贤县,28.382758944473657,116.24853779343151,进贤洪明怀,江西省,,
江西省上饶市五三大道延伸段27号,上饶市,信州区,28.460208177750268,117.99130018006709,信州区爱玛电动车营业部,江西省,,
江西省上饶市上饶县旭日北大道222号,上饶市,上饶县,28.454186874770276,117.91558441252161,上饶县海洋电动车行,江西省,,
江西省上饶市广丰县光明路爱玛专卖店,上饶市,广丰区,28.36410917463725,118.27712534763036,广丰县爱玛电动车店,江西省,,
江西省上饶市弋阳县弋江镇志敏大地道11号,上饶市,弋阳县,28.384082001230794,117.4555063762417,弋阳县戴氏车行,江西省,,
江西省上饶地区婺源县城南路金苑状元阁一号楼6-7号爱玛专卖店,上饶市,婺源县,29.254039048096878,117.86844502242613,婺源县长建电动车行,江西省,,
江西省余干县新建大街干越大道91-105号,上饶市,余干县,28.707866244418767,116.70160096198632,余干县学先电动车助力车专卖店,江西省,,
江西省上饶市玉山县山清大道爱玛电动车,上饶市,玉山县,28.675557051801103,118.2515308682008,玉山县爱玛电动车经营部,江西省,,
江西省上饶市德兴市银城镇银城中路53号,上饶市,德兴市,28.952564863028318,117.58547968518205,德兴市爱玛电动车专卖店,江西省,,
江西省上饶市铅山县古镇街,上饶市,铅山县,28.321504694791088,117.71642163695348,上饶市铅山县王竹辉,江西省,,
江西省上饶市横峰县人民大道29号,上饶市,横峰县,28.413440462383896,117.60239738301532,横峰县爱玛店,江西省,,
江西省上饶市万年县万昌路48号,上饶市,万年县,28.700054054128923,117.06459894217386,万年县爱玛专卖店,江西省,,
江西省上饶市鄱阳县鄱阳镇人民北路35号,上饶市,鄱阳县,29.02506362257552,116.73247584093039,鄱阳县鄱阳镇赵武电动车店,江西省,,
江西省抚州市临川区钧天小区,抚州市,临川区,27.9404589928642,116.31848983160644,抚州市临川区发达车行,江西省,,
崇仁县巴山镇万盛商业街2号店,抚州市,崇仁县,27.759079756014405,116.08354898487654,崇仁县吉祥狮电动车经营店,江西省,,
江西省抚州市南城县九鼎建明家电超市,抚州市,南城县,27.576240966559514,116.64339884970856,南城县建明家电总店,江西省,,
江西省抚州市黎川县日峰路124路,抚州市,黎川县,27.28834023483109,116.9145070033776,江西省抚州市黎川县肖玲,江西省,,
江西省抚州市金溪县人民医院斜对面,抚州市,金溪县,27.925329188976068,116.76040404065004,江西省抚州市金溪县王早琴,江西省,,
江西省抚州市广昌县沿江路,抚州市,广昌县,26.848454446680922,116.34256064638275,广昌县力宝电动车行,江西省,,
江西省抚州市东乡县商贸城爱玛专卖,抚州市,东乡区,28.221297983215873,116.61962270290499,江西省抚州市东乡县罗跃飞,江西省,,
江西省抚州市南丰县交通路爱玛电动车,抚州市,南丰县,27.224733524876402,116.53140350859456,南丰县谭应根电动车销售店,江西省,,
江西省抚州市资溪县鹤城镇建设西路11号,抚州市,资溪县,27.71184578573218,117.06657027361484,资溪县绿源电动车旗舰店,江西省,,
江西省抚州市乐安县商贸南大道农业局楼下,抚州市,乐安县,27.43407986449759,115.83749627865299,乐安县明发电动车商行,江西省,,
江西省鹰潭市余江县安仁大道D488号,鹰潭市,余江区,28.321070494465427,116.92157395441147,余江县爱玛专卖店,江西省,,
江西省鹰潭贵溪市雄石中路146号,鹰潭市,贵溪市,28.29873507210513,117.25139869833444,贵溪市爱玛电动车专卖店,江西省,,
江西省鹰潭市正大南路95号,鹰潭市,月湖区,28.24507833155475,117.04354760170725,月湖区爱玛电动车店,江西省,,
江西省赣州市路通电动车超市,赣州市,章贡区,25.835176103497655,114.9405033729825,赣州市德源车业有限公司,江西省,,
江西省赣州市石城县琴江镇西华中路36号,赣州市,石城县,26.31897234678407,116.35259426977315,石城县永发电动车行,江西省,,
江西省赣州市于都县贡江镇福田新村9栋,赣州市,于都县,25.959324709065147,115.55647180142871,于都县爱玛电动车商行,江西省,,
江西省赣州市宁都县梅江镇中山北路,赣州市,宁都县,26.493512104130414,115.97262533571018,宁都县梅江镇振华电动车经营部,江西省,,
江西省赣州市南康市金赣大道金赣小区1号,赣州市,南康区,25.667052930560434,114.77153821508895,南康区骁勇电动车商行,江西省,,
江西省赣州市赣县梅林镇赣新大道人大综合楼5-11号,赣州市,赣县区,25.86638461662099,115.01857016414861,赣县骏元车行,江西省,,
江西省赣州市寻乌县岳家庄大道92号居委会1楼,赣州市,寻乌县,24.969446546780166,115.65351531535123,寻乌县建平电动摩托车销售有限公司,江西省,,
江西省赣州瑞金市绵水路安琪儿专卖,赣州市,瑞金市,25.88168819423744,116.01679078211072,瑞金市象湖镇云月晖车行,江西省,,
江西省赣州市会昌县县城水东延增街爱玛专卖,赣州市,会昌县,25.606661833811145,115.79245964209457,江西省会昌县陈会兰,江西省,,
江西省赣州市兴国县城北街,赣州市,兴国县,26.34388258824273,115.36955169119426,兴国县昌运电动车经营部,江西省,,
江西省赣州市信丰县嘉定镇南山西路中段,赣州市,信丰县,25.382053345552116,114.93829687593876,信丰领先车行南山西路店,江西省,,
江西省吉安市泰和县工农兵大道,吉安市,泰和县,26.795697341164775,114.91559111543528,泰和县新爱玛电动车店,江西省,,
江西省吉安市万安县凤凰路406号,吉安市,万安县,26.464072836340645,114.79257715893954,万安张慧勇,江西省,,
江西省吉安市吉州区滨江一期E栋3号,吉安市,吉州区,27.149314993877184,115.00153936965165,吉安市吉州区爱心车行,江西省,,
江西省吉安市永丰县恩江镇迎宾大道41号,吉安市,永丰县,27.324342103714045,115.44740243988527,永丰县顺达电动车行,江西省,,
江西省吉安市永新县茗园街,吉安市,永新县,26.95325001955607,114.24791251813822,永新县爱玛电动车,江西省,,
江西省吉安市吉安县庐陵大道爱玛专卖店,吉安市,吉安县,27.044989078994433,114.91459130140301,吉安县爱玛电动车店,江西省,,
江西省吉安市吉水县龙杂大道365号,吉安市,吉水县,27.235259745038604,115.14256983128013,吉水县运金车行,江西省,,
江西省吉安市安福县金岸广场1楼12号,吉安市,安福县,27.399076477104835,114.62647813460515,安福县彭中华车行,江西省,,
江西省景德镇市马鞍山路爱玛专卖店,景德镇市,珠山区,29.30577822037362,117.20954826158831,珠山区爱玛电动车行,江西省,,
江西省乐平市聚龙广场火车站旁,景德镇市,乐平市,28.972925815737344,117.12217778942798,乐平市爱玛电动车销售中心,江西省,,
江西省新余市电动车一条街,新余市,渝水区,27.812280849710444,114.94141452426099,渝水区锦龙路清华祥龙电动车行,江西省,,
江西省萍乡市建设中路63号,萍乡市,安源区,27.621307703861603,113.87743991926233,萍乡市安源区大豪江车行,江西省,,
江西省萍乡市莲花县康达路212,萍乡市,莲花县,27.13761844342452,113.95879664027282,莲花县爱玛电动车销售部,江西省,,
江西省萍乡市上栗县平安北路100号,萍乡市,上栗县,27.886415692068386,113.80153822403567,上栗县爱玛车行,江西省,,
江西省宜春市朝阳路四区A栋A1号,宜春市,袁州区,27.820856421848216,114.4235636759064,宜春市云涛实业有限公司,江西省,,
江西省宜春市万载县阳乐大道,宜春市,万载县,28.112133306115535,114.45253654384906,万载县水生新能源电动车商行,江西省,,
江西省宜春市靖江县城中大街39号,宜春市,靖安县,28.867081916185878,115.36955312848308,靖安县舒氏琪健车行,江西省,,
江西省宜春市高安市筠泉东路,宜春市,高安市,28.422857002119002,115.38256535328246,高安市蓝熠车业,江西省,,
江西省宜春市宜丰县城东南路625号爱玛电动车,宜春市,宜丰县,28.400373307264914,114.80951713474946,宜丰县爱玛电动车专卖店,江西省,,
江西省宜春市上高县敖山大道39号,宜春市,上高县,28.23881549025242,114.93154115857352,上高县刘海生电动车行,江西省,,
江西省樟树市药都北大道5-6号,宜春市,樟树市,28.062153117647533,115.55241893532511,樟树市世邦电动摩托车行,江西省,,
江西省宜春市奉新县狮山大道铃木摩托专卖店,宜春市,奉新县,28.69402895145841,115.40655109852699,奉新县英明车行,江西省,,
江西省宜春市丰城市河州摩托车市场商住楼35-38号,宜春市,丰城市,28.166614024368958,115.7774784214485,丰城市发财车行,江西省,,
江西省九江市庐山路163号,阿克苏地区,阿克苏市,41.182736602383066,80.28823056896086,远通商行,新疆维吾尔自治区,,
江西省都昌县万里大道爱玛专卖店,九江市,都昌县,29.278965044766643,116.21055204664913,都昌县方明亮电动车行,江西省,,
江西省九江市永修县新城农民街财政局对面建昌摩托修配行,九江市,永修县,29.05668976517485,115.81549831911146,永修县涂埠镇新城建昌摩托车电动车销售店,江西省,,
江西省九江瑞昌市人民南路24号,九江市,瑞昌市,29.677455156299516,115.67439745997511,瑞昌市可人电动车,江西省,,
江西省九江市德安县祥临居B11号,九江市,德安县,29.30817747733783,115.74402606325128,德安县物流港火应电动车行,江西省,,
九江市武宁县建昌路45号,九江市,武宁县,29.262352150699854,115.10744177398514,武宁县朱氏电动车老浙车行,江西省,,
江西省九江市修水县城北老城头爱玛专卖,九江市,修水县,29.03117586795911,114.55356797638683,修水县美丹电动车行,江西省,,
