address,city,districd,lat,lon,name,province,street,town
福建省龙岩市新罗区安南路东亚商城爱玛专卖店,龙岩市,新罗区,25.081219844871676,117.02344756677536,龙岩市乔恩贸易有限公司,福建省,,
福建省龙岩市连城县莲峰镇连宁路方圆商住楼7号,龙岩市,连城县,25.71633738185191,116.76044617117844,连城县莲峰春英电动车行,福建省,,
福建省龙岩区漳平市菁城街道东环路55号,龙岩市,漳平市,25.295743499251625,117.426556325259,漳平市光俗摩托车行,福建省,,
福建省龙岩市长汀县汀州环城东路幸福花园139号,龙岩市,长汀县,25.83918461828047,116.36356796987941,长汀县腾飞电动车行,福建省,,
福建省三明市永安市雁江南路853号,三明市,永安市,25.948143989823954,117.37144258732353,永安市天宇车行,福建省,,
福建省三明市大田县均溪镇宝山路144号,三明市,大田县,25.698932641878844,117.85343999668406,大田县爱玛车行,福建省,,
福建省三明市宁化县工商局一楼爱玛电动车,三明市,宁化县,26.267956490540477,116.66042551200016,宁化县奇安电动车行,福建省,,
福建省三明市泰宁县金湖西路邮政支局1楼,三明市,泰宁县,26.90566003228466,117.18259586239803,泰宁县佳盛车行,福建省,,
福建省三明市将乐县古铺镇龟三北路2-7号,三明市,将乐县,26.735209519833294,117.47740904083985,将乐县阿杰电动车经营部,福建省,,
福建省三明市建宁县黄舟坊南路10号,三明市,建宁县,26.83682465534918,116.85250622659105,建宁县协力车行,福建省,,
福建省三明市沙县三官堂三幢12-13号,三明市,梅列区,26.269736515991838,117.64552116782143,三明宏运贸易有限公司,福建省,,
福建省三明市清流县龙津镇长兴北街移动宿舍1楼9号店,三明市,清流县,26.183357353210287,116.82359318579535,清流县礼兴盛世摩托车行,福建省,,
明溪县雪峰镇北大路38号,三明市,明溪县,26.361853685276866,117.20851763567705,明溪县城关华达摩托车行,福建省,,
福建省尤溪县七五路74号瑞英电动车行,三明市,尤溪县,26.176218039460192,118.19743971364737,尤溪县瑞英电动车行,福建省,,
福建省漳州市芗城区东南商贸城C区,漳州市,芗城区,24.51892979117087,117.65357645298785,漳州市运旺电动车有限公司,福建省,,
福建省漳州市云霄县宝成路75号,漳州市,云霄县,23.964072828247573,117.34644831448325,云霄县昌舜电动车行,福建省,,
福建省漳州市漳浦县交通大酒店对面,漳州市,漳浦县,24.131191835101678,117.62379550264599,漳浦县绥安镇鸿毅摩托车配件行,福建省,,
福建省漳州市诏安县南诏镇中山西路210号,漳州市,诏安县,23.717053963784434,117.18255858271938,诏安县吴剑敏电动车行,福建省,,
福建省漳州市龙海市港尾镇梅市村瑞鸿小区对面,漳州市,龙海市,24.445692433150043,117.82891778338913,龙海市群兴摩托贸易有限公司,福建省,,
福建省漳州市龙海市海城镇城隍路转角,漳州市,龙海市,24.452939738546615,117.82445086941169,龙海市海澄品胜车行,福建省,,
福建省郑州市平和县北环路119号,漳州市,芗城区,24.51892979117087,117.65357645298785,漳州立鸿工贸有限公司,福建省,,
福建省漳州市东山县西浦镇白石街新秀路198号,漳州市,东山县,23.698327882434803,117.45182300385525,东山县西埔镇秀欣电动车店,福建省,,
福建省南平市滨江中路579号,南平市,延平区,26.643807791057217,118.18845055007307,南平市延平区王氏自行车店,福建省,,
福建省南平市邵武市邮政新村一楼,南平市,邵武市,27.33859817156041,117.50265654061346,邵武市福达摩托车有限公司,福建省,,
福建省南平市建阳市童游街道办事处下马亭路华阳大厦,南平市,建阳区,27.337502466187814,118.12752522464272,南平市建阳区名途车贸商行,福建省,,
福建省南平市光泽县坪山路30号,南平市,光泽县,27.547272859205247,117.34048158962685,光泽县福达贸易有限公司,福建省,,
福建省南平市松溪县工农西路70号,南平市,松溪县,27.532554907166524,118.79145438277632,松溪县爱玛电动车店,福建省,,
福建省南平市顺昌县城南中路15号,南平市,顺昌县,26.799104367214422,117.81651928091397,顺昌县兴旺摩托车商行,福建省,,
福建省南平市建瓯市锦江A座12号爱玛专卖,南平市,建瓯市,27.028955089428838,118.31146073368568,建瓯市饶氏电动自行车店,福建省,,
福建省南平市浦城县江滨大道107-108号下水南桥头,南平市,浦城县,27.923390046145474,118.54743912327928,浦城县陈小烨电动车商行,福建省,,
福建省武夷山市五九南路197号,南平市,武夷山市,27.762553910259268,118.04157715008745,武夷山市子心车行,福建省,,
福建省宁德市古田县614路71号,宁德市,古田县,26.583261752072914,118.75257823557276,古田县新兴华利电动车行,福建省,,
福建省宁德市屏南县东环北路500号,宁德市,屏南县,26.914264918059377,118.99259621521281,屏南雨晟电动车商行,福建省,,
福建省宁德市福鼎市中山南路590-592号,宁德市,福鼎市,27.33052497252825,120.22345190932259,福鼎市鼎力车行,福建省,,
福建省宁德市福安市甘棠镇府前路A4-6,宁德市,福安市,27.094323508059915,119.65440636047963,福安市甘棠隆发车行,福建省,,
福建省宁德市福安市鹤翔路89号,宁德市,福安市,27.094323508059915,119.65440636047963,福安市顺利助动自行车车行,福建省,,
福建省宁德市霞浦县目海路52号,宁德市,霞浦县,26.891348873766713,120.01142710563632,霞浦县胡东平车行,福建省,,
福建省福州市晋安区鼓山镇招贤路8号,福州市,鼓楼区,26.080429420698078,119.30346983854001,福州新富达贸易有限公司,福建省,,
福建省福州市平潭县豪香大酒店西侧134号爱玛专卖店,福州市,平潭县,25.504700273944916,119.79650131413707,平潭县林珽电动自行车店,福建省,,
福建省福州市罗源县凤山镇妈祖前新村57#楼014号,福州市,罗源县,26.495495660323886,119.55648045991936,罗源县城关榕祥自行车店,福建省,,
福建省福州市永泰县樟城镇龙峰园6-1号,福州市,永泰县,25.870210598870994,118.95040158911743,永泰县樟城龙峰园安安摩托车店,福建省,,
福建省福州市闽侯县南屿镇南井十字路口,福州市,闽侯县,26.156035214577336,119.13848201812112,闽侯县南屿嘉业摩托车店,福建省,,
福建省福州市连江县凤城镇金安西路西凤苑1号楼电信局对面爱玛车行12号店,福州市,连江县,26.209549733337745,119.54718552931908,连江县凤城镇爱玛电动车店,福建省,,
福建省福州市闽清县梅城镇西大陆532号,福州市,闽清县,26.226847540201835,118.86957650956182,闽清长鸿工贸有限公司,福建省,,
福建省福州市连江县潘渡乡安新天地贵荣苑负一层35、36店面,福州市,连江县,26.270131778332043,119.42524792248504,连江县潘渡乡谦恩自行车店,福建省,,
福建省福州长乐市金峰镇董朱礼堂旁,福州市,长乐区,25.96925744807659,119.52943832000868,长乐金峰春利摩托车店,福建省,,
福建省福州市闽清县池园镇后村商贸街,福州市,闽清县,26.226847540201835,118.86957650956182,闽清县池园克涛摩托车店,福建省,,
福建省福州福清市江滨路3号,福州市,福清市,25.72634329903456,119.39046524748903,福清三亚贸易有限公司,福建省,,
福建省莆田市荔城区梅园路900号,莆田市,荔城区,25.43975447880629,119.01948169064262,莆田市荔城区腾飞电动车店,福建省,,
福建省莆田市仙游县柳安路新车站红绿灯旁边,莆田市,仙游县,25.36829149810406,118.69845425064784,仙游县鲤南阿朝电动车行,福建省,,
仙游县榜头镇光明南路法院旁,莆田市,仙游县,25.437689500394836,118.76455472489913,仙游县榜头镇吓彬立马电动车行,福建省,,
莆田市秀屿区笏石镇西天尾停车场对面爱玛电动车,莆田市,秀屿区,25.321167542786487,119.10312112003803,莆田市秀屿区笏石启迪车行,福建省,,
福建省莆田市涵江区武夷大厦11、12、13号,莆田市,涵江区,25.464464388124497,119.12256736821995,莆田市涵江区福玛电动车行,福建省,,
福建省泉州市泉港区南山中路汇丰大厦,泉州市,泉港区,25.139650393953733,118.92243298541256,泉港区奋达电动车商行,福建省,,
福建省泉州市丰泽区清源西贤路西华公寓101-102号,泉州市,丰泽区,24.894969993261856,118.6195801523202,丰泽区银海电动车行,福建省,,
福建省泉州市惠安县崇武镇五峰村惠崇莲岛路,泉州市,惠安县,25.03694981503913,118.80341550029883,惠安县崇武亚扁电动车行,福建省,,
福建省泉州市晋江市青阳朱安中路世纪花园2栋123号,泉州市,晋江市,24.787824575144548,118.55843052000408,晋江市青阳安达电动车行,福建省,,
福建省泉州市鲤城区中山南路297号,泉州市,丰泽区,24.879952330498313,118.68244626680422,泉州市金台凌新能源有限公司,福建省,,
福建省石狮市濠江路津花园,泉州市,石狮市,24.737665160882703,118.65451902647484,石狮市众鸿摩托车店,福建省,,
福建省厦门市仙岳路1391号,厦门市,湖里区,24.50590721599302,118.13893475832803,厦门尚好捷电动车有限公司,福建省,,
福建省厦门市翔安区马巷镇巷西路桐梓社区,厦门市,翔安区,24.624216383592774,118.25457589660734,厦门市翔安区超爱骑电动车经营部,福建省,,
福建省厦门市海沧区海达路172号,厦门市,海沧区,24.49032581859842,118.03956171184593,厦门市海沧区鑫佳苑自行车商行,福建省,,
福建省厦门市同安区天环城北路同安一中旁爱玛专卖店,厦门市,同安区,24.729113975346568,118.15856347661324,厦门市同安区捷超摩托车店,福建省,,
福建省厦门市集美区杏滨街道杏西路31号,厦门市,集美区,24.582019062249607,118.10343491663684,厦门市集美区张思剑摩托车行,福建省,,
